{
  "type": "Feature",
  "properties": {
    "lake": "zuerichsee",
    "osm_relation": 32362,
    "simplify": 0.0003
  },
  "geometry": {
    "type": "Polygon",
    "coordinates": [
      [
        [
          8.6152783,
          47.2555283
        ],
        [
          8.6111461,
          47.2566427
        ],
        [
          8.6049081,
          47.2593036
        ],
        [
          8.6020598,
          47.2598782
        ],
        [
          8.6002937,
          47.2613247
        ],
        [
          8.5992883,
          47.2611623
        ],
        [
          8.5958026,
          47.2620999
        ],
        [
          8.5916155,
          47.2642857
        ],
        [
          8.5917655,
          47.2646155
        ],
        [
          8.5905976,
          47.2655128
        ],
        [
          8.5909417,
          47.2665056
        ],
        [
          8.5900783,
          47.267741
        ],
        [
          8.5893142,
          47.2684966
        ],
        [
          8.5887997,
          47.2683703
        ],
        [
          8.5872736,
          47.2702115
        ],
        [
          8.5839668,
          47.2726569
        ],
        [
          8.5826599,
          47.2748122
        ],
        [
          8.5831889,
          47.2747029
        ],
        [
          8.5824061,
          47.2758248
        ],
        [
          8.5829823,
          47.2762254
        ],
        [
          8.5821589,
          47.2764694
        ],
        [
          8.5820769,
          47.2772198
        ],
        [
          8.5816955,
          47.2772644
        ],
        [
          8.5815747,
          47.2798547
        ],
        [
          8.579714,
          47.2823755
        ],
        [
          8.5777305,
          47.283839
        ],
        [
          8.5778744,
          47.2845806
        ],
        [
          8.5771626,
          47.285895
        ],
        [
          8.5751381,
          47.2876374
        ],
        [
          8.573468,
          47.2909316
        ],
        [
          8.5680531,
          47.2966358
        ],
        [
          8.5615849,
          47.3021442
        ],
        [
          8.5597631,
          47.3043612
        ],
        [
          8.5600328,
          47.3048702
        ],
        [
          8.5591133,
          47.3055253
        ],
        [
          8.5582391,
          47.3093445
        ],
        [
          8.5584942,
          47.3096819
        ],
        [
          8.5569518,
          47.3110414
        ],
        [
          8.556913,
          47.312913
        ],
        [
          8.5563153,
          47.3136455
        ],
        [
          8.5564346,
          47.3154826
        ],
        [
          8.5550129,
          47.3172298
        ],
        [
          8.5546644,
          47.3170201
        ],
        [
          8.554971,
          47.3172841
        ],
        [
          8.554645,
          47.3177001
        ],
        [
          8.5540551,
          47.3177388
        ],
        [
          8.5544606,
          47.3180953
        ],
        [
          8.551875,
          47.3207858
        ],
        [
          8.5513813,
          47.3219105
        ],
        [
          8.5518056,
          47.3219628
        ],
        [
          8.551833,
          47.322526
        ],
        [
          8.5513596,
          47.3226914
        ],
        [
          8.5512627,
          47.3236263
        ],
        [
          8.5501072,
          47.3240767
        ],
        [
          8.5476391,
          47.328646
        ],
        [
          8.5476432,
          47.3297757
        ],
        [
          8.5458618,
          47.3312888
        ],
        [
          8.5462896,
          47.3315033
        ],
        [
          8.5461039,
          47.3319146
        ],
        [
          8.5447121,
          47.3327483
        ],
        [
          8.5451553,
          47.3330594
        ],
        [
          8.5439367,
          47.3335103
        ],
        [
          8.5423362,
          47.3364106
        ],
        [
          8.5417367,
          47.3361968
        ],
        [
          8.5415172,
          47.3367669
        ],
        [
          8.5402559,
          47.3368146
        ],
        [
          8.5401392,
          47.3377559
        ],
        [
          8.5396029,
          47.3376653
        ],
        [
          8.5407973,
          47.3384102
        ],
        [
          8.5396079,
          47.3382683
        ],
        [
          8.538712,
          47.3405383
        ],
        [
          8.5388328,
          47.3409027
        ],
        [
          8.5394821,
          47.3407668
        ],
        [
          8.5377608,
          47.3410361
        ],
        [
          8.5367493,
          47.3424891
        ],
        [
          8.5372934,
          47.3427611
        ],
        [
          8.5371208,
          47.3442799
        ],
        [
          8.536656,
          47.3453629
        ],
        [
          8.5361506,
          47.3452814
        ],
        [
          8.5366559,
          47.3454436
        ],
        [
          8.5360908,
          47.3457765
        ],
        [
          8.5360135,
          47.3468966
        ],
        [
          8.5367932,
          47.3471608
        ],
        [
          8.5352615,
          47.3470334
        ],
        [
          8.5349476,
          47.3486915
        ],
        [
          8.5362497,
          47.3490272
        ],
        [
          8.5356597,
          47.3499786
        ],
        [
          8.5359587,
          47.355199
        ],
        [
          8.5365589,
          47.3559081
        ],
        [
          8.5367369,
          47.3572879
        ],
        [
          8.53614,
          47.3575
        ],
        [
          8.535904,
          47.3584952
        ],
        [
          8.5371812,
          47.3590815
        ],
        [
          8.5361643,
          47.3592527
        ],
        [
          8.5360649,
          47.3605983
        ],
        [
          8.5369023,
          47.3605714
        ],
        [
          8.5371771,
          47.3595579
        ],
        [
          8.5369971,
          47.360522
        ],
        [
          8.5365082,
          47.3609544
        ],
        [
          8.5367258,
          47.3607109
        ],
        [
          8.5360627,
          47.3606188
        ],
        [
          8.5359991,
          47.3612386
        ],
        [
          8.5373809,
          47.3630553
        ],
        [
          8.5370462,
          47.3638413
        ],
        [
          8.5400707,
          47.3658499
        ],
        [
          8.5439574,
          47.3668821
        ],
        [
          8.547199,
          47.361896
        ],
        [
          8.5471348,
          47.3578408
        ],
        [
          8.5478277,
          47.357816
        ],
        [
          8.550649,
          47.354315
        ],
        [
          8.5502919,
          47.3533252
        ],
        [
          8.5511869,
          47.352724
        ],
        [
          8.5552232,
          47.3525505
        ],
        [
          8.5587543,
          47.3516954
        ],
        [
          8.5607275,
          47.3499877
        ],
        [
          8.560913,
          47.3490306
        ],
        [
          8.561866,
          47.3488683
        ],
        [
          8.5611066,
          47.3486282
        ],
        [
          8.5619983,
          47.3480377
        ],
        [
          8.5616443,
          47.3480188
        ],
        [
          8.5621525,
          47.3472757
        ],
        [
          8.562774,
          47.3473244
        ],
        [
          8.5621904,
          47.3471336
        ],
        [
          8.5628806,
          47.3463797
        ],
        [
          8.5641194,
          47.3462022
        ],
        [
          8.5651496,
          47.3452533
        ],
        [
          8.5666088,
          47.3426536
        ],
        [
          8.5672843,
          47.3390254
        ],
        [
          8.572749,
          47.3301776
        ],
        [
          8.5729247,
          47.3273478
        ],
        [
          8.5730165,
          47.3280855
        ],
        [
          8.573742,
          47.326713
        ],
        [
          8.5755309,
          47.3251554
        ],
        [
          8.5766733,
          47.3232116
        ],
        [
          8.5768221,
          47.3219907
        ],
        [
          8.5777394,
          47.3210543
        ],
        [
          8.5777568,
          47.3201919
        ],
        [
          8.5780367,
          47.3198127
        ],
        [
          8.5778785,
          47.3202018
        ],
        [
          8.5782508,
          47.3202494
        ],
        [
          8.5782592,
          47.3186455
        ],
        [
          8.5765678,
          47.3174777
        ],
        [
          8.5783963,
          47.3161202
        ],
        [
          8.5784321,
          47.3150927
        ],
        [
          8.5788522,
          47.3150869
        ],
        [
          8.5793135,
          47.3135604
        ],
        [
          8.5845633,
          47.3082191
        ],
        [
          8.5882336,
          47.3058048
        ],
        [
          8.5887507,
          47.3059026
        ],
        [
          8.5894188,
          47.3027515
        ],
        [
          8.5914402,
          47.3016031
        ],
        [
          8.5910061,
          47.3015817
        ],
        [
          8.5928962,
          47.2995656
        ],
        [
          8.59419,
          47.2994951
        ],
        [
          8.5956685,
          47.2984771
        ],
        [
          8.5987637,
          47.2932065
        ],
        [
          8.6061393,
          47.287472
        ],
        [
          8.6059573,
          47.2872067
        ],
        [
          8.6098711,
          47.2835169
        ],
        [
          8.610337,
          47.2823251
        ],
        [
          8.6124832,
          47.2809664
        ],
        [
          8.6143649,
          47.2785187
        ],
        [
          8.6193114,
          47.2758104
        ],
        [
          8.622687,
          47.2746803
        ],
        [
          8.6239718,
          47.2734763
        ],
        [
          8.6269824,
          47.2726132
        ],
        [
          8.6283794,
          47.2713591
        ],
        [
          8.6364433,
          47.2701706
        ],
        [
          8.6383515,
          47.2676568
        ],
        [
          8.6406813,
          47.2676906
        ],
        [
          8.6432974,
          47.266863
        ],
        [
          8.6451501,
          47.2674617
        ],
        [
          8.6478137,
          47.2674882
        ],
        [
          8.648018,
          47.2667421
        ],
        [
          8.6495792,
          47.2667374
        ],
        [
          8.6516358,
          47.2646418
        ],
        [
          8.6534416,
          47.2646114
        ],
        [
          8.6533009,
          47.264004
        ],
        [
          8.6545309,
          47.2637847
        ],
        [
          8.653366,
          47.2640306
        ],
        [
          8.6534256,
          47.2643715
        ],
        [
          8.6547988,
          47.2644326
        ],
        [
          8.655628,
          47.2638177
        ],
        [
          8.6562421,
          47.2638355
        ],
        [
          8.6557288,
          47.2638951
        ],
        [
          8.6558152,
          47.2642555
        ],
        [
          8.6578621,
          47.2640006
        ],
        [
          8.6604437,
          47.2644177
        ],
        [
          8.6616106,
          47.2627023
        ],
        [
          8.6630341,
          47.2618977
        ],
        [
          8.6663737,
          47.2619521
        ],
        [
          8.6666736,
          47.2614235
        ],
        [
          8.6729383,
          47.2591778
        ],
        [
          8.6756966,
          47.2589439
        ],
        [
          8.6748094,
          47.2587867
        ],
        [
          8.6754731,
          47.2585091
        ],
        [
          8.6764389,
          47.2591934
        ],
        [
          8.6761386,
          47.2587405
        ],
        [
          8.6771763,
          47.2586654
        ],
        [
          8.6769838,
          47.2583232
        ],
        [
          8.6774033,
          47.258143
        ],
        [
          8.6805403,
          47.2575772
        ],
        [
          8.681026,
          47.2572786
        ],
        [
          8.6809858,
          47.2565084
        ],
        [
          8.681866,
          47.2559959
        ],
        [
          8.6824757,
          47.2560368
        ],
        [
          8.6810326,
          47.2565205
        ],
        [
          8.681407,
          47.2569847
        ],
        [
          8.6826434,
          47.2563948
        ],
        [
          8.6824626,
          47.2561457
        ],
        [
          8.685157,
          47.2558024
        ],
        [
          8.6875693,
          47.2545902
        ],
        [
          8.6878093,
          47.2548798
        ],
        [
          8.6885217,
          47.2542583
        ],
        [
          8.6881876,
          47.2540282
        ],
        [
          8.6891202,
          47.2538035
        ],
        [
          8.6886551,
          47.253226
        ],
        [
          8.6893625,
          47.252515
        ],
        [
          8.6896929,
          47.2529602
        ],
        [
          8.6900149,
          47.2526232
        ],
        [
          8.6896432,
          47.2524312
        ],
        [
          8.6907199,
          47.251832
        ],
        [
          8.6931433,
          47.2514526
        ],
        [
          8.6967513,
          47.2489717
        ],
        [
          8.6969102,
          47.2493123
        ],
        [
          8.7001326,
          47.2476931
        ],
        [
          8.700673,
          47.2478167
        ],
        [
          8.700433,
          47.2474579
        ],
        [
          8.7013932,
          47.2471085
        ],
        [
          8.7015999,
          47.2474354
        ],
        [
          8.7059783,
          47.2465636
        ],
        [
          8.7065353,
          47.2457053
        ],
        [
          8.7074917,
          47.2461662
        ],
        [
          8.7071238,
          47.2457443
        ],
        [
          8.7087419,
          47.2450613
        ],
        [
          8.7089994,
          47.2444844
        ],
        [
          8.7100693,
          47.2447089
        ],
        [
          8.7097265,
          47.244194
        ],
        [
          8.7101497,
          47.2441901
        ],
        [
          8.7119412,
          47.2415238
        ],
        [
          8.7139973,
          47.2402461
        ],
        [
          8.7134732,
          47.2406988
        ],
        [
          8.7141832,
          47.240744
        ],
        [
          8.7161155,
          47.2391969
        ],
        [
          8.716898,
          47.2395156
        ],
        [
          8.7167138,
          47.2392568
        ],
        [
          8.7178527,
          47.2387104
        ],
        [
          8.7177163,
          47.2392112
        ],
        [
          8.7185389,
          47.2390251
        ],
        [
          8.7181669,
          47.2386453
        ],
        [
          8.7200696,
          47.2381938
        ],
        [
          8.7202092,
          47.2385622
        ],
        [
          8.7212677,
          47.2378627
        ],
        [
          8.7255292,
          47.2378334
        ],
        [
          8.7259593,
          47.2376934
        ],
        [
          8.7257229,
          47.2373964
        ],
        [
          8.7271238,
          47.237338
        ],
        [
          8.7352777,
          47.233431
        ],
        [
          8.7360606,
          47.2336284
        ],
        [
          8.7355231,
          47.2336274
        ],
        [
          8.7361055,
          47.2340451
        ],
        [
          8.7365819,
          47.2335806
        ],
        [
          8.7379867,
          47.2335847
        ],
        [
          8.7420913,
          47.2346841
        ],
        [
          8.7462786,
          47.2337421
        ],
        [
          8.7487212,
          47.2344178
        ],
        [
          8.7520411,
          47.2343017
        ],
        [
          8.752202,
          47.2347516
        ],
        [
          8.7559179,
          47.2344054
        ],
        [
          8.7584427,
          47.2334392
        ],
        [
          8.7583056,
          47.2338905
        ],
        [
          8.7591626,
          47.2335184
        ],
        [
          8.759187,
          47.2339886
        ],
        [
          8.7697868,
          47.2346476
        ],
        [
          8.7749775,
          47.2344343
        ],
        [
          8.7785147,
          47.2336059
        ],
        [
          8.7820583,
          47.2350507
        ],
        [
          8.7873819,
          47.2342551
        ],
        [
          8.788347,
          47.2353804
        ],
        [
          8.7909573,
          47.2361892
        ],
        [
          8.7932003,
          47.2385934
        ],
        [
          8.7956103,
          47.2388739
        ],
        [
          8.7968187,
          47.2396551
        ],
        [
          8.7992016,
          47.2398067
        ],
        [
          8.7996609,
          47.2392308
        ],
        [
          8.8004479,
          47.2393612
        ],
        [
          8.8002203,
          47.2389868
        ],
        [
          8.8009379,
          47.2385835
        ],
        [
          8.8002744,
          47.2378988
        ],
        [
          8.8049699,
          47.2373475
        ],
        [
          8.8078942,
          47.2377773
        ],
        [
          8.8109371,
          47.2365865
        ],
        [
          8.8154917,
          47.2366525
        ],
        [
          8.8165887,
          47.2363738
        ],
        [
          8.8172785,
          47.2349388
        ],
        [
          8.8178609,
          47.2349598
        ],
        [
          8.8173249,
          47.2348076
        ],
        [
          8.8179972,
          47.2334548
        ],
        [
          8.8179731,
          47.229568
        ],
        [
          8.8172883,
          47.2286258
        ],
        [
          8.8112494,
          47.2268899
        ],
        [
          8.813398,
          47.2262147
        ],
        [
          8.8134476,
          47.2245638
        ],
        [
          8.8140493,
          47.2259066
        ],
        [
          8.8151937,
          47.2253099
        ],
        [
          8.8153067,
          47.2249482
        ],
        [
          8.8131337,
          47.223697
        ],
        [
          8.8134577,
          47.223507
        ],
        [
          8.8145867,
          47.2239449
        ],
        [
          8.8158717,
          47.2224538
        ],
        [
          8.8174004,
          47.2226061
        ],
        [
          8.8178221,
          47.2221479
        ],
        [
          8.8207252,
          47.221498
        ],
        [
          8.8239818,
          47.2220062
        ],
        [
          8.8250146,
          47.2213038
        ],
        [
          8.8243962,
          47.2218352
        ],
        [
          8.8255896,
          47.2219712
        ],
        [
          8.8266499,
          47.2201006
        ],
        [
          8.8273477,
          47.2200357
        ],
        [
          8.8287081,
          47.2185872
        ],
        [
          8.8317755,
          47.2167513
        ],
        [
          8.8324214,
          47.2169918
        ],
        [
          8.8340658,
          47.2162771
        ],
        [
          8.842455,
          47.2163678
        ],
        [
          8.8431407,
          47.2157493
        ],
        [
          8.843403,
          47.2145977
        ],
        [
          8.8437066,
          47.2154833
        ],
        [
          8.8441533,
          47.2151203
        ],
        [
          8.843848,
          47.2148634
        ],
        [
          8.8444018,
          47.2149597
        ],
        [
          8.8449151,
          47.2159111
        ],
        [
          8.8471821,
          47.2155876
        ],
        [
          8.8452849,
          47.2162273
        ],
        [
          8.8464773,
          47.217862
        ],
        [
          8.8473286,
          47.2173701
        ],
        [
          8.8463166,
          47.2165395
        ],
        [
          8.8482814,
          47.2164341
        ],
        [
          8.84844,
          47.2171171
        ],
        [
          8.8503603,
          47.2172685
        ],
        [
          8.8511372,
          47.217129
        ],
        [
          8.8515675,
          47.2163255
        ],
        [
          8.851555,
          47.2173277
        ],
        [
          8.8497325,
          47.2175093
        ],
        [
          8.8493251,
          47.2183586
        ],
        [
          8.8483458,
          47.2181225
        ],
        [
          8.8481373,
          47.2192921
        ],
        [
          8.8493111,
          47.2201821
        ],
        [
          8.849738,
          47.2217811
        ],
        [
          8.8517511,
          47.2210418
        ],
        [
          8.8587922,
          47.2220961
        ],
        [
          8.8656536,
          47.2183919
        ],
        [
          8.8698096,
          47.2183964
        ],
        [
          8.8756295,
          47.2176023
        ],
        [
          8.8766746,
          47.216886
        ],
        [
          8.8768737,
          47.2162426
        ],
        [
          8.8761959,
          47.2158963
        ],
        [
          8.8775019,
          47.2156017
        ],
        [
          8.8823727,
          47.215936
        ],
        [
          8.8824486,
          47.2163724
        ],
        [
          8.8890846,
          47.2183265
        ],
        [
          8.8949595,
          47.2189329
        ],
        [
          8.8969074,
          47.2202486
        ],
        [
          8.8990616,
          47.220789
        ],
        [
          8.9051147,
          47.2211304
        ],
        [
          8.9081848,
          47.2227639
        ],
        [
          8.9096333,
          47.2224055
        ],
        [
          8.9116273,
          47.2230574
        ],
        [
          8.9160183,
          47.2231989
        ],
        [
          8.917118,
          47.2234997
        ],
        [
          8.9157931,
          47.2244667
        ],
        [
          8.9165131,
          47.2253518
        ],
        [
          8.9167823,
          47.2248415
        ],
        [
          8.9209984,
          47.2249399
        ],
        [
          8.9208964,
          47.2254678
        ],
        [
          8.9209212,
          47.2250123
        ],
        [
          8.9179951,
          47.2250713
        ],
        [
          8.919351,
          47.2259211
        ],
        [
          8.9240845,
          47.2257441
        ],
        [
          8.9225717,
          47.2253711
        ],
        [
          8.9226924,
          47.2250876
        ],
        [
          8.9255755,
          47.2256137
        ],
        [
          8.9264118,
          47.2253079
        ],
        [
          8.9257566,
          47.2256425
        ],
        [
          8.9260249,
          47.2258174
        ],
        [
          8.9269507,
          47.225328
        ],
        [
          8.9268111,
          47.2257362
        ],
        [
          8.9281563,
          47.2259415
        ],
        [
          8.9347845,
          47.2252736
        ],
        [
          8.9358381,
          47.2255661
        ],
        [
          8.9402452,
          47.2245415
        ],
        [
          8.9405905,
          47.2249542
        ],
        [
          8.9423799,
          47.2244694
        ],
        [
          8.9415897,
          47.2249503
        ],
        [
          8.9424203,
          47.2249412
        ],
        [
          8.9479246,
          47.224164
        ],
        [
          8.9469798,
          47.2241556
        ],
        [
          8.9476319,
          47.2237508
        ],
        [
          8.9469577,
          47.223683
        ],
        [
          8.9461761,
          47.2242841
        ],
        [
          8.9467147,
          47.2235103
        ],
        [
          8.9463138,
          47.2231223
        ],
        [
          8.9476483,
          47.2236668
        ],
        [
          8.94778,
          47.2231609
        ],
        [
          8.9472954,
          47.2231079
        ],
        [
          8.9471436,
          47.2224687
        ],
        [
          8.9468348,
          47.2224955
        ],
        [
          8.9470839,
          47.2230025
        ],
        [
          8.9465047,
          47.2229379
        ],
        [
          8.9467247,
          47.2225279
        ],
        [
          8.9457652,
          47.2219152
        ],
        [
          8.9461098,
          47.2215423
        ],
        [
          8.9440828,
          47.2218396
        ],
        [
          8.9427489,
          47.2213247
        ],
        [
          8.939625,
          47.2214786
        ],
        [
          8.9403571,
          47.2209407
        ],
        [
          8.9400809,
          47.2202648
        ],
        [
          8.9406779,
          47.2208436
        ],
        [
          8.940326,
          47.2198175
        ],
        [
          8.9408934,
          47.2196849
        ],
        [
          8.9407405,
          47.2191218
        ],
        [
          8.9416326,
          47.2183287
        ],
        [
          8.9412147,
          47.2179217
        ],
        [
          8.9369187,
          47.217693
        ],
        [
          8.9374898,
          47.2174827
        ],
        [
          8.9372909,
          47.2168871
        ],
        [
          8.9385621,
          47.2175453
        ],
        [
          8.9446295,
          47.2171396
        ],
        [
          8.9419411,
          47.2159713
        ],
        [
          8.9419113,
          47.2153279
        ],
        [
          8.9379246,
          47.2145646
        ],
        [
          8.9386247,
          47.2141942
        ],
        [
          8.9379541,
          47.2136511
        ],
        [
          8.9354156,
          47.2132665
        ],
        [
          8.9349171,
          47.2133966
        ],
        [
          8.9365873,
          47.2148371
        ],
        [
          8.9355818,
          47.2149328
        ],
        [
          8.9344158,
          47.2137218
        ],
        [
          8.9350749,
          47.2151203
        ],
        [
          8.9340919,
          47.2154149
        ],
        [
          8.9335991,
          47.2150954
        ],
        [
          8.9337821,
          47.2142403
        ],
        [
          8.9334283,
          47.2140184
        ],
        [
          8.93417,
          47.2128771
        ],
        [
          8.920607,
          47.2092628
        ],
        [
          8.9135962,
          47.2077876
        ],
        [
          8.9093049,
          47.2074233
        ],
        [
          8.9043744,
          47.2058602
        ],
        [
          8.8978711,
          47.2050186
        ],
        [
          8.897922,
          47.2046405
        ],
        [
          8.8977503,
          47.2050118
        ],
        [
          8.8972805,
          47.2047052
        ],
        [
          8.897765,
          47.2060198
        ],
        [
          8.8959807,
          47.2041021
        ],
        [
          8.895632,
          47.2047175
        ],
        [
          8.895007,
          47.2044375
        ],
        [
          8.8951202,
          47.2048744
        ],
        [
          8.8960231,
          47.2059281
        ],
        [
          8.8970178,
          47.2061851
        ],
        [
          8.8958763,
          47.2062572
        ],
        [
          8.8952878,
          47.2058005
        ],
        [
          8.8930959,
          47.2075899
        ],
        [
          8.8907862,
          47.2081863
        ],
        [
          8.8905064,
          47.2076792
        ],
        [
          8.8920179,
          47.2072527
        ],
        [
          8.8922308,
          47.2067327
        ],
        [
          8.8923848,
          47.2071881
        ],
        [
          8.8942303,
          47.2060291
        ],
        [
          8.8942885,
          47.2049419
        ],
        [
          8.893768,
          47.2045959
        ],
        [
          8.8929411,
          47.204882
        ],
        [
          8.8926675,
          47.2053412
        ],
        [
          8.8930061,
          47.2057313
        ],
        [
          8.8924722,
          47.2059381
        ],
        [
          8.8916239,
          47.205582
        ],
        [
          8.8905687,
          47.2058743
        ],
        [
          8.8900442,
          47.2049234
        ],
        [
          8.888884,
          47.2049175
        ],
        [
          8.8890565,
          47.2058013
        ],
        [
          8.8879697,
          47.2061259
        ],
        [
          8.8873894,
          47.2078834
        ],
        [
          8.8896901,
          47.2081634
        ],
        [
          8.8873112,
          47.208771
        ],
        [
          8.8845045,
          47.2082957
        ],
        [
          8.882222,
          47.2066374
        ],
        [
          8.8808848,
          47.207448
        ],
        [
          8.8779496,
          47.2072578
        ],
        [
          8.8758586,
          47.2064793
        ],
        [
          8.8756541,
          47.2049801
        ],
        [
          8.8751634,
          47.2056523
        ],
        [
          8.8754101,
          47.2065631
        ],
        [
          8.8713678,
          47.2065846
        ],
        [
          8.865171,
          47.2052222
        ],
        [
          8.8635014,
          47.2053047
        ],
        [
          8.8645521,
          47.2022858
        ],
        [
          8.8635374,
          47.2014711
        ],
        [
          8.8629035,
          47.2015044
        ],
        [
          8.861545,
          47.2048823
        ],
        [
          8.8604902,
          47.204705
        ],
        [
          8.8606295,
          47.2040937
        ],
        [
          8.8612965,
          47.2042011
        ],
        [
          8.8615483,
          47.2032501
        ],
        [
          8.8606305,
          47.2016683
        ],
        [
          8.8599143,
          47.2018993
        ],
        [
          8.860852,
          47.2031002
        ],
        [
          8.8606019,
          47.2035219
        ],
        [
          8.8593154,
          47.2029003
        ],
        [
          8.8588388,
          47.2015847
        ],
        [
          8.8576663,
          47.2017507
        ],
        [
          8.8583159,
          47.2029214
        ],
        [
          8.8575895,
          47.203236
        ],
        [
          8.8577942,
          47.2036975
        ],
        [
          8.8597901,
          47.2042203
        ],
        [
          8.8596184,
          47.2045451
        ],
        [
          8.8579353,
          47.2044672
        ],
        [
          8.8564838,
          47.2037732
        ],
        [
          8.8566789,
          47.2019785
        ],
        [
          8.855148,
          47.2036993
        ],
        [
          8.8540152,
          47.2031791
        ],
        [
          8.852347,
          47.2034497
        ],
        [
          8.8525526,
          47.2025623
        ],
        [
          8.8509854,
          47.2032213
        ],
        [
          8.8515072,
          47.2028931
        ],
        [
          8.851466,
          47.2015114
        ],
        [
          8.8518738,
          47.2010479
        ],
        [
          8.8531054,
          47.2010615
        ],
        [
          8.8527654,
          47.2005875
        ],
        [
          8.8533749,
          47.2003231
        ],
        [
          8.8526423,
          47.2001939
        ],
        [
          8.8523741,
          47.1993308
        ],
        [
          8.853899,
          47.1992907
        ],
        [
          8.8543159,
          47.1984631
        ],
        [
          8.8522244,
          47.1989089
        ],
        [
          8.8527233,
          47.1981052
        ],
        [
          8.8521919,
          47.197134
        ],
        [
          8.8516929,
          47.1970552
        ],
        [
          8.8507159,
          47.1941526
        ],
        [
          8.8519425,
          47.1940326
        ],
        [
          8.8511239,
          47.1933389
        ],
        [
          8.8502748,
          47.1937301
        ],
        [
          8.8505769,
          47.1940143
        ],
        [
          8.8494988,
          47.1924337
        ],
        [
          8.846335,
          47.1923142
        ],
        [
          8.8456684,
          47.191848
        ],
        [
          8.8421529,
          47.1913326
        ],
        [
          8.8383583,
          47.1920713
        ],
        [
          8.8333348,
          47.1945137
        ],
        [
          8.8334813,
          47.1940304
        ],
        [
          8.8327485,
          47.194117
        ],
        [
          8.8329119,
          47.1946043
        ],
        [
          8.8318452,
          47.1953322
        ],
        [
          8.8263833,
          47.1938884
        ],
        [
          8.8250533,
          47.194126
        ],
        [
          8.8226456,
          47.1955882
        ],
        [
          8.820963,
          47.1950339
        ],
        [
          8.8207194,
          47.1958797
        ],
        [
          8.8195608,
          47.195074
        ],
        [
          8.8187262,
          47.1954911
        ],
        [
          8.8187481,
          47.1947597
        ],
        [
          8.8181707,
          47.1948652
        ],
        [
          8.8175378,
          47.1950295
        ],
        [
          8.8179716,
          47.1954489
        ],
        [
          8.8171465,
          47.1955746
        ],
        [
          8.8156122,
          47.1970849
        ],
        [
          8.815372,
          47.1980695
        ],
        [
          8.8157933,
          47.1996437
        ],
        [
          8.8150102,
          47.1994577
        ],
        [
          8.8133781,
          47.2006867
        ],
        [
          8.8099378,
          47.2016944
        ],
        [
          8.8108526,
          47.2010386
        ],
        [
          8.8090167,
          47.2012636
        ],
        [
          8.8095561,
          47.2018628
        ],
        [
          8.8076177,
          47.2014173
        ],
        [
          8.8044505,
          47.2018517
        ],
        [
          8.8023902,
          47.2026723
        ],
        [
          8.8024935,
          47.2030997
        ],
        [
          8.8012313,
          47.2040689
        ],
        [
          8.799089,
          47.2048145
        ],
        [
          8.7986799,
          47.2043751
        ],
        [
          8.7998089,
          47.2032092
        ],
        [
          8.7994239,
          47.2027937
        ],
        [
          8.7955167,
          47.2033735
        ],
        [
          8.7952232,
          47.2039568
        ],
        [
          8.7928482,
          47.2038708
        ],
        [
          8.7929801,
          47.2044025
        ],
        [
          8.7938387,
          47.2044357
        ],
        [
          8.7940072,
          47.2050766
        ],
        [
          8.7928414,
          47.2055196
        ],
        [
          8.7940358,
          47.2053427
        ],
        [
          8.7941999,
          47.2058241
        ],
        [
          8.7934053,
          47.2061449
        ],
        [
          8.7937831,
          47.206611
        ],
        [
          8.7958979,
          47.2057934
        ],
        [
          8.7962872,
          47.2051683
        ],
        [
          8.7971591,
          47.2058365
        ],
        [
          8.7976928,
          47.2053956
        ],
        [
          8.7984983,
          47.2056803
        ],
        [
          8.7976338,
          47.2071649
        ],
        [
          8.797494,
          47.2092013
        ],
        [
          8.7991249,
          47.2124423
        ],
        [
          8.7998628,
          47.212459
        ],
        [
          8.7997316,
          47.2117015
        ],
        [
          8.8000453,
          47.212278
        ],
        [
          8.8012592,
          47.2121252
        ],
        [
          8.8015847,
          47.2126296
        ],
        [
          8.8014923,
          47.2123167
        ],
        [
          8.8021124,
          47.212272
        ],
        [
          8.8026828,
          47.2127869
        ],
        [
          8.8017885,
          47.21317
        ],
        [
          8.8019011,
          47.2134913
        ],
        [
          8.8025836,
          47.2131501
        ],
        [
          8.8045083,
          47.2134433
        ],
        [
          8.8066097,
          47.214635
        ],
        [
          8.8068763,
          47.2151297
        ],
        [
          8.8060546,
          47.2165836
        ],
        [
          8.8067315,
          47.2173476
        ],
        [
          8.8065291,
          47.2178273
        ],
        [
          8.8077926,
          47.2188493
        ],
        [
          8.807581,
          47.2190789
        ],
        [
          8.8064074,
          47.2183085
        ],
        [
          8.8035041,
          47.2182144
        ],
        [
          8.8002848,
          47.2156575
        ],
        [
          8.7971025,
          47.2155275
        ],
        [
          8.7949151,
          47.2146737
        ],
        [
          8.793091,
          47.2133305
        ],
        [
          8.7924294,
          47.2089167
        ],
        [
          8.7917563,
          47.2078135
        ],
        [
          8.7921351,
          47.2074305
        ],
        [
          8.7924555,
          47.2077723
        ],
        [
          8.7920848,
          47.2073524
        ],
        [
          8.7916414,
          47.2077565
        ],
        [
          8.7905158,
          47.2063028
        ],
        [
          8.7836707,
          47.2068007
        ],
        [
          8.7796463,
          47.2076545
        ],
        [
          8.7754148,
          47.2071306
        ],
        [
          8.7751455,
          47.2082538
        ],
        [
          8.7750747,
          47.2076986
        ],
        [
          8.7739934,
          47.2068851
        ],
        [
          8.7738487,
          47.2056253
        ],
        [
          8.7729595,
          47.2062681
        ],
        [
          8.7736187,
          47.2067981
        ],
        [
          8.7728702,
          47.2062967
        ],
        [
          8.7730619,
          47.2059343
        ],
        [
          8.7710778,
          47.2057706
        ],
        [
          8.7656264,
          47.2069424
        ],
        [
          8.7611787,
          47.2067055
        ],
        [
          8.7581857,
          47.2074455
        ],
        [
          8.7575242,
          47.2081458
        ],
        [
          8.7573461,
          47.2078349
        ],
        [
          8.7552071,
          47.208151
        ],
        [
          8.7551128,
          47.2076559
        ],
        [
          8.7544806,
          47.2074942
        ],
        [
          8.7503971,
          47.2073666
        ],
        [
          8.750107,
          47.2078389
        ],
        [
          8.749285,
          47.2073843
        ],
        [
          8.7493623,
          47.2068394
        ],
        [
          8.747362,
          47.2065472
        ],
        [
          8.7471602,
          47.2072466
        ],
        [
          8.7466794,
          47.2072025
        ],
        [
          8.7469154,
          47.2064385
        ],
        [
          8.7465931,
          47.2063984
        ],
        [
          8.7465543,
          47.2067793
        ],
        [
          8.7450854,
          47.2069371
        ],
        [
          8.744476,
          47.2076345
        ],
        [
          8.7447507,
          47.206465
        ],
        [
          8.7437238,
          47.2067873
        ],
        [
          8.7418808,
          47.2054805
        ],
        [
          8.7417772,
          47.2058473
        ],
        [
          8.7415232,
          47.2054195
        ],
        [
          8.7402188,
          47.2056284
        ],
        [
          8.7384026,
          47.2048277
        ],
        [
          8.7368742,
          47.2063906
        ],
        [
          8.7395307,
          47.207596
        ],
        [
          8.7432626,
          47.2078651
        ],
        [
          8.7428365,
          47.2093681
        ],
        [
          8.741658,
          47.2094875
        ],
        [
          8.7419838,
          47.2097165
        ],
        [
          8.7394995,
          47.2089685
        ],
        [
          8.7387827,
          47.2082163
        ],
        [
          8.7391822,
          47.2080434
        ],
        [
          8.7384337,
          47.2075855
        ],
        [
          8.738543,
          47.2081918
        ],
        [
          8.7374755,
          47.2083189
        ],
        [
          8.7382515,
          47.2087157
        ],
        [
          8.7378717,
          47.2093623
        ],
        [
          8.7367657,
          47.2084508
        ],
        [
          8.7360932,
          47.2084791
        ],
        [
          8.7375828,
          47.2094899
        ],
        [
          8.735676,
          47.2084862
        ],
        [
          8.7351437,
          47.2067347
        ],
        [
          8.7335947,
          47.2052964
        ],
        [
          8.7319158,
          47.2055489
        ],
        [
          8.7322591,
          47.2051826
        ],
        [
          8.7317528,
          47.2039863
        ],
        [
          8.7312198,
          47.2042242
        ],
        [
          8.7311792,
          47.2049055
        ],
        [
          8.7305223,
          47.2046756
        ],
        [
          8.7307893,
          47.204424
        ],
        [
          8.7301069,
          47.204097
        ],
        [
          8.7307978,
          47.2032393
        ],
        [
          8.7304202,
          47.2028849
        ],
        [
          8.7281697,
          47.2025979
        ],
        [
          8.7287144,
          47.2025201
        ],
        [
          8.7282817,
          47.2021754
        ],
        [
          8.7280652,
          47.2025596
        ],
        [
          8.7273193,
          47.2018758
        ],
        [
          8.725509,
          47.2015189
        ],
        [
          8.723545,
          47.2018695
        ],
        [
          8.7231979,
          47.2008067
        ],
        [
          8.7215716,
          47.2004472
        ],
        [
          8.716416,
          47.2012361
        ],
        [
          8.714029,
          47.2022406
        ],
        [
          8.7116434,
          47.2051116
        ],
        [
          8.7116887,
          47.2065035
        ],
        [
          8.7091632,
          47.2074849
        ],
        [
          8.7061611,
          47.2098146
        ],
        [
          8.7066999,
          47.2120389
        ],
        [
          8.7043284,
          47.2119715
        ],
        [
          8.7033947,
          47.2124912
        ],
        [
          8.7017059,
          47.2143416
        ],
        [
          8.7004936,
          47.2165955
        ],
        [
          8.6973662,
          47.2182125
        ],
        [
          8.6931504,
          47.2190728
        ],
        [
          8.6876233,
          47.2214812
        ],
        [
          8.6851553,
          47.2243767
        ],
        [
          8.683276,
          47.2238375
        ],
        [
          8.6809845,
          47.2248227
        ],
        [
          8.6769649,
          47.2274365
        ],
        [
          8.6759342,
          47.2288535
        ],
        [
          8.6763523,
          47.2290418
        ],
        [
          8.6768233,
          47.2281053
        ],
        [
          8.676401,
          47.2290724
        ],
        [
          8.6738934,
          47.2314251
        ],
        [
          8.6699801,
          47.2328256
        ],
        [
          8.663111,
          47.2369679
        ],
        [
          8.6619278,
          47.2372429
        ],
        [
          8.6605248,
          47.2385728
        ],
        [
          8.6610033,
          47.2398592
        ],
        [
          8.6603935,
          47.2408364
        ],
        [
          8.6596296,
          47.2409646
        ],
        [
          8.660033,
          47.2418095
        ],
        [
          8.659046,
          47.2416172
        ],
        [
          8.6576707,
          47.2429603
        ],
        [
          8.6575953,
          47.2443986
        ],
        [
          8.6529241,
          47.24589
        ],
        [
          8.6527812,
          47.2470211
        ],
        [
          8.6517374,
          47.2473718
        ],
        [
          8.6521696,
          47.2487283
        ],
        [
          8.6515448,
          47.2492767
        ],
        [
          8.6430042,
          47.2518894
        ],
        [
          8.6395842,
          47.2516966
        ],
        [
          8.6396588,
          47.2510982
        ],
        [
          8.6385097,
          47.2502626
        ],
        [
          8.6349954,
          47.2495102
        ],
        [
          8.6305138,
          47.250674
        ],
        [
          8.6304928,
          47.2511278
        ],
        [
          8.6294138,
          47.2515695
        ],
        [
          8.6270147,
          47.2515506
        ],
        [
          8.6228352,
          47.252423
        ],
        [
          8.6187036,
          47.2542668
        ],
        [
          8.6181895,
          47.255272
        ],
        [
          8.6152783,
          47.2555283
        ],
        [
          8.9347111,
          47.2157569
        ],
        [
          8.9366734,
          47.2179064
        ],
        [
          8.9344516,
          47.2159227
        ],
        [
          8.6152783,
          47.2555283
        ]
      ]
    ]
  }
}
