{
  "type": "Feature",
  "properties": {
    "lake": "genfersee",
    "osm_relation": 332617,
    "simplify": 0.0003
  },
  "geometry": {
    "type": "Polygon",
    "coordinates": [
      [
        [
          6.170603,
          46.2749981
        ],
        [
          6.1711179,
          46.275118
        ],
        [
          6.1705445,
          46.276214
        ],
        [
          6.1675481,
          46.2800778
        ],
        [
          6.1670667,
          46.2816025
        ],
        [
          6.1676545,
          46.2830163
        ],
        [
          6.1685106,
          46.2837359
        ],
        [
          6.1692908,
          46.2864118
        ],
        [
          6.170246,
          46.2866774
        ],
        [
          6.1697531,
          46.2871187
        ],
        [
          6.1701697,
          46.2888066
        ],
        [
          6.1719298,
          46.288915
        ],
        [
          6.1719235,
          46.2879482
        ],
        [
          6.1720268,
          46.2888645
        ],
        [
          6.1707572,
          46.2895808
        ],
        [
          6.1698013,
          46.2920888
        ],
        [
          6.1707376,
          46.2958676
        ],
        [
          6.1739874,
          46.2984883
        ],
        [
          6.1757157,
          46.2985241
        ],
        [
          6.1758554,
          46.2989048
        ],
        [
          6.1752402,
          46.2981404
        ],
        [
          6.1738769,
          46.2982783
        ],
        [
          6.1752603,
          46.2980551
        ],
        [
          6.1785556,
          46.3005625
        ],
        [
          6.1796191,
          46.3024766
        ],
        [
          6.181615,
          46.3038424
        ],
        [
          6.1814171,
          46.3047752
        ],
        [
          6.1819239,
          46.3050583
        ],
        [
          6.182342,
          46.3064573
        ],
        [
          6.1846333,
          46.308063
        ],
        [
          6.1881511,
          46.3124421
        ],
        [
          6.1935381,
          46.3153817
        ],
        [
          6.1956348,
          46.3183186
        ],
        [
          6.1968793,
          46.3194387
        ],
        [
          6.1975543,
          46.3192701
        ],
        [
          6.1974099,
          46.3202748
        ],
        [
          6.1989208,
          46.3231068
        ],
        [
          6.1994782,
          46.3233639
        ],
        [
          6.1994721,
          46.3248431
        ],
        [
          6.2007163,
          46.3259789
        ],
        [
          6.2005419,
          46.3264395
        ],
        [
          6.2017088,
          46.3279523
        ],
        [
          6.2019406,
          46.3290899
        ],
        [
          6.202843,
          46.3298612
        ],
        [
          6.2033279,
          46.3315295
        ],
        [
          6.2026619,
          46.3334268
        ],
        [
          6.2032682,
          46.3343751
        ],
        [
          6.2028686,
          46.3346755
        ],
        [
          6.2033906,
          46.3359783
        ],
        [
          6.2052541,
          46.3371861
        ],
        [
          6.2074271,
          46.3395308
        ],
        [
          6.2067754,
          46.3421173
        ],
        [
          6.2075626,
          46.343099
        ],
        [
          6.2072671,
          46.3475574
        ],
        [
          6.2084703,
          46.3483138
        ],
        [
          6.2095103,
          46.3479557
        ],
        [
          6.2086547,
          46.3482898
        ],
        [
          6.2088421,
          46.3490688
        ],
        [
          6.2114822,
          46.351384
        ],
        [
          6.2132491,
          46.3538886
        ],
        [
          6.2134987,
          46.355121
        ],
        [
          6.2141005,
          46.3553838
        ],
        [
          6.2145644,
          46.3550344
        ],
        [
          6.2144337,
          46.355533
        ],
        [
          6.2157153,
          46.3559949
        ],
        [
          6.2164739,
          46.3588211
        ],
        [
          6.2196057,
          46.3604221
        ],
        [
          6.2201035,
          46.3624518
        ],
        [
          6.2212176,
          46.3635424
        ],
        [
          6.2217936,
          46.3635195
        ],
        [
          6.2221747,
          46.364291
        ],
        [
          6.2257348,
          46.3654961
        ],
        [
          6.2276115,
          46.3672733
        ],
        [
          6.2299226,
          46.3685422
        ],
        [
          6.2328858,
          46.3715767
        ],
        [
          6.2333407,
          46.3714408
        ],
        [
          6.2335321,
          46.3722092
        ],
        [
          6.2342672,
          46.3724764
        ],
        [
          6.2341139,
          46.3735389
        ],
        [
          6.2346783,
          46.3737127
        ],
        [
          6.2347641,
          46.3755303
        ],
        [
          6.2361212,
          46.3769353
        ],
        [
          6.2374822,
          46.3771222
        ],
        [
          6.2383245,
          46.3777672
        ],
        [
          6.2394666,
          46.3777295
        ],
        [
          6.2384973,
          46.3777653
        ],
        [
          6.2385841,
          46.3782161
        ],
        [
          6.2408049,
          46.3799119
        ],
        [
          6.2416544,
          46.3799647
        ],
        [
          6.2413735,
          46.3788176
        ],
        [
          6.2419,
          46.3804391
        ],
        [
          6.2444347,
          46.3830908
        ],
        [
          6.245928,
          46.3835432
        ],
        [
          6.2467076,
          46.3826452
        ],
        [
          6.2466408,
          46.3853885
        ],
        [
          6.2472227,
          46.3866221
        ],
        [
          6.252469,
          46.3898828
        ],
        [
          6.2549488,
          46.3911851
        ],
        [
          6.2582074,
          46.3921095
        ],
        [
          6.2577482,
          46.3922778
        ],
        [
          6.2582591,
          46.3929263
        ],
        [
          6.2600713,
          46.3930092
        ],
        [
          6.2645934,
          46.3927166
        ],
        [
          6.2664548,
          46.3916844
        ],
        [
          6.2661608,
          46.3923373
        ],
        [
          6.2674892,
          46.3916924
        ],
        [
          6.266732,
          46.3915872
        ],
        [
          6.2670832,
          46.3913036
        ],
        [
          6.2660305,
          46.3914976
        ],
        [
          6.2668636,
          46.3911439
        ],
        [
          6.2705228,
          46.3911659
        ],
        [
          6.2740892,
          46.3900643
        ],
        [
          6.2771668,
          46.3937317
        ],
        [
          6.2780603,
          46.3957989
        ],
        [
          6.2791091,
          46.3963068
        ],
        [
          6.2792441,
          46.3957664
        ],
        [
          6.2793867,
          46.3962394
        ],
        [
          6.2809231,
          46.3963896
        ],
        [
          6.2821473,
          46.3970934
        ],
        [
          6.2830677,
          46.40025
        ],
        [
          6.2816366,
          46.4036238
        ],
        [
          6.2816824,
          46.4057322
        ],
        [
          6.2869046,
          46.4102324
        ],
        [
          6.2874019,
          46.4098539
        ],
        [
          6.2873556,
          46.4109054
        ],
        [
          6.2901558,
          46.4138948
        ],
        [
          6.2906359,
          46.4156663
        ],
        [
          6.2900886,
          46.4205772
        ],
        [
          6.2914416,
          46.4233345
        ],
        [
          6.2930689,
          46.424016
        ],
        [
          6.2955278,
          46.4235855
        ],
        [
          6.2968715,
          46.4243477
        ],
        [
          6.2964617,
          46.4247482
        ],
        [
          6.297261,
          46.424567
        ],
        [
          6.2967194,
          46.4253207
        ],
        [
          6.2973551,
          46.4261291
        ],
        [
          6.300248,
          46.4269269
        ],
        [
          6.3068853,
          46.4299423
        ],
        [
          6.3078254,
          46.4311246
        ],
        [
          6.3093668,
          46.4319513
        ],
        [
          6.3094429,
          46.4327648
        ],
        [
          6.3102643,
          46.4337201
        ],
        [
          6.3130953,
          46.4354125
        ],
        [
          6.3148366,
          46.4373126
        ],
        [
          6.3178713,
          46.4395358
        ],
        [
          6.3178744,
          46.4414853
        ],
        [
          6.3192431,
          46.4434503
        ],
        [
          6.3238204,
          46.4446379
        ],
        [
          6.3245981,
          46.445983
        ],
        [
          6.3285827,
          46.448499
        ],
        [
          6.3317771,
          46.4492497
        ],
        [
          6.3347954,
          46.4516651
        ],
        [
          6.3360517,
          46.4535621
        ],
        [
          6.3371509,
          46.4528036
        ],
        [
          6.3368689,
          46.4513528
        ],
        [
          6.3372594,
          46.4524485
        ],
        [
          6.3367052,
          46.4539707
        ],
        [
          6.338406,
          46.456411
        ],
        [
          6.3438346,
          46.4598922
        ],
        [
          6.3448913,
          46.4597895
        ],
        [
          6.344423,
          46.460022
        ],
        [
          6.3449408,
          46.4602148
        ],
        [
          6.3452863,
          46.4599053
        ],
        [
          6.3449102,
          46.459621
        ],
        [
          6.345269,
          46.4597469
        ],
        [
          6.3450105,
          46.4602251
        ],
        [
          6.3464048,
          46.4608862
        ],
        [
          6.3457616,
          46.4609838
        ],
        [
          6.3459391,
          46.4612867
        ],
        [
          6.3465921,
          46.4609367
        ],
        [
          6.3478581,
          46.4614448
        ],
        [
          6.3496103,
          46.4607993
        ],
        [
          6.3496559,
          46.461262
        ],
        [
          6.3502551,
          46.4613338
        ],
        [
          6.3515749,
          46.4607724
        ],
        [
          6.3553677,
          46.4621382
        ],
        [
          6.3599194,
          46.4625742
        ],
        [
          6.362565,
          46.4622087
        ],
        [
          6.3619794,
          46.4626175
        ],
        [
          6.363413,
          46.4622676
        ],
        [
          6.3630222,
          46.4625884
        ],
        [
          6.364225,
          46.4632302
        ],
        [
          6.3672424,
          46.4636474
        ],
        [
          6.3731119,
          46.465405
        ],
        [
          6.3758214,
          46.4653805
        ],
        [
          6.379431,
          46.4645509
        ],
        [
          6.3815057,
          46.4652175
        ],
        [
          6.3873543,
          46.4630843
        ],
        [
          6.3902338,
          46.4607615
        ],
        [
          6.3895464,
          46.4615073
        ],
        [
          6.3908392,
          46.4616765
        ],
        [
          6.3904905,
          46.4614871
        ],
        [
          6.3912697,
          46.4610554
        ],
        [
          6.3911653,
          46.4600088
        ],
        [
          6.3916745,
          46.4604664
        ],
        [
          6.391541,
          46.4598117
        ],
        [
          6.3931146,
          46.4599713
        ],
        [
          6.3963892,
          46.4590475
        ],
        [
          6.4028769,
          46.45902
        ],
        [
          6.4084005,
          46.4609475
        ],
        [
          6.4094412,
          46.4630123
        ],
        [
          6.4119917,
          46.4638805
        ],
        [
          6.4205819,
          46.468386
        ],
        [
          6.4268318,
          46.4697161
        ],
        [
          6.4295279,
          46.4697024
        ],
        [
          6.4343143,
          46.4706256
        ],
        [
          6.4352321,
          46.4702544
        ],
        [
          6.4349217,
          46.4706496
        ],
        [
          6.439083,
          46.471228
        ],
        [
          6.4484866,
          46.4737485
        ],
        [
          6.4497796,
          46.4744127
        ],
        [
          6.4500009,
          46.4752985
        ],
        [
          6.4505278,
          46.4751022
        ],
        [
          6.4498419,
          46.4754103
        ],
        [
          6.4501458,
          46.4758747
        ],
        [
          6.4516313,
          46.4764025
        ],
        [
          6.4512257,
          46.4766887
        ],
        [
          6.4548806,
          46.4787548
        ],
        [
          6.4615927,
          46.4785042
        ],
        [
          6.461931,
          46.4787207
        ],
        [
          6.4609567,
          46.481649
        ],
        [
          6.4619218,
          46.4834482
        ],
        [
          6.4618199,
          46.4847216
        ],
        [
          6.462536,
          46.4843547
        ],
        [
          6.462186,
          46.4835922
        ],
        [
          6.4626522,
          46.484249
        ],
        [
          6.4618957,
          46.4851198
        ],
        [
          6.4633199,
          46.4867043
        ],
        [
          6.4695575,
          46.4909159
        ],
        [
          6.472334,
          46.4912694
        ],
        [
          6.4762254,
          46.4905897
        ],
        [
          6.479758,
          46.4913497
        ],
        [
          6.4802532,
          46.4909043
        ],
        [
          6.480734,
          46.4916771
        ],
        [
          6.4820375,
          46.4919978
        ],
        [
          6.4825418,
          46.4927324
        ],
        [
          6.4823907,
          46.4954813
        ],
        [
          6.482871,
          46.4974423
        ],
        [
          6.4868232,
          46.501549
        ],
        [
          6.4883595,
          46.5012601
        ],
        [
          6.4871402,
          46.501655
        ],
        [
          6.4875138,
          46.5023708
        ],
        [
          6.489797,
          46.5024858
        ],
        [
          6.4889042,
          46.5010171
        ],
        [
          6.4902659,
          46.5027658
        ],
        [
          6.4941454,
          46.5035201
        ],
        [
          6.4942921,
          46.504876
        ],
        [
          6.4944352,
          46.5040823
        ],
        [
          6.4955857,
          46.5042274
        ],
        [
          6.4982014,
          46.5059762
        ],
        [
          6.4974815,
          46.5061142
        ],
        [
          6.4974857,
          46.5065763
        ],
        [
          6.4988759,
          46.5076477
        ],
        [
          6.49914,
          46.5064063
        ],
        [
          6.4992874,
          46.5076152
        ],
        [
          6.5006353,
          46.5085389
        ],
        [
          6.5019958,
          46.5105015
        ],
        [
          6.5010764,
          46.5112488
        ],
        [
          6.5015456,
          46.5124202
        ],
        [
          6.5051324,
          46.5147785
        ],
        [
          6.5080375,
          46.5159202
        ],
        [
          6.5094037,
          46.5160426
        ],
        [
          6.5120288,
          46.5148899
        ],
        [
          6.5130551,
          46.5148981
        ],
        [
          6.5164718,
          46.5161488
        ],
        [
          6.5241611,
          46.5143177
        ],
        [
          6.5352717,
          46.5084439
        ],
        [
          6.5357143,
          46.5079035
        ],
        [
          6.5353522,
          46.5073113
        ],
        [
          6.536517,
          46.507801
        ],
        [
          6.5391341,
          46.5072026
        ],
        [
          6.5394104,
          46.5081487
        ],
        [
          6.5397551,
          46.5073965
        ],
        [
          6.543965,
          46.5080015
        ],
        [
          6.5461675,
          46.5075903
        ],
        [
          6.5465472,
          46.508105
        ],
        [
          6.5504089,
          46.5074195
        ],
        [
          6.5503351,
          46.5077361
        ],
        [
          6.5560692,
          46.5073959
        ],
        [
          6.5601287,
          46.5078356
        ],
        [
          6.5621752,
          46.5091136
        ],
        [
          6.5619425,
          46.5098933
        ],
        [
          6.5654706,
          46.5122077
        ],
        [
          6.5707785,
          46.5132315
        ],
        [
          6.5727988,
          46.5131779
        ],
        [
          6.575176,
          46.5150148
        ],
        [
          6.5761816,
          46.5151027
        ],
        [
          6.5762657,
          46.5161552
        ],
        [
          6.5781733,
          46.5166959
        ],
        [
          6.5789839,
          46.5164229
        ],
        [
          6.5790149,
          46.5175552
        ],
        [
          6.5825804,
          46.5182016
        ],
        [
          6.586659,
          46.5174219
        ],
        [
          6.5870662,
          46.5168984
        ],
        [
          6.5898157,
          46.518393
        ],
        [
          6.5906023,
          46.5183722
        ],
        [
          6.5945874,
          46.5169833
        ],
        [
          6.5946655,
          46.5164021
        ],
        [
          6.5947018,
          46.5167985
        ],
        [
          6.5952754,
          46.5167734
        ],
        [
          6.5990677,
          46.5144121
        ],
        [
          6.6006473,
          46.5133264
        ],
        [
          6.6004354,
          46.5125889
        ],
        [
          6.5997687,
          46.5123638
        ],
        [
          6.600355,
          46.5120518
        ],
        [
          6.6057828,
          46.5109009
        ],
        [
          6.6086616,
          46.5110629
        ],
        [
          6.6046962,
          46.5112396
        ],
        [
          6.6051539,
          46.5114146
        ],
        [
          6.6047122,
          46.511548
        ],
        [
          6.6049259,
          46.5125036
        ],
        [
          6.6076566,
          46.512562
        ],
        [
          6.6078616,
          46.5116645
        ],
        [
          6.6084062,
          46.5119506
        ],
        [
          6.6090123,
          46.5114358
        ],
        [
          6.6149543,
          46.510197
        ],
        [
          6.6159023,
          46.5095947
        ],
        [
          6.6155242,
          46.5090927
        ],
        [
          6.6205209,
          46.5060856
        ],
        [
          6.6209894,
          46.5069979
        ],
        [
          6.6235693,
          46.5076303
        ],
        [
          6.6258982,
          46.5061922
        ],
        [
          6.6256599,
          46.5053309
        ],
        [
          6.6253233,
          46.505389
        ],
        [
          6.6259198,
          46.5044983
        ],
        [
          6.6269483,
          46.5043006
        ],
        [
          6.629064,
          46.5051513
        ],
        [
          6.6278876,
          46.5060987
        ],
        [
          6.6283988,
          46.5066605
        ],
        [
          6.6324308,
          46.5071491
        ],
        [
          6.6415456,
          46.5046772
        ],
        [
          6.6438429,
          46.5046218
        ],
        [
          6.6447953,
          46.5053987
        ],
        [
          6.6463642,
          46.5056856
        ],
        [
          6.6498785,
          46.5053704
        ],
        [
          6.6518761,
          46.5057683
        ],
        [
          6.6557482,
          46.5050783
        ],
        [
          6.6570167,
          46.5058496
        ],
        [
          6.6595576,
          46.5059882
        ],
        [
          6.6598836,
          46.5054957
        ],
        [
          6.6595889,
          46.5053491
        ],
        [
          6.6623443,
          46.5051917
        ],
        [
          6.6639842,
          46.5045566
        ],
        [
          6.6624441,
          46.5051565
        ],
        [
          6.6626566,
          46.5056468
        ],
        [
          6.6642373,
          46.5058723
        ],
        [
          6.6648285,
          46.505701
        ],
        [
          6.6641423,
          46.5050269
        ],
        [
          6.6652597,
          46.5045467
        ],
        [
          6.6648264,
          46.5040958
        ],
        [
          6.6653328,
          46.5045137
        ],
        [
          6.6676475,
          46.5039185
        ],
        [
          6.668189,
          46.5044956
        ],
        [
          6.6679073,
          46.5039639
        ],
        [
          6.6690406,
          46.5033112
        ],
        [
          6.6695236,
          46.5035043
        ],
        [
          6.6681573,
          46.5039151
        ],
        [
          6.6683661,
          46.5044246
        ],
        [
          6.6693254,
          46.5038954
        ],
        [
          6.6691766,
          46.5035549
        ],
        [
          6.6695735,
          46.5040002
        ],
        [
          6.6722157,
          46.5036233
        ],
        [
          6.6768148,
          46.5042716
        ],
        [
          6.6790501,
          46.502193
        ],
        [
          6.6808245,
          46.5019097
        ],
        [
          6.6814064,
          46.5024482
        ],
        [
          6.6852511,
          46.5009097
        ],
        [
          6.6861042,
          46.5016486
        ],
        [
          6.688016,
          46.5014989
        ],
        [
          6.6900666,
          46.5003238
        ],
        [
          6.6910777,
          46.5004525
        ],
        [
          6.6919348,
          46.4995352
        ],
        [
          6.6935364,
          46.499914
        ],
        [
          6.6950253,
          46.4991093
        ],
        [
          6.6968099,
          46.4992302
        ],
        [
          6.7007971,
          46.4980061
        ],
        [
          6.7087267,
          46.4938647
        ],
        [
          6.7133632,
          46.4905729
        ],
        [
          6.7145669,
          46.4904584
        ],
        [
          6.7185453,
          46.4885545
        ],
        [
          6.7219134,
          46.4862368
        ],
        [
          6.7217666,
          46.4865152
        ],
        [
          6.722189,
          46.4862558
        ],
        [
          6.7244787,
          46.4869468
        ],
        [
          6.7283019,
          46.4863518
        ],
        [
          6.728202,
          46.4866862
        ],
        [
          6.7302742,
          46.4865681
        ],
        [
          6.7332779,
          46.4886244
        ],
        [
          6.7351044,
          46.4892134
        ],
        [
          6.7372242,
          46.4892845
        ],
        [
          6.7395102,
          46.4885558
        ],
        [
          6.7441462,
          46.4893343
        ],
        [
          6.7520523,
          46.486072
        ],
        [
          6.7547437,
          46.4836194
        ],
        [
          6.7568356,
          46.4829578
        ],
        [
          6.7591555,
          46.4810128
        ],
        [
          6.7613623,
          46.4798757
        ],
        [
          6.7783194,
          46.4739519
        ],
        [
          6.7785048,
          46.4742414
        ],
        [
          6.7833508,
          46.4735129
        ],
        [
          6.7887201,
          46.4744008
        ],
        [
          6.7998667,
          46.4718888
        ],
        [
          6.8007194,
          46.4713614
        ],
        [
          6.8037023,
          46.4714385
        ],
        [
          6.8073048,
          46.4704259
        ],
        [
          6.8090536,
          46.4705513
        ],
        [
          6.808727,
          46.4700095
        ],
        [
          6.8077912,
          46.4700131
        ],
        [
          6.808745,
          46.4690097
        ],
        [
          6.8105123,
          46.470039
        ],
        [
          6.8108076,
          46.4694052
        ],
        [
          6.8118115,
          46.4690143
        ],
        [
          6.8144342,
          46.4692116
        ],
        [
          6.8116558,
          46.4691625
        ],
        [
          6.8107984,
          46.4695844
        ],
        [
          6.8108628,
          46.4702912
        ],
        [
          6.8149272,
          46.469731
        ],
        [
          6.8141162,
          46.4694033
        ],
        [
          6.815766,
          46.4698594
        ],
        [
          6.8199395,
          46.4697091
        ],
        [
          6.8214557,
          46.468185
        ],
        [
          6.8228472,
          46.4676962
        ],
        [
          6.82837,
          46.468419
        ],
        [
          6.8313334,
          46.4680568
        ],
        [
          6.8327184,
          46.4667948
        ],
        [
          6.8331393,
          46.4669954
        ],
        [
          6.8326506,
          46.4663863
        ],
        [
          6.834277,
          46.4647518
        ],
        [
          6.8339841,
          46.4644905
        ],
        [
          6.8343132,
          46.4639727
        ],
        [
          6.8348105,
          46.46396
        ],
        [
          6.8351329,
          46.4607087
        ],
        [
          6.8407634,
          46.4586977
        ],
        [
          6.8413435,
          46.458994
        ],
        [
          6.8499879,
          46.4573693
        ],
        [
          6.8499127,
          46.4568106
        ],
        [
          6.8510988,
          46.4565765
        ],
        [
          6.85007,
          46.4569678
        ],
        [
          6.8501679,
          46.457277
        ],
        [
          6.851722,
          46.4571072
        ],
        [
          6.8514048,
          46.4564684
        ],
        [
          6.8524025,
          46.456392
        ],
        [
          6.8551548,
          46.4514692
        ],
        [
          6.8547648,
          46.4511263
        ],
        [
          6.855373,
          46.4514521
        ],
        [
          6.8549296,
          46.4517997
        ],
        [
          6.8551129,
          46.452266
        ],
        [
          6.8567153,
          46.4516649
        ],
        [
          6.8572355,
          46.4505067
        ],
        [
          6.8583472,
          46.4503313
        ],
        [
          6.8599241,
          46.4469951
        ],
        [
          6.8652425,
          46.4484256
        ],
        [
          6.8665127,
          46.4483136
        ],
        [
          6.8668873,
          46.4478106
        ],
        [
          6.8683249,
          46.4481905
        ],
        [
          6.8695064,
          46.447526
        ],
        [
          6.8700339,
          46.4480874
        ],
        [
          6.8733817,
          46.4479476
        ],
        [
          6.8784419,
          46.4450824
        ],
        [
          6.8791682,
          46.4439734
        ],
        [
          6.8787627,
          46.4440515
        ],
        [
          6.8791851,
          46.4438871
        ],
        [
          6.8789649,
          46.4428768
        ],
        [
          6.8818586,
          46.4416278
        ],
        [
          6.8821989,
          46.4410662
        ],
        [
          6.8820958,
          46.4414602
        ],
        [
          6.8847363,
          46.44226
        ],
        [
          6.8857824,
          46.442009
        ],
        [
          6.8860908,
          46.4412383
        ],
        [
          6.8848095,
          46.4408211
        ],
        [
          6.886332,
          46.4411929
        ],
        [
          6.8901435,
          46.438912
        ],
        [
          6.8913027,
          46.4395337
        ],
        [
          6.8927572,
          46.4392153
        ],
        [
          6.9004677,
          46.4406034
        ],
        [
          6.9049154,
          46.4385449
        ],
        [
          6.9076849,
          46.4367535
        ],
        [
          6.9094269,
          46.434604
        ],
        [
          6.9095952,
          46.4335747
        ],
        [
          6.9087008,
          46.4306679
        ],
        [
          6.9123399,
          46.4287252
        ],
        [
          6.9162333,
          46.4298508
        ],
        [
          6.9187445,
          46.4293475
        ],
        [
          6.9205334,
          46.4278368
        ],
        [
          6.9220913,
          46.4255428
        ],
        [
          6.9226142,
          46.4258419
        ],
        [
          6.9225946,
          46.4251163
        ],
        [
          6.9236281,
          46.4239197
        ],
        [
          6.9234211,
          46.4208761
        ],
        [
          6.927293,
          46.4182322
        ],
        [
          6.9276021,
          46.414749
        ],
        [
          6.9298637,
          46.4122372
        ],
        [
          6.9308133,
          46.4100765
        ],
        [
          6.9306607,
          46.4074248
        ],
        [
          6.9290775,
          46.4050364
        ],
        [
          6.9270824,
          46.4032592
        ],
        [
          6.9250284,
          46.4022991
        ],
        [
          6.9253604,
          46.4003423
        ],
        [
          6.9248903,
          46.3986448
        ],
        [
          6.9232852,
          46.3970984
        ],
        [
          6.9210481,
          46.3964574
        ],
        [
          6.9204219,
          46.3970014
        ],
        [
          6.9208495,
          46.3963288
        ],
        [
          6.9197645,
          46.3960257
        ],
        [
          6.9191903,
          46.3970146
        ],
        [
          6.9201546,
          46.3969661
        ],
        [
          6.9186472,
          46.397238
        ],
        [
          6.9192731,
          46.3961253
        ],
        [
          6.9184678,
          46.3958973
        ],
        [
          6.9188265,
          46.3951962
        ],
        [
          6.9179126,
          46.3941996
        ],
        [
          6.9150808,
          46.3945488
        ],
        [
          6.915106,
          46.3950522
        ],
        [
          6.9141119,
          46.3955042
        ],
        [
          6.910218,
          46.3955218
        ],
        [
          6.9078208,
          46.3966433
        ],
        [
          6.9069162,
          46.3962608
        ],
        [
          6.9050702,
          46.3967575
        ],
        [
          6.903422,
          46.3963505
        ],
        [
          6.9014727,
          46.3968347
        ],
        [
          6.9006774,
          46.3963579
        ],
        [
          6.9002529,
          46.3967344
        ],
        [
          6.8996776,
          46.3964052
        ],
        [
          6.8999887,
          46.396154
        ],
        [
          6.8995763,
          46.3963649
        ],
        [
          6.8979107,
          46.3951495
        ],
        [
          6.8958078,
          46.3944933
        ],
        [
          6.8942877,
          46.3952605
        ],
        [
          6.8923196,
          46.3949502
        ],
        [
          6.892161,
          46.3952302
        ],
        [
          6.8931535,
          46.3955863
        ],
        [
          6.8910925,
          46.394978
        ],
        [
          6.8900987,
          46.3953895
        ],
        [
          6.8901953,
          46.3957484
        ],
        [
          6.8885444,
          46.3955472
        ],
        [
          6.8862035,
          46.3998152
        ],
        [
          6.8880231,
          46.3960673
        ],
        [
          6.8857539,
          46.3997039
        ],
        [
          6.8872556,
          46.3966194
        ],
        [
          6.885376,
          46.3957805
        ],
        [
          6.8827972,
          46.3957407
        ],
        [
          6.8831277,
          46.3962563
        ],
        [
          6.8827187,
          46.3964048
        ],
        [
          6.8802879,
          46.3951075
        ],
        [
          6.8774764,
          46.3953777
        ],
        [
          6.8741212,
          46.3941358
        ],
        [
          6.8728947,
          46.3948603
        ],
        [
          6.8698265,
          46.3934115
        ],
        [
          6.8656218,
          46.3927665
        ],
        [
          6.862033,
          46.393546
        ],
        [
          6.8601385,
          46.3949101
        ],
        [
          6.8573627,
          46.3944271
        ],
        [
          6.8569271,
          46.3934159
        ],
        [
          6.8576571,
          46.3943297
        ],
        [
          6.8598546,
          46.3916688
        ],
        [
          6.8575858,
          46.3934046
        ],
        [
          6.8588279,
          46.3919985
        ],
        [
          6.8594198,
          46.3898902
        ],
        [
          6.8588974,
          46.3895504
        ],
        [
          6.859755,
          46.3895018
        ],
        [
          6.8596908,
          46.3884974
        ],
        [
          6.8582254,
          46.3872782
        ],
        [
          6.8586209,
          46.3868255
        ],
        [
          6.8582909,
          46.3866025
        ],
        [
          6.8572786,
          46.3874179
        ],
        [
          6.8561764,
          46.3870164
        ],
        [
          6.857601,
          46.3860429
        ],
        [
          6.8558026,
          46.3852863
        ],
        [
          6.8535839,
          46.3864486
        ],
        [
          6.8546098,
          46.3874843
        ],
        [
          6.8557516,
          46.3874229
        ],
        [
          6.8547098,
          46.3876546
        ],
        [
          6.8533133,
          46.3865493
        ],
        [
          6.8528566,
          46.3867789
        ],
        [
          6.8531477,
          46.3870319
        ],
        [
          6.8519485,
          46.3868034
        ],
        [
          6.8479861,
          46.3882687
        ],
        [
          6.845385,
          46.388633
        ],
        [
          6.8420796,
          46.3874572
        ],
        [
          6.8292122,
          46.385837
        ],
        [
          6.8273967,
          46.386655
        ],
        [
          6.8245628,
          46.3868383
        ],
        [
          6.8226182,
          46.3875006
        ],
        [
          6.8222765,
          46.3880954
        ],
        [
          6.8180339,
          46.3888452
        ],
        [
          6.8159378,
          46.3903603
        ],
        [
          6.81089,
          46.3906589
        ],
        [
          6.8084125,
          46.3921626
        ],
        [
          6.8062805,
          46.3926068
        ],
        [
          6.805147,
          46.3942979
        ],
        [
          6.7977462,
          46.3936113
        ],
        [
          6.7950061,
          46.3927981
        ],
        [
          6.7900962,
          46.3930255
        ],
        [
          6.7880054,
          46.3939783
        ],
        [
          6.7812301,
          46.3952381
        ],
        [
          6.7742072,
          46.3976616
        ],
        [
          6.7715562,
          46.3974905
        ],
        [
          6.7662203,
          46.3994697
        ],
        [
          6.7602433,
          46.4004728
        ],
        [
          6.7569019,
          46.4029032
        ],
        [
          6.7534033,
          46.4028578
        ],
        [
          6.7491653,
          46.4040089
        ],
        [
          6.7356232,
          46.4049996
        ],
        [
          6.726321,
          46.4068832
        ],
        [
          6.724083,
          46.407718
        ],
        [
          6.7258792,
          46.4075133
        ],
        [
          6.7239899,
          46.407971
        ],
        [
          6.7209267,
          46.407565
        ],
        [
          6.7184023,
          46.4081377
        ],
        [
          6.7117,
          46.4076015
        ],
        [
          6.7091383,
          46.4081058
        ],
        [
          6.6902319,
          46.4081682
        ],
        [
          6.6868244,
          46.4078647
        ],
        [
          6.6841589,
          46.4068925
        ],
        [
          6.6795522,
          46.407683
        ],
        [
          6.6797093,
          46.407366
        ],
        [
          6.6777812,
          46.4075283
        ],
        [
          6.6704188,
          46.4051125
        ],
        [
          6.6649201,
          46.4045754
        ],
        [
          6.6537027,
          46.4051128
        ],
        [
          6.6479364,
          46.4062015
        ],
        [
          6.6423237,
          46.4053776
        ],
        [
          6.6392091,
          46.4056086
        ],
        [
          6.6396132,
          46.4052405
        ],
        [
          6.6360877,
          46.4060128
        ],
        [
          6.6345589,
          46.4053233
        ],
        [
          6.6283534,
          46.4043958
        ],
        [
          6.6232249,
          46.4044219
        ],
        [
          6.6135095,
          46.4031643
        ],
        [
          6.6083407,
          46.4032688
        ],
        [
          6.6060704,
          46.4026841
        ],
        [
          6.6084614,
          46.4032319
        ],
        [
          6.6088891,
          46.402718
        ],
        [
          6.6083758,
          46.4026038
        ],
        [
          6.6084506,
          46.402966
        ],
        [
          6.6073194,
          46.4023885
        ],
        [
          6.6059152,
          46.4022247
        ],
        [
          6.6053191,
          46.4027011
        ],
        [
          6.605177,
          46.402156
        ],
        [
          6.6050462,
          46.4027058
        ],
        [
          6.6051374,
          46.4021529
        ],
        [
          6.6046299,
          46.4021105
        ],
        [
          6.6045137,
          46.4026615
        ],
        [
          6.6045992,
          46.4021083
        ],
        [
          6.6041609,
          46.4020717
        ],
        [
          6.6040356,
          46.4026215
        ],
        [
          6.6041295,
          46.4020692
        ],
        [
          6.6037566,
          46.4020382
        ],
        [
          6.6036264,
          46.4025874
        ],
        [
          6.6037229,
          46.4020354
        ],
        [
          6.603236,
          46.4025111
        ],
        [
          6.6029915,
          46.4019749
        ],
        [
          6.6028494,
          46.4025554
        ],
        [
          6.6029591,
          46.401972
        ],
        [
          6.602616,
          46.4019437
        ],
        [
          6.6024768,
          46.4025267
        ],
        [
          6.6025791,
          46.4019406
        ],
        [
          6.6022468,
          46.401913
        ],
        [
          6.6021068,
          46.4024982
        ],
        [
          6.6019153,
          46.4018855
        ],
        [
          6.6017732,
          46.4024724
        ],
        [
          6.6015924,
          46.4018586
        ],
        [
          6.6014618,
          46.4024485
        ],
        [
          6.6013046,
          46.4018348
        ],
        [
          6.6011698,
          46.4024259
        ],
        [
          6.6010575,
          46.4018143
        ],
        [
          6.6009281,
          46.4024073
        ],
        [
          6.6007871,
          46.4017919
        ],
        [
          6.6008628,
          46.4025543
        ],
        [
          6.6051436,
          46.4029359
        ],
        [
          6.6004761,
          46.4025483
        ],
        [
          6.5994483,
          46.4016879
        ],
        [
          6.5966328,
          46.4019831
        ],
        [
          6.5941589,
          46.401511
        ],
        [
          6.5904584,
          46.4023539
        ],
        [
          6.5876541,
          46.4021707
        ],
        [
          6.5841258,
          46.4016133
        ],
        [
          6.5835879,
          46.4013251
        ],
        [
          6.5842997,
          46.4013107
        ],
        [
          6.5834886,
          46.4009738
        ],
        [
          6.5809768,
          46.4006655
        ],
        [
          6.5808601,
          46.4010674
        ],
        [
          6.5800729,
          46.4004746
        ],
        [
          6.5763547,
          46.4002878
        ],
        [
          6.5768894,
          46.4001435
        ],
        [
          6.5761829,
          46.3998183
        ],
        [
          6.5733191,
          46.3995127
        ],
        [
          6.5710087,
          46.3986871
        ],
        [
          6.5642453,
          46.3984706
        ],
        [
          6.5634401,
          46.3979291
        ],
        [
          6.5597946,
          46.3976407
        ],
        [
          6.5602269,
          46.3973717
        ],
        [
          6.5592508,
          46.3971147
        ],
        [
          6.5577452,
          46.3971305
        ],
        [
          6.5513879,
          46.3954626
        ],
        [
          6.550896,
          46.3957166
        ],
        [
          6.5513417,
          46.3954977
        ],
        [
          6.5493053,
          46.3950066
        ],
        [
          6.5459425,
          46.3947099
        ],
        [
          6.5430829,
          46.3954086
        ],
        [
          6.5426771,
          46.3951092
        ],
        [
          6.5388602,
          46.3965772
        ],
        [
          6.5396565,
          46.3959361
        ],
        [
          6.5383182,
          46.3963956
        ],
        [
          6.5347853,
          46.397755
        ],
        [
          6.5291357,
          46.4008508
        ],
        [
          6.5297434,
          46.4001557
        ],
        [
          6.527838,
          46.40086
        ],
        [
          6.5220674,
          46.4036821
        ],
        [
          6.5216955,
          46.4027292
        ],
        [
          6.5209353,
          46.4026776
        ],
        [
          6.5216695,
          46.4038869
        ],
        [
          6.5210015,
          46.4041303
        ],
        [
          6.5207185,
          46.4038584
        ],
        [
          6.5132956,
          46.4050453
        ],
        [
          6.5056341,
          46.4031397
        ],
        [
          6.5027422,
          46.4011315
        ],
        [
          6.5007621,
          46.400882
        ],
        [
          6.4953048,
          46.3987801
        ],
        [
          6.4922819,
          46.3983487
        ],
        [
          6.4837962,
          46.3930984
        ],
        [
          6.4827213,
          46.3916065
        ],
        [
          6.482955,
          46.387968
        ],
        [
          6.4828251,
          46.386347
        ],
        [
          6.4825197,
          46.3863885
        ],
        [
          6.4825016,
          46.3824351
        ],
        [
          6.481135,
          46.3798124
        ],
        [
          6.4798114,
          46.378792
        ],
        [
          6.4810383,
          46.3794919
        ],
        [
          6.4805793,
          46.3785454
        ],
        [
          6.479592,
          46.3778688
        ],
        [
          6.4792525,
          46.3780789
        ],
        [
          6.4793537,
          46.3776715
        ],
        [
          6.4777218,
          46.3759274
        ],
        [
          6.4782595,
          46.3757109
        ],
        [
          6.4772992,
          46.3751881
        ],
        [
          6.4751923,
          46.3761077
        ],
        [
          6.4767163,
          46.3749489
        ],
        [
          6.4723063,
          46.3743802
        ],
        [
          6.470848,
          46.3733708
        ],
        [
          6.4698399,
          46.3739365
        ],
        [
          6.4698965,
          46.3729008
        ],
        [
          6.4681089,
          46.3727224
        ],
        [
          6.4683388,
          46.3724256
        ],
        [
          6.466607,
          46.3719431
        ],
        [
          6.4661144,
          46.3721795
        ],
        [
          6.4656314,
          46.3720172
        ],
        [
          6.4663155,
          46.3719003
        ],
        [
          6.4655258,
          46.3716345
        ],
        [
          6.4644646,
          46.3717189
        ],
        [
          6.4549488,
          46.3684854
        ],
        [
          6.45403,
          46.3682928
        ],
        [
          6.4546498,
          46.3687673
        ],
        [
          6.454046,
          46.3687178
        ],
        [
          6.4536296,
          46.3683754
        ],
        [
          6.4538454,
          46.3680437
        ],
        [
          6.4513886,
          46.3673505
        ],
        [
          6.45001,
          46.3662804
        ],
        [
          6.4459258,
          46.365295
        ],
        [
          6.4467973,
          46.3652074
        ],
        [
          6.4452061,
          46.3645316
        ],
        [
          6.4434857,
          46.3645021
        ],
        [
          6.443641,
          46.3642387
        ],
        [
          6.4414336,
          46.3631166
        ],
        [
          6.4378541,
          46.3626288
        ],
        [
          6.4373077,
          46.3623318
        ],
        [
          6.438427,
          46.362376
        ],
        [
          6.4365017,
          46.3616022
        ],
        [
          6.4302705,
          46.3598759
        ],
        [
          6.42782,
          46.3597015
        ],
        [
          6.4269473,
          46.3601299
        ],
        [
          6.4262,
          46.3601855
        ],
        [
          6.4268931,
          46.3600536
        ],
        [
          6.4261659,
          46.3598242
        ],
        [
          6.4242971,
          46.3601879
        ],
        [
          6.41724,
          46.3595493
        ],
        [
          6.4127836,
          46.3599287
        ],
        [
          6.4115826,
          46.3589324
        ],
        [
          6.410499,
          46.3570997
        ],
        [
          6.4052553,
          46.3524559
        ],
        [
          6.4058454,
          46.3524434
        ],
        [
          6.405622,
          46.3522176
        ],
        [
          6.4040325,
          46.3515411
        ],
        [
          6.4042722,
          46.3510771
        ],
        [
          6.4025932,
          46.3503603
        ],
        [
          6.3989652,
          46.3500832
        ],
        [
          6.3978021,
          46.3490957
        ],
        [
          6.3916513,
          46.3411356
        ],
        [
          6.3871396,
          46.3411261
        ],
        [
          6.3899841,
          46.3412675
        ],
        [
          6.3904766,
          46.3406732
        ],
        [
          6.389789,
          46.340353
        ],
        [
          6.3842236,
          46.3407896
        ],
        [
          6.3813826,
          46.3420193
        ],
        [
          6.3818678,
          46.3406419
        ],
        [
          6.3812335,
          46.3417168
        ],
        [
          6.3810319,
          46.3414613
        ],
        [
          6.36785,
          46.3456125
        ],
        [
          6.3628516,
          46.3476414
        ],
        [
          6.3596912,
          46.3496256
        ],
        [
          6.3569928,
          46.352102
        ],
        [
          6.3570528,
          46.354347
        ],
        [
          6.3537875,
          46.3571672
        ],
        [
          6.354338,
          46.3572234
        ],
        [
          6.3535735,
          46.3572962
        ],
        [
          6.3519876,
          46.3588801
        ],
        [
          6.3518349,
          46.3592744
        ],
        [
          6.3523873,
          46.3593515
        ],
        [
          6.3517815,
          46.3592799
        ],
        [
          6.3517799,
          46.3600551
        ],
        [
          6.3523993,
          46.359955
        ],
        [
          6.3526111,
          46.3593359
        ],
        [
          6.3526471,
          46.3597242
        ],
        [
          6.3501312,
          46.3625386
        ],
        [
          6.3507523,
          46.3628896
        ],
        [
          6.3502974,
          46.3630683
        ],
        [
          6.3501882,
          46.3657421
        ],
        [
          6.3507119,
          46.3671867
        ],
        [
          6.3495676,
          46.3674301
        ],
        [
          6.3493989,
          46.3678819
        ],
        [
          6.3495558,
          46.367512
        ],
        [
          6.3488652,
          46.3674574
        ],
        [
          6.3473732,
          46.3685179
        ],
        [
          6.343127,
          46.3702139
        ],
        [
          6.3396066,
          46.3695425
        ],
        [
          6.3336947,
          46.3703568
        ],
        [
          6.3303894,
          46.3697058
        ],
        [
          6.3262052,
          46.3716696
        ],
        [
          6.3249473,
          46.3709964
        ],
        [
          6.3236175,
          46.3716534
        ],
        [
          6.3244142,
          46.3708371
        ],
        [
          6.3213356,
          46.3690017
        ],
        [
          6.3208138,
          46.3690022
        ],
        [
          6.3207449,
          46.3694316
        ],
        [
          6.3155112,
          46.3689144
        ],
        [
          6.3139173,
          46.3679588
        ],
        [
          6.3112196,
          46.3675861
        ],
        [
          6.3082926,
          46.3664162
        ],
        [
          6.3050726,
          46.3666717
        ],
        [
          6.3029916,
          46.3657302
        ],
        [
          6.3017895,
          46.365867
        ],
        [
          6.3016909,
          46.3655565
        ],
        [
          6.302152,
          46.3658467
        ],
        [
          6.3030131,
          46.365461
        ],
        [
          6.3020457,
          46.3641838
        ],
        [
          6.3011836,
          46.364944
        ],
        [
          6.301521,
          46.3652687
        ],
        [
          6.301003,
          46.3652931
        ],
        [
          6.3021867,
          46.3641237
        ],
        [
          6.2970729,
          46.3614873
        ],
        [
          6.2948043,
          46.361014
        ],
        [
          6.291975,
          46.3596811
        ],
        [
          6.2907014,
          46.3585788
        ],
        [
          6.2853698,
          46.3557953
        ],
        [
          6.2851925,
          46.3551471
        ],
        [
          6.2814879,
          46.3525187
        ],
        [
          6.2802997,
          46.3510542
        ],
        [
          6.276809,
          46.3500138
        ],
        [
          6.2775688,
          46.3498482
        ],
        [
          6.2765919,
          46.3497062
        ],
        [
          6.2768543,
          46.3453772
        ],
        [
          6.2721983,
          46.3385213
        ],
        [
          6.2705462,
          46.3369783
        ],
        [
          6.2689696,
          46.3364319
        ],
        [
          6.2687103,
          46.3360993
        ],
        [
          6.2690824,
          46.3360283
        ],
        [
          6.2658836,
          46.3328403
        ],
        [
          6.264651,
          46.3307906
        ],
        [
          6.2618869,
          46.3292415
        ],
        [
          6.2622483,
          46.3286913
        ],
        [
          6.2619153,
          46.327722
        ],
        [
          6.2591655,
          46.3265078
        ],
        [
          6.2561906,
          46.3241429
        ],
        [
          6.2559107,
          46.3234624
        ],
        [
          6.25652,
          46.3233381
        ],
        [
          6.2577039,
          46.3218197
        ],
        [
          6.2581817,
          46.320031
        ],
        [
          6.2555814,
          46.3153765
        ],
        [
          6.2543465,
          46.3150644
        ],
        [
          6.2548285,
          46.3147071
        ],
        [
          6.2529777,
          46.310951
        ],
        [
          6.2485876,
          46.3063264
        ],
        [
          6.2406592,
          46.3039495
        ],
        [
          6.2414358,
          46.3031217
        ],
        [
          6.2416256,
          46.3017522
        ],
        [
          6.2412632,
          46.3014194
        ],
        [
          6.2417202,
          46.3015532
        ],
        [
          6.2413589,
          46.3013106
        ],
        [
          6.2426489,
          46.2984039
        ],
        [
          6.23804,
          46.2933781
        ],
        [
          6.2355328,
          46.2891082
        ],
        [
          6.2312059,
          46.2868012
        ],
        [
          6.2281524,
          46.2858663
        ],
        [
          6.228356,
          46.2856069
        ],
        [
          6.2273869,
          46.2849373
        ],
        [
          6.2265705,
          46.2835083
        ],
        [
          6.2244236,
          46.281631
        ],
        [
          6.224564,
          46.2811635
        ],
        [
          6.2212195,
          46.2783605
        ],
        [
          6.2204162,
          46.2771092
        ],
        [
          6.2209279,
          46.27717
        ],
        [
          6.2183363,
          46.2734275
        ],
        [
          6.2144685,
          46.2703949
        ],
        [
          6.21272,
          46.267655
        ],
        [
          6.2106872,
          46.2666589
        ],
        [
          6.2099896,
          46.2656264
        ],
        [
          6.2086112,
          46.2656405
        ],
        [
          6.20922,
          46.2654068
        ],
        [
          6.2085273,
          46.2651395
        ],
        [
          6.2030254,
          46.2652393
        ],
        [
          6.2034144,
          46.2649386
        ],
        [
          6.2028833,
          46.2647909
        ],
        [
          6.2021295,
          46.2650371
        ],
        [
          6.1989413,
          46.2641021
        ],
        [
          6.1995865,
          46.2640457
        ],
        [
          6.1990471,
          46.2638056
        ],
        [
          6.1983333,
          46.2640206
        ],
        [
          6.1988118,
          46.2637419
        ],
        [
          6.1962596,
          46.2609904
        ],
        [
          6.1962135,
          46.2605758
        ],
        [
          6.1966286,
          46.2608745
        ],
        [
          6.1963944,
          46.2602306
        ],
        [
          6.1941449,
          46.2575121
        ],
        [
          6.194435,
          46.2564092
        ],
        [
          6.1940274,
          46.2563065
        ],
        [
          6.1945851,
          46.2564259
        ],
        [
          6.1943025,
          46.257544
        ],
        [
          6.1948421,
          46.2577681
        ],
        [
          6.194591,
          46.2557117
        ],
        [
          6.1931113,
          46.2529329
        ],
        [
          6.1940173,
          46.2509008
        ],
        [
          6.1923684,
          46.2476653
        ],
        [
          6.1926738,
          46.2474551
        ],
        [
          6.1921758,
          46.2473375
        ],
        [
          6.1925993,
          46.2471751
        ],
        [
          6.1920789,
          46.2471396
        ],
        [
          6.1925424,
          46.2470322
        ],
        [
          6.1917447,
          46.2464784
        ],
        [
          6.1921647,
          46.2464082
        ],
        [
          6.1916898,
          46.2461343
        ],
        [
          6.1915104,
          46.2445596
        ],
        [
          6.1926109,
          46.2433279
        ],
        [
          6.192254,
          46.2442199
        ],
        [
          6.1925648,
          46.2441675
        ],
        [
          6.1932756,
          46.2434566
        ],
        [
          6.1927434,
          46.2433013
        ],
        [
          6.1939652,
          46.2426244
        ],
        [
          6.1932594,
          46.2408867
        ],
        [
          6.1935825,
          46.2398338
        ],
        [
          6.1932872,
          46.2382047
        ],
        [
          6.1921974,
          46.2375778
        ],
        [
          6.1924183,
          46.2365196
        ],
        [
          6.1915443,
          46.235543
        ],
        [
          6.1905496,
          46.2330279
        ],
        [
          6.1830772,
          46.2254359
        ],
        [
          6.1816061,
          46.2244491
        ],
        [
          6.1821371,
          46.224959
        ],
        [
          6.1825798,
          46.2247901
        ],
        [
          6.1755278,
          46.2152534
        ],
        [
          6.1717189,
          46.2144481
        ],
        [
          6.1686633,
          46.2155954
        ],
        [
          6.170132,
          46.2147586
        ],
        [
          6.1705983,
          46.2136591
        ],
        [
          6.1711967,
          46.2138911
        ],
        [
          6.1730271,
          46.212286
        ],
        [
          6.166509,
          46.2095867
        ],
        [
          6.1677723,
          46.2109799
        ],
        [
          6.167051,
          46.2120809
        ],
        [
          6.1640456,
          46.2088218
        ],
        [
          6.1627141,
          46.2089002
        ],
        [
          6.1623936,
          46.2093863
        ],
        [
          6.1590497,
          46.2089998
        ],
        [
          6.1622182,
          46.2092298
        ],
        [
          6.1626058,
          46.2083812
        ],
        [
          6.1613167,
          46.2077651
        ],
        [
          6.1593668,
          46.2080602
        ],
        [
          6.1612016,
          46.2077109
        ],
        [
          6.1575437,
          46.2059601
        ],
        [
          6.1571572,
          46.2062731
        ],
        [
          6.1574879,
          46.2059291
        ],
        [
          6.1541756,
          46.2043482
        ],
        [
          6.1497659,
          46.2050577
        ],
        [
          6.1480088,
          46.2069403
        ],
        [
          6.1497787,
          46.2085357
        ],
        [
          6.1509438,
          46.2086301
        ],
        [
          6.1510385,
          46.2092438
        ],
        [
          6.1530335,
          46.2110546
        ],
        [
          6.153521,
          46.2108267
        ],
        [
          6.1529021,
          46.212714
        ],
        [
          6.1542483,
          46.21278
        ],
        [
          6.1546509,
          46.2118679
        ],
        [
          6.1543933,
          46.2128507
        ],
        [
          6.1528531,
          46.2128576
        ],
        [
          6.1516153,
          46.2174154
        ],
        [
          6.1521688,
          46.2178899
        ],
        [
          6.1524988,
          46.2194012
        ],
        [
          6.1530746,
          46.219881
        ],
        [
          6.1533722,
          46.2194605
        ],
        [
          6.1536432,
          46.2214177
        ],
        [
          6.151754,
          46.2228202
        ],
        [
          6.1524796,
          46.2227631
        ],
        [
          6.1513262,
          46.2234506
        ],
        [
          6.151261,
          46.2241881
        ],
        [
          6.14904,
          46.2266276
        ],
        [
          6.1495576,
          46.2279909
        ],
        [
          6.1499982,
          46.2277219
        ],
        [
          6.1497031,
          46.2286666
        ],
        [
          6.1503252,
          46.2307042
        ],
        [
          6.1500781,
          46.231506
        ],
        [
          6.1506523,
          46.2314832
        ],
        [
          6.1507541,
          46.2310094
        ],
        [
          6.1500032,
          46.2323378
        ],
        [
          6.150903,
          46.2336858
        ],
        [
          6.151206,
          46.2334454
        ],
        [
          6.1504995,
          46.2344094
        ],
        [
          6.151062,
          46.2343046
        ],
        [
          6.1504509,
          46.2352
        ],
        [
          6.1509583,
          46.2349353
        ],
        [
          6.1502671,
          46.2355704
        ],
        [
          6.1509691,
          46.2353328
        ],
        [
          6.150246,
          46.2358858
        ],
        [
          6.1504833,
          46.2364765
        ],
        [
          6.1508574,
          46.2363359
        ],
        [
          6.1509096,
          46.2376276
        ],
        [
          6.1513591,
          46.2374857
        ],
        [
          6.1509079,
          46.2376794
        ],
        [
          6.1513588,
          46.2378486
        ],
        [
          6.1509772,
          46.2380461
        ],
        [
          6.1510941,
          46.2392813
        ],
        [
          6.1514897,
          46.2390913
        ],
        [
          6.1511673,
          46.2394764
        ],
        [
          6.1517725,
          46.2404134
        ],
        [
          6.152246,
          46.2400651
        ],
        [
          6.1519295,
          46.2406167
        ],
        [
          6.1522375,
          46.2416826
        ],
        [
          6.1531869,
          46.2429263
        ],
        [
          6.152657,
          46.2442714
        ],
        [
          6.1532312,
          46.2444453
        ],
        [
          6.1528965,
          46.2446712
        ],
        [
          6.1534388,
          46.2444625
        ],
        [
          6.1532573,
          46.2452437
        ],
        [
          6.1539621,
          46.2456948
        ],
        [
          6.1534363,
          46.2467166
        ],
        [
          6.1516368,
          46.2479894
        ],
        [
          6.1519738,
          46.2484825
        ],
        [
          6.1515416,
          46.2502442
        ],
        [
          6.1521361,
          46.2500759
        ],
        [
          6.1515516,
          46.2504353
        ],
        [
          6.1519523,
          46.2507134
        ],
        [
          6.1516778,
          46.2512553
        ],
        [
          6.1540675,
          46.2534838
        ],
        [
          6.154673,
          46.2529473
        ],
        [
          6.1547931,
          46.2538914
        ],
        [
          6.1560317,
          46.2551217
        ],
        [
          6.1566252,
          46.2549265
        ],
        [
          6.1560594,
          46.2551723
        ],
        [
          6.1564372,
          46.2552218
        ],
        [
          6.1576435,
          46.2582406
        ],
        [
          6.1582217,
          46.258277
        ],
        [
          6.1578646,
          46.2585591
        ],
        [
          6.1581276,
          46.259147
        ],
        [
          6.1606214,
          46.2609381
        ],
        [
          6.1619861,
          46.2628275
        ],
        [
          6.1643472,
          46.2636291
        ],
        [
          6.1658792,
          46.2633861
        ],
        [
          6.1656412,
          46.2636393
        ],
        [
          6.1663641,
          46.2638918
        ],
        [
          6.1663254,
          46.2633241
        ],
        [
          6.1659148,
          46.2633665
        ],
        [
          6.1664013,
          46.2630126
        ],
        [
          6.1659157,
          46.2625677
        ],
        [
          6.1662776,
          46.2623017
        ],
        [
          6.168119,
          46.2683401
        ],
        [
          6.1701229,
          46.2714829
        ],
        [
          6.1696919,
          46.2718687
        ],
        [
          6.1703756,
          46.272286
        ],
        [
          6.1703761,
          46.2734708
        ],
        [
          6.1714344,
          46.2728171
        ],
        [
          6.1710839,
          46.2734109
        ],
        [
          6.1713499,
          46.2744766
        ],
        [
          6.1708817,
          46.274788
        ],
        [
          6.1712531,
          46.2743722
        ],
        [
          6.17092,
          46.274402
        ],
        [
          6.170603,
          46.2749981
        ],
        [
          6.455533,
          46.3687891
        ],
        [
          6.4548198,
          46.3688987
        ],
        [
          6.476333,
          46.3759041
        ],
        [
          6.4798051,
          46.3791594
        ],
        [
          6.4767346,
          46.3760645
        ],
        [
          6.4684723,
          46.3724809
        ],
        [
          6.562113,
          46.508024
        ],
        [
          6.561417,
          46.5085323
        ],
        [
          6.5621393,
          46.5080408
        ],
        [
          6.1503084,
          46.2050545
        ],
        [
          6.1713763,
          46.2740705
        ],
        [
          6.4630361,
          46.3711041
        ],
        [
          6.1516526,
          46.2172648
        ],
        [
          6.3213253,
          46.3702495
        ],
        [
          6.3212504,
          46.3695757
        ],
        [
          6.3208797,
          46.3695443
        ],
        [
          6.321366,
          46.3704118
        ],
        [
          6.3232559,
          46.3713
        ],
        [
          6.3236035,
          46.3711089
        ],
        [
          6.3213363,
          46.3703353
        ],
        [
          6.3540318,
          46.3569197
        ],
        [
          6.4644216,
          46.3715846
        ],
        [
          6.6247899,
          46.5057317
        ],
        [
          6.6228286,
          46.5058911
        ],
        [
          6.6213442,
          46.5067217
        ],
        [
          6.6225532,
          46.5059087
        ],
        [
          6.6247027,
          46.5055761
        ],
        [
          6.4377708,
          46.3621572
        ],
        [
          6.4982014,
          46.5059762
        ],
        [
          6.4990291,
          46.5061767
        ],
        [
          6.4981878,
          46.5060144
        ],
        [
          6.1503155,
          46.235578
        ],
        [
          6.170603,
          46.2749981
        ]
      ]
    ]
  }
}
