{
  "type": "Feature",
  "properties": {
    "lake": "vierwaldstaettersee",
    "osm_relation": 1442399,
    "simplify": 0.0003
  },
  "geometry": {
    "type": "Polygon",
    "coordinates": [
      [
        [
          8.6246619,
          46.9075114
        ],
        [
          8.624999,
          46.9047268
        ],
        [
          8.624351,
          46.9032319
        ],
        [
          8.6235438,
          46.902905
        ],
        [
          8.6241658,
          46.9021655
        ],
        [
          8.6225223,
          46.9018358
        ],
        [
          8.6221877,
          46.902246
        ],
        [
          8.6224468,
          46.9016146
        ],
        [
          8.6220266,
          46.9022472
        ],
        [
          8.6220426,
          46.901426
        ],
        [
          8.6209327,
          46.9020547
        ],
        [
          8.6216502,
          46.9012997
        ],
        [
          8.6211094,
          46.9010827
        ],
        [
          8.6217103,
          46.8999842
        ],
        [
          8.6198698,
          46.8998031
        ],
        [
          8.616925,
          46.8982795
        ],
        [
          8.616044,
          46.8982694
        ],
        [
          8.614677,
          46.8999692
        ],
        [
          8.6096518,
          46.8984987
        ],
        [
          8.6091439,
          46.8977728
        ],
        [
          8.6095706,
          46.8967483
        ],
        [
          8.6087671,
          46.8960439
        ],
        [
          8.6094491,
          46.8956035
        ],
        [
          8.606369,
          46.8943536
        ],
        [
          8.607851,
          46.8940774
        ],
        [
          8.6079006,
          46.8937089
        ],
        [
          8.6059414,
          46.8931118
        ],
        [
          8.6064461,
          46.8929749
        ],
        [
          8.6045887,
          46.8916376
        ],
        [
          8.60491,
          46.8911236
        ],
        [
          8.605819,
          46.8914402
        ],
        [
          8.6048403,
          46.8907748
        ],
        [
          8.6040985,
          46.8891045
        ],
        [
          8.6019597,
          46.8886878
        ],
        [
          8.5986726,
          46.8898913
        ],
        [
          8.5938187,
          46.8955611
        ],
        [
          8.5935583,
          46.8964101
        ],
        [
          8.5951935,
          46.8979388
        ],
        [
          8.5948733,
          46.8991698
        ],
        [
          8.5931162,
          46.8997397
        ],
        [
          8.5937012,
          46.9010781
        ],
        [
          8.5926177,
          46.9026415
        ],
        [
          8.59252,
          46.9047942
        ],
        [
          8.5918857,
          46.905409
        ],
        [
          8.5926766,
          46.9100525
        ],
        [
          8.5920251,
          46.913759
        ],
        [
          8.5940637,
          46.9154404
        ],
        [
          8.5941015,
          46.9163817
        ],
        [
          8.5972249,
          46.918847
        ],
        [
          8.5951435,
          46.9201619
        ],
        [
          8.5924172,
          46.9207508
        ],
        [
          8.5904431,
          46.9222823
        ],
        [
          8.5872343,
          46.9234649
        ],
        [
          8.5847998,
          46.926382
        ],
        [
          8.582544,
          46.9277394
        ],
        [
          8.580046,
          46.928506
        ],
        [
          8.5793406,
          46.9296599
        ],
        [
          8.5796329,
          46.9308395
        ],
        [
          8.5784854,
          46.9322983
        ],
        [
          8.5790208,
          46.9335196
        ],
        [
          8.5804719,
          46.9347825
        ],
        [
          8.5800057,
          46.9366084
        ],
        [
          8.5827856,
          46.9393631
        ],
        [
          8.5826706,
          46.9407743
        ],
        [
          8.584215,
          46.9422109
        ],
        [
          8.5854837,
          46.9446731
        ],
        [
          8.585927,
          46.9464971
        ],
        [
          8.5850714,
          46.9475547
        ],
        [
          8.586946,
          46.9499904
        ],
        [
          8.5888592,
          46.9539671
        ],
        [
          8.5889005,
          46.9550745
        ],
        [
          8.589997,
          46.9556653
        ],
        [
          8.5895239,
          46.9561271
        ],
        [
          8.589754,
          46.9572632
        ],
        [
          8.5903468,
          46.9577546
        ],
        [
          8.5903959,
          46.9590038
        ],
        [
          8.5897623,
          46.9595875
        ],
        [
          8.5909929,
          46.9597526
        ],
        [
          8.5918671,
          46.9611477
        ],
        [
          8.5916527,
          46.9615907
        ],
        [
          8.5932784,
          46.9626618
        ],
        [
          8.5929048,
          46.9641344
        ],
        [
          8.5940104,
          46.9657192
        ],
        [
          8.5938053,
          46.967029
        ],
        [
          8.5943501,
          46.9674729
        ],
        [
          8.5932036,
          46.9707816
        ],
        [
          8.5923614,
          46.9709981
        ],
        [
          8.5921278,
          46.9727682
        ],
        [
          8.5925349,
          46.9736518
        ],
        [
          8.5918013,
          46.9750036
        ],
        [
          8.5919274,
          46.9758116
        ],
        [
          8.5942975,
          46.978608
        ],
        [
          8.5967276,
          46.9828197
        ],
        [
          8.595063,
          46.9859172
        ],
        [
          8.5932702,
          46.9868739
        ],
        [
          8.5912008,
          46.9870928
        ],
        [
          8.589131,
          46.9880251
        ],
        [
          8.5696699,
          46.9826546
        ],
        [
          8.5677931,
          46.9813916
        ],
        [
          8.5609228,
          46.9789378
        ],
        [
          8.5595926,
          46.9770744
        ],
        [
          8.5584006,
          46.9764276
        ],
        [
          8.5479815,
          46.9726631
        ],
        [
          8.5454365,
          46.9727049
        ],
        [
          8.5441084,
          46.9720664
        ],
        [
          8.5407503,
          46.9717416
        ],
        [
          8.5402179,
          46.9712556
        ],
        [
          8.5268189,
          46.9689906
        ],
        [
          8.5134941,
          46.9639509
        ],
        [
          8.5074555,
          46.9631608
        ],
        [
          8.5074606,
          46.9625453
        ],
        [
          8.5081721,
          46.9623873
        ],
        [
          8.50762,
          46.9621922
        ],
        [
          8.5069973,
          46.9629778
        ],
        [
          8.5053673,
          46.9625255
        ],
        [
          8.4952858,
          46.9620558
        ],
        [
          8.4912658,
          46.9631531
        ],
        [
          8.4911825,
          46.9628009
        ],
        [
          8.4893291,
          46.9628119
        ],
        [
          8.4836604,
          46.9641447
        ],
        [
          8.4792067,
          46.9640078
        ],
        [
          8.4776601,
          46.9646992
        ],
        [
          8.4755822,
          46.9670142
        ],
        [
          8.4726544,
          46.969052
        ],
        [
          8.4659685,
          46.9720982
        ],
        [
          8.4645637,
          46.9714379
        ],
        [
          8.4595541,
          46.9721277
        ],
        [
          8.4546113,
          46.9711014
        ],
        [
          8.4486338,
          46.971543
        ],
        [
          8.4459731,
          46.9725651
        ],
        [
          8.4451328,
          46.9734688
        ],
        [
          8.4408339,
          46.9747566
        ],
        [
          8.43375,
          46.9751173
        ],
        [
          8.4312562,
          46.9744619
        ],
        [
          8.4266424,
          46.9750837
        ],
        [
          8.4251148,
          46.975955
        ],
        [
          8.4240542,
          46.9773355
        ],
        [
          8.4257255,
          46.9786717
        ],
        [
          8.4254794,
          46.9790943
        ],
        [
          8.4240043,
          46.9787348
        ],
        [
          8.4215582,
          46.9791462
        ],
        [
          8.4216435,
          46.9797525
        ],
        [
          8.4207268,
          46.9804171
        ],
        [
          8.4216572,
          46.9795325
        ],
        [
          8.421122,
          46.9791886
        ],
        [
          8.4205618,
          46.979592
        ],
        [
          8.4197491,
          46.9790506
        ],
        [
          8.4193677,
          46.9793207
        ],
        [
          8.4205319,
          46.9802016
        ],
        [
          8.4204359,
          46.9806375
        ],
        [
          8.4195212,
          46.9809454
        ],
        [
          8.4203943,
          46.9806279
        ],
        [
          8.4199884,
          46.9801298
        ],
        [
          8.4193564,
          46.9809034
        ],
        [
          8.4181349,
          46.9813153
        ],
        [
          8.4175636,
          46.9822011
        ],
        [
          8.4183069,
          46.9870626
        ],
        [
          8.4191486,
          46.9869154
        ],
        [
          8.4194247,
          46.9873382
        ],
        [
          8.423967,
          46.9884923
        ],
        [
          8.4286747,
          46.9904511
        ],
        [
          8.4356584,
          46.9920715
        ],
        [
          8.4395315,
          46.9936023
        ],
        [
          8.4476936,
          46.9948695
        ],
        [
          8.4518413,
          46.9946076
        ],
        [
          8.4529447,
          46.994979
        ],
        [
          8.4551543,
          46.994585
        ],
        [
          8.4591192,
          46.995391
        ],
        [
          8.4599385,
          46.9965236
        ],
        [
          8.4621248,
          46.9970706
        ],
        [
          8.4629727,
          46.9977515
        ],
        [
          8.4618631,
          46.9988728
        ],
        [
          8.4579594,
          47.0003602
        ],
        [
          8.4466837,
          47.0018092
        ],
        [
          8.4456601,
          47.0017776
        ],
        [
          8.4452285,
          47.0011202
        ],
        [
          8.4434273,
          47.0005237
        ],
        [
          8.4408681,
          47.0006953
        ],
        [
          8.4350873,
          47.0014856
        ],
        [
          8.4345002,
          47.0021918
        ],
        [
          8.4314967,
          47.0025499
        ],
        [
          8.4290817,
          47.0019626
        ],
        [
          8.4247805,
          47.0024559
        ],
        [
          8.4192088,
          47.0017177
        ],
        [
          8.4128456,
          47.0024519
        ],
        [
          8.4073477,
          47.0036659
        ],
        [
          8.4025333,
          47.0033435
        ],
        [
          8.3980825,
          47.0038961
        ],
        [
          8.3908983,
          47.0039974
        ],
        [
          8.3831426,
          47.0027829
        ],
        [
          8.3754005,
          47.002841
        ],
        [
          8.3682789,
          47.00357
        ],
        [
          8.3658781,
          47.000391
        ],
        [
          8.364455,
          46.9993225
        ],
        [
          8.3639856,
          46.9975044
        ],
        [
          8.3627015,
          46.9962758
        ],
        [
          8.3596287,
          46.9944007
        ],
        [
          8.3553512,
          46.9929287
        ],
        [
          8.355236,
          46.9918275
        ],
        [
          8.3545252,
          46.9908979
        ],
        [
          8.3520482,
          46.9892495
        ],
        [
          8.3513066,
          46.9881898
        ],
        [
          8.3517624,
          46.9865402
        ],
        [
          8.3513409,
          46.9853919
        ],
        [
          8.3486626,
          46.984618
        ],
        [
          8.3483186,
          46.9834177
        ],
        [
          8.3466597,
          46.9828894
        ],
        [
          8.3461581,
          46.9820718
        ],
        [
          8.3450777,
          46.9824434
        ],
        [
          8.3427986,
          46.9821019
        ],
        [
          8.3419836,
          46.9811716
        ],
        [
          8.3410981,
          46.9814348
        ],
        [
          8.3416665,
          46.9816793
        ],
        [
          8.3399562,
          46.9809072
        ],
        [
          8.339131,
          46.9811431
        ],
        [
          8.3394552,
          46.9808855
        ],
        [
          8.3389814,
          46.9806047
        ],
        [
          8.3382353,
          46.9811826
        ],
        [
          8.3381012,
          46.9805744
        ],
        [
          8.3378638,
          46.9809879
        ],
        [
          8.3369149,
          46.9804726
        ],
        [
          8.3365971,
          46.9806479
        ],
        [
          8.3370544,
          46.9808004
        ],
        [
          8.3365287,
          46.9809057
        ],
        [
          8.33473,
          46.9799253
        ],
        [
          8.3361109,
          46.9803303
        ],
        [
          8.3366445,
          46.9797251
        ],
        [
          8.3343805,
          46.9789454
        ],
        [
          8.3340388,
          46.9795609
        ],
        [
          8.3343477,
          46.979842
        ],
        [
          8.333533,
          46.9794615
        ],
        [
          8.3337314,
          46.9789856
        ],
        [
          8.33306,
          46.9793355
        ],
        [
          8.3327154,
          46.976598
        ],
        [
          8.3364785,
          46.9747456
        ],
        [
          8.3375243,
          46.9720226
        ],
        [
          8.3359076,
          46.9692662
        ],
        [
          8.3338427,
          46.9682282
        ],
        [
          8.3339074,
          46.9676831
        ],
        [
          8.3331607,
          46.9673552
        ],
        [
          8.3326458,
          46.9677896
        ],
        [
          8.3316663,
          46.9673853
        ],
        [
          8.3320101,
          46.9669223
        ],
        [
          8.331694,
          46.9667857
        ],
        [
          8.3313396,
          46.9672531
        ],
        [
          8.330671,
          46.9669724
        ],
        [
          8.3308928,
          46.9665237
        ],
        [
          8.3300767,
          46.9667288
        ],
        [
          8.3303183,
          46.9663643
        ],
        [
          8.329288,
          46.9661075
        ],
        [
          8.3288092,
          46.9649657
        ],
        [
          8.3250392,
          46.9633557
        ],
        [
          8.321,
          46.9624411
        ],
        [
          8.3197346,
          46.9614797
        ],
        [
          8.3131002,
          46.9591835
        ],
        [
          8.3062831,
          46.9557457
        ],
        [
          8.3045282,
          46.9555781
        ],
        [
          8.2994523,
          46.9522611
        ],
        [
          8.2973686,
          46.9530967
        ],
        [
          8.2988581,
          46.9525744
        ],
        [
          8.2972138,
          46.9519355
        ],
        [
          8.2968644,
          46.9509586
        ],
        [
          8.2943518,
          46.952032
        ],
        [
          8.295725,
          46.9535309
        ],
        [
          8.2942063,
          46.9521099
        ],
        [
          8.2927204,
          46.9529758
        ],
        [
          8.2954806,
          46.9542505
        ],
        [
          8.2965962,
          46.9535788
        ],
        [
          8.2957724,
          46.9545082
        ],
        [
          8.2945194,
          46.9546762
        ],
        [
          8.2949256,
          46.9543208
        ],
        [
          8.2945995,
          46.9540396
        ],
        [
          8.293398,
          46.954434
        ],
        [
          8.2922604,
          46.9529261
        ],
        [
          8.2903307,
          46.9532077
        ],
        [
          8.2916819,
          46.955149
        ],
        [
          8.2911479,
          46.9560934
        ],
        [
          8.290003,
          46.956179
        ],
        [
          8.2891979,
          46.9556102
        ],
        [
          8.2890442,
          46.9544256
        ],
        [
          8.290092,
          46.9543123
        ],
        [
          8.2905613,
          46.9537076
        ],
        [
          8.2902134,
          46.9532685
        ],
        [
          8.2880652,
          46.953078
        ],
        [
          8.2878791,
          46.9549834
        ],
        [
          8.2885263,
          46.9564552
        ],
        [
          8.2856904,
          46.9541356
        ],
        [
          8.2863175,
          46.9537021
        ],
        [
          8.2852818,
          46.9535861
        ],
        [
          8.2848327,
          46.9537076
        ],
        [
          8.2851029,
          46.9548298
        ],
        [
          8.2845352,
          46.955149
        ],
        [
          8.2837724,
          46.95418
        ],
        [
          8.2837918,
          46.954869
        ],
        [
          8.2831338,
          46.9540384
        ],
        [
          8.2823692,
          46.9541709
        ],
        [
          8.2818987,
          46.9533914
        ],
        [
          8.2814294,
          46.9535055
        ],
        [
          8.2817084,
          46.9538238
        ],
        [
          8.279955,
          46.9541625
        ],
        [
          8.2803437,
          46.9545618
        ],
        [
          8.2788274,
          46.9551742
        ],
        [
          8.2787815,
          46.9557234
        ],
        [
          8.2830969,
          46.9590144
        ],
        [
          8.2865356,
          46.9606099
        ],
        [
          8.2875326,
          46.960431
        ],
        [
          8.2908691,
          46.9629115
        ],
        [
          8.2941042,
          46.9635653
        ],
        [
          8.2938623,
          46.9656071
        ],
        [
          8.2946129,
          46.9662681
        ],
        [
          8.307978,
          46.9696094
        ],
        [
          8.3118824,
          46.968763
        ],
        [
          8.3161061,
          46.9695705
        ],
        [
          8.3308533,
          46.9742143
        ],
        [
          8.3314497,
          46.9785927
        ],
        [
          8.3311526,
          46.9792795
        ],
        [
          8.329532,
          46.979836
        ],
        [
          8.3271296,
          46.9801406
        ],
        [
          8.3254733,
          46.9794112
        ],
        [
          8.3221534,
          46.9788908
        ],
        [
          8.3123355,
          46.9794939
        ],
        [
          8.3118484,
          46.9814429
        ],
        [
          8.3124143,
          46.9823069
        ],
        [
          8.3127086,
          46.9864913
        ],
        [
          8.3147758,
          46.9887082
        ],
        [
          8.3169907,
          46.9897835
        ],
        [
          8.3160842,
          46.99079
        ],
        [
          8.3158886,
          46.9931922
        ],
        [
          8.3149764,
          46.9939914
        ],
        [
          8.3147105,
          46.9954646
        ],
        [
          8.3136773,
          46.9959599
        ],
        [
          8.3130411,
          46.9967918
        ],
        [
          8.3131873,
          46.9974454
        ],
        [
          8.3124564,
          46.9979026
        ],
        [
          8.3116525,
          47.0011678
        ],
        [
          8.3090514,
          47.003995
        ],
        [
          8.3065362,
          47.0048825
        ],
        [
          8.3057298,
          47.0058892
        ],
        [
          8.3064718,
          47.0086804
        ],
        [
          8.3086225,
          47.0094598
        ],
        [
          8.3092685,
          47.0090223
        ],
        [
          8.309839,
          47.0096965
        ],
        [
          8.3123274,
          47.0099955
        ],
        [
          8.3126272,
          47.0104931
        ],
        [
          8.3167061,
          47.0117367
        ],
        [
          8.3198958,
          47.0083479
        ],
        [
          8.3208959,
          47.0045669
        ],
        [
          8.3217238,
          47.0036645
        ],
        [
          8.3251464,
          47.0028008
        ],
        [
          8.3274294,
          47.0009453
        ],
        [
          8.3292398,
          47.0003502
        ],
        [
          8.3333854,
          47.0018862
        ],
        [
          8.3337984,
          47.0025934
        ],
        [
          8.3349572,
          47.0030207
        ],
        [
          8.3349921,
          47.0035468
        ],
        [
          8.3397238,
          47.005169
        ],
        [
          8.3413507,
          47.0051707
        ],
        [
          8.3417146,
          47.0056999
        ],
        [
          8.3410684,
          47.0069454
        ],
        [
          8.340587,
          47.0116539
        ],
        [
          8.3410194,
          47.0130482
        ],
        [
          8.3421428,
          47.013939
        ],
        [
          8.3410392,
          47.0146394
        ],
        [
          8.3408495,
          47.0154475
        ],
        [
          8.3394534,
          47.0157384
        ],
        [
          8.3390508,
          47.0163996
        ],
        [
          8.3392714,
          47.0168575
        ],
        [
          8.3426055,
          47.0180217
        ],
        [
          8.3412155,
          47.0190741
        ],
        [
          8.3408401,
          47.0200834
        ],
        [
          8.3374431,
          47.0217401
        ],
        [
          8.3364138,
          47.0237066
        ],
        [
          8.3364636,
          47.0269156
        ],
        [
          8.3373661,
          47.0286876
        ],
        [
          8.3396463,
          47.0307645
        ],
        [
          8.3389056,
          47.0309057
        ],
        [
          8.3383166,
          47.0317644
        ],
        [
          8.3383571,
          47.0327824
        ],
        [
          8.3371843,
          47.032784
        ],
        [
          8.3362094,
          47.0343274
        ],
        [
          8.3348673,
          47.0345929
        ],
        [
          8.3334995,
          47.0354781
        ],
        [
          8.3332543,
          47.0363359
        ],
        [
          8.3313921,
          47.03703
        ],
        [
          8.3308856,
          47.0376845
        ],
        [
          8.3308389,
          47.0389067
        ],
        [
          8.3299834,
          47.0399153
        ],
        [
          8.3308139,
          47.0418081
        ],
        [
          8.3303639,
          47.0428808
        ],
        [
          8.3250941,
          47.04238
        ],
        [
          8.3246509,
          47.0432396
        ],
        [
          8.3232048,
          47.0436657
        ],
        [
          8.3207431,
          47.0453875
        ],
        [
          8.3234354,
          47.0456808
        ],
        [
          8.3203309,
          47.0475096
        ],
        [
          8.3190613,
          47.0465708
        ],
        [
          8.3179277,
          47.0473623
        ],
        [
          8.3189253,
          47.0480428
        ],
        [
          8.3184591,
          47.0483358
        ],
        [
          8.3162522,
          47.0474092
        ],
        [
          8.3161342,
          47.0479079
        ],
        [
          8.3143779,
          47.0487683
        ],
        [
          8.3149947,
          47.0491685
        ],
        [
          8.3140866,
          47.0502594
        ],
        [
          8.3131624,
          47.0501392
        ],
        [
          8.3123537,
          47.0514479
        ],
        [
          8.3091992,
          47.0513112
        ],
        [
          8.3092611,
          47.0533072
        ],
        [
          8.311847,
          47.0544194
        ],
        [
          8.3190647,
          47.0549006
        ],
        [
          8.324399,
          47.054825
        ],
        [
          8.3273167,
          47.053902
        ],
        [
          8.3293905,
          47.0549159
        ],
        [
          8.3328556,
          47.0542012
        ],
        [
          8.3346778,
          47.0519094
        ],
        [
          8.3350505,
          47.0507469
        ],
        [
          8.3346519,
          47.0501586
        ],
        [
          8.335746,
          47.0494532
        ],
        [
          8.3362668,
          47.0496662
        ],
        [
          8.3357486,
          47.0494123
        ],
        [
          8.3390016,
          47.0489919
        ],
        [
          8.3394461,
          47.0486706
        ],
        [
          8.3391933,
          47.0483465
        ],
        [
          8.34062,
          47.0488094
        ],
        [
          8.3428169,
          47.046844
        ],
        [
          8.3438146,
          47.0465664
        ],
        [
          8.344609,
          47.0455033
        ],
        [
          8.3473082,
          47.0449677
        ],
        [
          8.3496339,
          47.0426354
        ],
        [
          8.3509537,
          47.0401503
        ],
        [
          8.3516254,
          47.0398895
        ],
        [
          8.3514628,
          47.0392265
        ],
        [
          8.3521951,
          47.0391945
        ],
        [
          8.3535891,
          47.0381446
        ],
        [
          8.3535912,
          47.0369727
        ],
        [
          8.3527883,
          47.0361655
        ],
        [
          8.3533308,
          47.0354208
        ],
        [
          8.3529173,
          47.0342841
        ],
        [
          8.3550093,
          47.0334972
        ],
        [
          8.3583947,
          47.0333098
        ],
        [
          8.3601911,
          47.0336892
        ],
        [
          8.3625058,
          47.0333008
        ],
        [
          8.3642704,
          47.0347767
        ],
        [
          8.3684772,
          47.0367821
        ],
        [
          8.3702699,
          47.0383734
        ],
        [
          8.3700143,
          47.038688
        ],
        [
          8.3713949,
          47.0401582
        ],
        [
          8.3727503,
          47.0403409
        ],
        [
          8.3754276,
          47.0417271
        ],
        [
          8.3759001,
          47.0415112
        ],
        [
          8.3768257,
          47.0424085
        ],
        [
          8.3765624,
          47.0430106
        ],
        [
          8.3777042,
          47.0434263
        ],
        [
          8.3785648,
          47.0445659
        ],
        [
          8.3794642,
          47.0445823
        ],
        [
          8.3802544,
          47.0461849
        ],
        [
          8.3828253,
          47.0472942
        ],
        [
          8.3852523,
          47.0493632
        ],
        [
          8.3875798,
          47.0500072
        ],
        [
          8.3879541,
          47.0505728
        ],
        [
          8.3940242,
          47.0536278
        ],
        [
          8.3952657,
          47.0535739
        ],
        [
          8.3945889,
          47.0542724
        ],
        [
          8.3951015,
          47.0546408
        ],
        [
          8.3958206,
          47.0542401
        ],
        [
          8.399424,
          47.0588791
        ],
        [
          8.4015345,
          47.0605518
        ],
        [
          8.4031122,
          47.0608983
        ],
        [
          8.4052172,
          47.0633071
        ],
        [
          8.4083308,
          47.0640432
        ],
        [
          8.4095046,
          47.064765
        ],
        [
          8.4132501,
          47.0634513
        ],
        [
          8.4189356,
          47.0663106
        ],
        [
          8.4199131,
          47.067859
        ],
        [
          8.4213763,
          47.0679843
        ],
        [
          8.4212202,
          47.0696057
        ],
        [
          8.4229024,
          47.0702231
        ],
        [
          8.4239675,
          47.072159
        ],
        [
          8.4252415,
          47.0726742
        ],
        [
          8.4262822,
          47.0743897
        ],
        [
          8.4292648,
          47.0768281
        ],
        [
          8.4333432,
          47.0814912
        ],
        [
          8.434998,
          47.0821881
        ],
        [
          8.4387344,
          47.0805745
        ],
        [
          8.4394718,
          47.0787586
        ],
        [
          8.4378645,
          47.0776731
        ],
        [
          8.4350213,
          47.0772464
        ],
        [
          8.4353489,
          47.0762178
        ],
        [
          8.4344677,
          47.0742973
        ],
        [
          8.4323748,
          47.0727157
        ],
        [
          8.4323709,
          47.0707003
        ],
        [
          8.4312954,
          47.0693348
        ],
        [
          8.4315123,
          47.0676196
        ],
        [
          8.4302165,
          47.0655747
        ],
        [
          8.4300277,
          47.0637119
        ],
        [
          8.4305026,
          47.062389
        ],
        [
          8.428383,
          47.0614292
        ],
        [
          8.4276782,
          47.0598443
        ],
        [
          8.4267528,
          47.0591456
        ],
        [
          8.4271914,
          47.0544078
        ],
        [
          8.426895,
          47.0542278
        ],
        [
          8.4275955,
          47.0533782
        ],
        [
          8.4270347,
          47.052384
        ],
        [
          8.4228669,
          47.0495536
        ],
        [
          8.4181382,
          47.0441658
        ],
        [
          8.4170028,
          47.0442683
        ],
        [
          8.4139613,
          47.0421771
        ],
        [
          8.4115582,
          47.0418104
        ],
        [
          8.4089636,
          47.0401106
        ],
        [
          8.406638,
          47.0393928
        ],
        [
          8.4013667,
          47.0354584
        ],
        [
          8.4007946,
          47.0332508
        ],
        [
          8.3987045,
          47.0326768
        ],
        [
          8.397291,
          47.0314495
        ],
        [
          8.3966034,
          47.0296086
        ],
        [
          8.3962199,
          47.0298234
        ],
        [
          8.39558,
          47.0290283
        ],
        [
          8.3966584,
          47.0271068
        ],
        [
          8.3973549,
          47.0268475
        ],
        [
          8.400863,
          47.0283157
        ],
        [
          8.401495,
          47.0278365
        ],
        [
          8.4005418,
          47.026592
        ],
        [
          8.4014297,
          47.026154
        ],
        [
          8.4074647,
          47.0282842
        ],
        [
          8.4093542,
          47.0300226
        ],
        [
          8.4107149,
          47.0300336
        ],
        [
          8.4129257,
          47.0290001
        ],
        [
          8.4207232,
          47.0286364
        ],
        [
          8.4257425,
          47.0312719
        ],
        [
          8.4270433,
          47.0311167
        ],
        [
          8.4287726,
          47.0317741
        ],
        [
          8.4301835,
          47.0311092
        ],
        [
          8.4358201,
          47.0321419
        ],
        [
          8.4395694,
          47.030395
        ],
        [
          8.4419196,
          47.0311386
        ],
        [
          8.445849,
          47.0296088
        ],
        [
          8.4503123,
          47.0264289
        ],
        [
          8.4527164,
          47.025436
        ],
        [
          8.4540705,
          47.0237557
        ],
        [
          8.455492,
          47.0235949
        ],
        [
          8.4555791,
          47.0239444
        ],
        [
          8.455817,
          47.0235335
        ],
        [
          8.4576409,
          47.0233561
        ],
        [
          8.460154,
          47.0243122
        ],
        [
          8.4623489,
          47.0244978
        ],
        [
          8.464379,
          47.0234054
        ],
        [
          8.4679469,
          47.0235764
        ],
        [
          8.4683801,
          47.0214669
        ],
        [
          8.4706125,
          47.0195557
        ],
        [
          8.4720952,
          47.0189499
        ],
        [
          8.472222,
          47.0181202
        ],
        [
          8.4733619,
          47.0169425
        ],
        [
          8.4765024,
          47.0162578
        ],
        [
          8.4775952,
          47.0146117
        ],
        [
          8.481813,
          47.0139465
        ],
        [
          8.4825064,
          47.0128558
        ],
        [
          8.4820093,
          47.0109071
        ],
        [
          8.4827011,
          47.0103365
        ],
        [
          8.4823387,
          47.0094673
        ],
        [
          8.4826531,
          47.0071005
        ],
        [
          8.483481,
          47.0064885
        ],
        [
          8.4853252,
          47.0025842
        ],
        [
          8.4842438,
          47.0014301
        ],
        [
          8.4766173,
          46.9989536
        ],
        [
          8.4770539,
          46.9978544
        ],
        [
          8.4757641,
          46.9964348
        ],
        [
          8.4740553,
          46.9959611
        ],
        [
          8.4734991,
          46.9953608
        ],
        [
          8.48035,
          46.9934574
        ],
        [
          8.4843367,
          46.9944164
        ],
        [
          8.4877302,
          46.9933348
        ],
        [
          8.4927711,
          46.9906759
        ],
        [
          8.4969289,
          46.9902169
        ],
        [
          8.5014533,
          46.9919462
        ],
        [
          8.5114375,
          46.992719
        ],
        [
          8.5152895,
          46.9932787
        ],
        [
          8.5168517,
          46.9940249
        ],
        [
          8.5190459,
          46.9938227
        ],
        [
          8.5197391,
          46.9935083
        ],
        [
          8.5193064,
          46.9934126
        ],
        [
          8.5195577,
          46.9932027
        ],
        [
          8.5230075,
          46.9925166
        ],
        [
          8.5240307,
          46.9907517
        ],
        [
          8.5297596,
          46.9906403
        ],
        [
          8.5304703,
          46.9899728
        ],
        [
          8.532421,
          46.9898126
        ],
        [
          8.533009,
          46.9889143
        ],
        [
          8.5345365,
          46.9883157
        ],
        [
          8.5397069,
          46.9880254
        ],
        [
          8.5488671,
          46.9889535
        ],
        [
          8.5530813,
          46.9901757
        ],
        [
          8.5560939,
          46.9903874
        ],
        [
          8.5578488,
          46.9912535
        ],
        [
          8.5582315,
          46.9920828
        ],
        [
          8.5606874,
          46.9929133
        ],
        [
          8.5611466,
          46.9936298
        ],
        [
          8.562765,
          46.9942307
        ],
        [
          8.5635243,
          46.9952266
        ],
        [
          8.5650817,
          46.9960539
        ],
        [
          8.5688776,
          46.9964628
        ],
        [
          8.5702986,
          46.9980689
        ],
        [
          8.5734152,
          46.9992845
        ],
        [
          8.5751628,
          46.9997689
        ],
        [
          8.5775204,
          46.999514
        ],
        [
          8.5789023,
          47.00078
        ],
        [
          8.5817978,
          47.0004761
        ],
        [
          8.5817191,
          47.0008379
        ],
        [
          8.5825323,
          47.0007525
        ],
        [
          8.582651,
          47.0011225
        ],
        [
          8.5857728,
          47.0012261
        ],
        [
          8.5876276,
          47.0008117
        ],
        [
          8.590274,
          46.9986699
        ],
        [
          8.5900767,
          46.9973905
        ],
        [
          8.5920929,
          46.9953896
        ],
        [
          8.5938913,
          46.9955908
        ],
        [
          8.5947997,
          46.994796
        ],
        [
          8.5983336,
          46.9949819
        ],
        [
          8.5992187,
          46.9944421
        ],
        [
          8.599445,
          46.9947512
        ],
        [
          8.6012776,
          46.9937642
        ],
        [
          8.5997711,
          46.9937206
        ],
        [
          8.6001725,
          46.993154
        ],
        [
          8.6055302,
          46.9935665
        ],
        [
          8.6080567,
          46.9926081
        ],
        [
          8.6102021,
          46.9908137
        ],
        [
          8.6116594,
          46.9875491
        ],
        [
          8.6116684,
          46.9828761
        ],
        [
          8.6107278,
          46.9801171
        ],
        [
          8.6113277,
          46.9786755
        ],
        [
          8.6112102,
          46.9771891
        ],
        [
          8.6103565,
          46.9729823
        ],
        [
          8.6126386,
          46.9695973
        ],
        [
          8.6133218,
          46.9673709
        ],
        [
          8.6145547,
          46.9612508
        ],
        [
          8.6151149,
          46.9605791
        ],
        [
          8.6143836,
          46.9591746
        ],
        [
          8.615736,
          46.9591984
        ],
        [
          8.6166514,
          46.9564759
        ],
        [
          8.6190871,
          46.9552761
        ],
        [
          8.6192093,
          46.9542749
        ],
        [
          8.6207688,
          46.9525306
        ],
        [
          8.6188181,
          46.9505852
        ],
        [
          8.6183391,
          46.9493386
        ],
        [
          8.6194188,
          46.9492474
        ],
        [
          8.6185676,
          46.9488981
        ],
        [
          8.6188604,
          46.9481564
        ],
        [
          8.6205881,
          46.9470911
        ],
        [
          8.6198518,
          46.9459956
        ],
        [
          8.6200136,
          46.944694
        ],
        [
          8.6191094,
          46.9444038
        ],
        [
          8.6195522,
          46.9439703
        ],
        [
          8.6183846,
          46.9425761
        ],
        [
          8.6155184,
          46.9406531
        ],
        [
          8.6161269,
          46.9398228
        ],
        [
          8.6158274,
          46.9388373
        ],
        [
          8.6138916,
          46.9369486
        ],
        [
          8.6129833,
          46.9352477
        ],
        [
          8.6125405,
          46.9334712
        ],
        [
          8.6116699,
          46.932611
        ],
        [
          8.6116307,
          46.9304078
        ],
        [
          8.6106646,
          46.9291321
        ],
        [
          8.6120853,
          46.9278538
        ],
        [
          8.6114675,
          46.9260417
        ],
        [
          8.6126951,
          46.9258656
        ],
        [
          8.6162771,
          46.9228666
        ],
        [
          8.6207225,
          46.9213396
        ],
        [
          8.6224177,
          46.9182269
        ],
        [
          8.6235998,
          46.9171261
        ],
        [
          8.6220698,
          46.9160889
        ],
        [
          8.6221031,
          46.9154229
        ],
        [
          8.6212312,
          46.9142196
        ],
        [
          8.621152,
          46.9118376
        ],
        [
          8.6216457,
          46.9097946
        ],
        [
          8.6246619,
          46.9075114
        ]
      ]
    ]
  }
}
