{
  "type": "Feature",
  "properties": {
    "lake": "bodensee",
    "osm_relation": 1156846,
    "simplify": 0.0003
  },
  "geometry": {
    "type": "Polygon",
    "coordinates": [
      [
        [
          9.0381122,
          47.7234143
        ],
        [
          9.0459793,
          47.7223145
        ],
        [
          9.0503059,
          47.7200415
        ],
        [
          9.0636345,
          47.7157038
        ],
        [
          9.0641919,
          47.7154631
        ],
        [
          9.0640529,
          47.7151291
        ],
        [
          9.0643849,
          47.715632
        ],
        [
          9.0648995,
          47.715516
        ],
        [
          9.0673448,
          47.7144169
        ],
        [
          9.0683416,
          47.7125217
        ],
        [
          9.0740969,
          47.7117297
        ],
        [
          9.0759188,
          47.7106603
        ],
        [
          9.0817829,
          47.7086054
        ],
        [
          9.0918713,
          47.7070511
        ],
        [
          9.0937041,
          47.7062157
        ],
        [
          9.0938017,
          47.7055731
        ],
        [
          9.0945634,
          47.7052204
        ],
        [
          9.0943126,
          47.7048125
        ],
        [
          9.0960307,
          47.7037134
        ],
        [
          9.0994273,
          47.703182
        ],
        [
          9.102245,
          47.7009586
        ],
        [
          9.1017116,
          47.7004997
        ],
        [
          9.1023243,
          47.6994476
        ],
        [
          9.1032268,
          47.6993661
        ],
        [
          9.1040099,
          47.6974353
        ],
        [
          9.1051097,
          47.696846
        ],
        [
          9.104695,
          47.6964483
        ],
        [
          9.1054572,
          47.6962627
        ],
        [
          9.1049029,
          47.6959963
        ],
        [
          9.1065799,
          47.6950996
        ],
        [
          9.1061425,
          47.6946347
        ],
        [
          9.1064859,
          47.6945047
        ],
        [
          9.1063571,
          47.6929449
        ],
        [
          9.1070867,
          47.6929305
        ],
        [
          9.1092539,
          47.6900201
        ],
        [
          9.1083741,
          47.6903595
        ],
        [
          9.1089964,
          47.6900056
        ],
        [
          9.1084922,
          47.689659
        ],
        [
          9.1066575,
          47.6910311
        ],
        [
          9.1046834,
          47.6903017
        ],
        [
          9.1071277,
          47.6879316
        ],
        [
          9.1078469,
          47.6878547
        ],
        [
          9.1057601,
          47.6873731
        ],
        [
          9.1074193,
          47.687146
        ],
        [
          9.1029497,
          47.6869005
        ],
        [
          9.1033282,
          47.6874334
        ],
        [
          9.1045467,
          47.6874571
        ],
        [
          9.1045774,
          47.6891384
        ],
        [
          9.1038023,
          47.6895797
        ],
        [
          9.1028504,
          47.6882045
        ],
        [
          9.1006546,
          47.6870907
        ],
        [
          9.0978887,
          47.6875718
        ],
        [
          9.0936164,
          47.6893115
        ],
        [
          9.0916931,
          47.6887686
        ],
        [
          9.0913204,
          47.6874582
        ],
        [
          9.0917037,
          47.6866544
        ],
        [
          9.0944306,
          47.6870478
        ],
        [
          9.0973719,
          47.68593
        ],
        [
          9.0993861,
          47.6862273
        ],
        [
          9.1006704,
          47.6859047
        ],
        [
          9.1098029,
          47.6868689
        ],
        [
          9.1099244,
          47.6865217
        ],
        [
          9.106797,
          47.6860843
        ],
        [
          9.106561,
          47.6855354
        ],
        [
          9.1087497,
          47.6852537
        ],
        [
          9.1114099,
          47.6858098
        ],
        [
          9.1113562,
          47.6854415
        ],
        [
          9.1123647,
          47.6854198
        ],
        [
          9.113502,
          47.6843797
        ],
        [
          9.1142959,
          47.6844303
        ],
        [
          9.1152078,
          47.6817939
        ],
        [
          9.1171069,
          47.6806165
        ],
        [
          9.1179706,
          47.6787926
        ],
        [
          9.1213233,
          47.6766002
        ],
        [
          9.1235221,
          47.6762346
        ],
        [
          9.1242879,
          47.6748307
        ],
        [
          9.1258662,
          47.673906
        ],
        [
          9.1253266,
          47.6736011
        ],
        [
          9.1258181,
          47.6726108
        ],
        [
          9.1254595,
          47.6727176
        ],
        [
          9.1268681,
          47.6713639
        ],
        [
          9.1268011,
          47.6689214
        ],
        [
          9.1273466,
          47.6680365
        ],
        [
          9.1288939,
          47.6672654
        ],
        [
          9.1336328,
          47.6667499
        ],
        [
          9.1351627,
          47.665843
        ],
        [
          9.1386987,
          47.6648319
        ],
        [
          9.1400148,
          47.6649045
        ],
        [
          9.1428092,
          47.6656969
        ],
        [
          9.1485958,
          47.6690443
        ],
        [
          9.1532083,
          47.6698213
        ],
        [
          9.1550393,
          47.6695253
        ],
        [
          9.1574742,
          47.6698368
        ],
        [
          9.1606983,
          47.671678
        ],
        [
          9.1615782,
          47.671723
        ],
        [
          9.1716547,
          47.6701014
        ],
        [
          9.1801035,
          47.6664655
        ],
        [
          9.1911706,
          47.6666691
        ],
        [
          9.1934349,
          47.6657155
        ],
        [
          9.1959535,
          47.6656837
        ],
        [
          9.1987403,
          47.6647057
        ],
        [
          9.200917,
          47.6647862
        ],
        [
          9.2065296,
          47.6629607
        ],
        [
          9.2133082,
          47.6654655
        ],
        [
          9.2181239,
          47.6660002
        ],
        [
          9.2163318,
          47.6686137
        ],
        [
          9.2143665,
          47.6700606
        ],
        [
          9.2103263,
          47.6761917
        ],
        [
          9.2108225,
          47.6796633
        ],
        [
          9.2120361,
          47.6805408
        ],
        [
          9.2132867,
          47.6804078
        ],
        [
          9.2131774,
          47.6814662
        ],
        [
          9.2136412,
          47.6815249
        ],
        [
          9.2130836,
          47.681505
        ],
        [
          9.2128766,
          47.6822658
        ],
        [
          9.2133326,
          47.6826357
        ],
        [
          9.211471,
          47.6821599
        ],
        [
          9.210881,
          47.6829327
        ],
        [
          9.2114087,
          47.6831436
        ],
        [
          9.2093538,
          47.6839719
        ],
        [
          9.2073999,
          47.6872186
        ],
        [
          9.2020766,
          47.6915101
        ],
        [
          9.1956134,
          47.6947637
        ],
        [
          9.1875075,
          47.6976404
        ],
        [
          9.1868136,
          47.6985483
        ],
        [
          9.1861247,
          47.701275
        ],
        [
          9.1865654,
          47.7028161
        ],
        [
          9.1854574,
          47.7025134
        ],
        [
          9.1827301,
          47.7030528
        ],
        [
          9.1810924,
          47.7037327
        ],
        [
          9.1794596,
          47.7054645
        ],
        [
          9.1792926,
          47.7071383
        ],
        [
          9.1803264,
          47.7083752
        ],
        [
          9.1798125,
          47.7084512
        ],
        [
          9.1794175,
          47.7093971
        ],
        [
          9.1812205,
          47.7117208
        ],
        [
          9.1811967,
          47.7122733
        ],
        [
          9.1799252,
          47.7171488
        ],
        [
          9.1788718,
          47.7186045
        ],
        [
          9.1779747,
          47.7212497
        ],
        [
          9.1782526,
          47.7220346
        ],
        [
          9.1777607,
          47.7232675
        ],
        [
          9.1777896,
          47.7258612
        ],
        [
          9.1765968,
          47.7269901
        ],
        [
          9.1741751,
          47.7315946
        ],
        [
          9.175011,
          47.7326404
        ],
        [
          9.1735344,
          47.7345136
        ],
        [
          9.1704046,
          47.7357911
        ],
        [
          9.1687448,
          47.7358561
        ],
        [
          9.1648812,
          47.7370393
        ],
        [
          9.1596181,
          47.7396326
        ],
        [
          9.1519571,
          47.744839
        ],
        [
          9.1491459,
          47.7485603
        ],
        [
          9.1465325,
          47.7485771
        ],
        [
          9.1455997,
          47.7478803
        ],
        [
          9.135846,
          47.7470724
        ],
        [
          9.1334726,
          47.7487244
        ],
        [
          9.125806,
          47.7523383
        ],
        [
          9.1207333,
          47.7567456
        ],
        [
          9.1163669,
          47.7593353
        ],
        [
          9.1134503,
          47.7601901
        ],
        [
          9.1103777,
          47.7619479
        ],
        [
          9.1038356,
          47.7631158
        ],
        [
          9.101051,
          47.7645916
        ],
        [
          9.0919558,
          47.7666449
        ],
        [
          9.0796839,
          47.7723317
        ],
        [
          9.0666637,
          47.7796271
        ],
        [
          9.0637561,
          47.7827975
        ],
        [
          9.0623962,
          47.7829974
        ],
        [
          9.0610611,
          47.7838792
        ],
        [
          9.0566686,
          47.7887634
        ],
        [
          9.0500881,
          47.7920311
        ],
        [
          9.0491107,
          47.7930244
        ],
        [
          9.0477973,
          47.7962404
        ],
        [
          9.0446565,
          47.796851
        ],
        [
          9.039637,
          47.8006413
        ],
        [
          9.0384886,
          47.8012225
        ],
        [
          9.0379538,
          47.8008838
        ],
        [
          9.0355787,
          47.8013883
        ],
        [
          9.0324182,
          47.8032363
        ],
        [
          9.0309229,
          47.8046625
        ],
        [
          9.0307915,
          47.8071598
        ],
        [
          9.0327513,
          47.8083304
        ],
        [
          9.0344031,
          47.8078171
        ],
        [
          9.0336787,
          47.8087618
        ],
        [
          9.0347741,
          47.8082305
        ],
        [
          9.033872,
          47.8090195
        ],
        [
          9.0335138,
          47.8105423
        ],
        [
          9.0348104,
          47.8124492
        ],
        [
          9.0368206,
          47.8135649
        ],
        [
          9.0391696,
          47.8133526
        ],
        [
          9.0396055,
          47.8149214
        ],
        [
          9.0386129,
          47.8156989
        ],
        [
          9.0383447,
          47.8169069
        ],
        [
          9.0394062,
          47.8175234
        ],
        [
          9.0441969,
          47.8164156
        ],
        [
          9.0447864,
          47.8170867
        ],
        [
          9.0457258,
          47.816674
        ],
        [
          9.0445313,
          47.8165346
        ],
        [
          9.0450435,
          47.8162454
        ],
        [
          9.0463939,
          47.8164163
        ],
        [
          9.0517727,
          47.8155838
        ],
        [
          9.0550018,
          47.8140521
        ],
        [
          9.059014,
          47.8150363
        ],
        [
          9.0615253,
          47.8150323
        ],
        [
          9.0651316,
          47.813279
        ],
        [
          9.0687001,
          47.8089375
        ],
        [
          9.0708458,
          47.8070878
        ],
        [
          9.0750483,
          47.8057599
        ],
        [
          9.0763371,
          47.8045131
        ],
        [
          9.0839011,
          47.8005265
        ],
        [
          9.0850354,
          47.7991086
        ],
        [
          9.0870764,
          47.7977933
        ],
        [
          9.0921235,
          47.7966331
        ],
        [
          9.0963284,
          47.794683
        ],
        [
          9.0999012,
          47.7946759
        ],
        [
          9.1054351,
          47.7929885
        ],
        [
          9.1095316,
          47.7911117
        ],
        [
          9.1112574,
          47.7890059
        ],
        [
          9.1175295,
          47.7864802
        ],
        [
          9.1197032,
          47.7844855
        ],
        [
          9.1244966,
          47.7827077
        ],
        [
          9.1280071,
          47.779904
        ],
        [
          9.1290767,
          47.7782902
        ],
        [
          9.128637,
          47.7780111
        ],
        [
          9.1294351,
          47.7778296
        ],
        [
          9.1337666,
          47.772308
        ],
        [
          9.1381868,
          47.7702301
        ],
        [
          9.1452348,
          47.7686029
        ],
        [
          9.1455402,
          47.7681291
        ],
        [
          9.1458714,
          47.7686666
        ],
        [
          9.1505828,
          47.7682865
        ],
        [
          9.1564069,
          47.7669058
        ],
        [
          9.1739745,
          47.7593991
        ],
        [
          9.1799765,
          47.7571677
        ],
        [
          9.1830508,
          47.7566753
        ],
        [
          9.1883029,
          47.753288
        ],
        [
          9.191456,
          47.7521164
        ],
        [
          9.1927825,
          47.7507847
        ],
        [
          9.1972146,
          47.7506059
        ],
        [
          9.1990927,
          47.7495924
        ],
        [
          9.2077594,
          47.7479724
        ],
        [
          9.2175612,
          47.7444459
        ],
        [
          9.2222755,
          47.7411631
        ],
        [
          9.2251562,
          47.7403753
        ],
        [
          9.227002,
          47.7370557
        ],
        [
          9.2270901,
          47.7356939
        ],
        [
          9.2266174,
          47.7341326
        ],
        [
          9.2260795,
          47.7338606
        ],
        [
          9.2265206,
          47.733854
        ],
        [
          9.2262686,
          47.7331289
        ],
        [
          9.2253431,
          47.7330775
        ],
        [
          9.22628,
          47.7330363
        ],
        [
          9.2260961,
          47.7324739
        ],
        [
          9.2271024,
          47.7304455
        ],
        [
          9.2266905,
          47.7302105
        ],
        [
          9.2268346,
          47.7275734
        ],
        [
          9.2287054,
          47.7261947
        ],
        [
          9.2278167,
          47.7253281
        ],
        [
          9.2276604,
          47.7240029
        ],
        [
          9.2266668,
          47.723779
        ],
        [
          9.2264912,
          47.7232954
        ],
        [
          9.226895,
          47.7229117
        ],
        [
          9.2286753,
          47.7235812
        ],
        [
          9.2295111,
          47.723278
        ],
        [
          9.2294103,
          47.7225859
        ],
        [
          9.2273757,
          47.7221261
        ],
        [
          9.2292196,
          47.7222122
        ],
        [
          9.230607,
          47.7198041
        ],
        [
          9.2310209,
          47.7198225
        ],
        [
          9.2341583,
          47.7162998
        ],
        [
          9.2355304,
          47.7158025
        ],
        [
          9.2384665,
          47.7112744
        ],
        [
          9.2564636,
          47.6993313
        ],
        [
          9.2633799,
          47.696297
        ],
        [
          9.2650035,
          47.6950055
        ],
        [
          9.2645529,
          47.6946449
        ],
        [
          9.263615,
          47.6950985
        ],
        [
          9.26552,
          47.6939718
        ],
        [
          9.2687865,
          47.6935226
        ],
        [
          9.2722716,
          47.6914155
        ],
        [
          9.2750066,
          47.6915265
        ],
        [
          9.2758901,
          47.690458
        ],
        [
          9.2779928,
          47.6897742
        ],
        [
          9.2824683,
          47.6869157
        ],
        [
          9.2853967,
          47.6859033
        ],
        [
          9.2878125,
          47.6844034
        ],
        [
          9.2896478,
          47.6823775
        ],
        [
          9.2902189,
          47.6826459
        ],
        [
          9.2963742,
          47.6805704
        ],
        [
          9.3028981,
          47.6779339
        ],
        [
          9.30347,
          47.6772385
        ],
        [
          9.3064212,
          47.6766194
        ],
        [
          9.3113593,
          47.6738445
        ],
        [
          9.3137623,
          47.673562
        ],
        [
          9.3141384,
          47.6730064
        ],
        [
          9.3148427,
          47.6729392
        ],
        [
          9.3149029,
          47.6739286
        ],
        [
          9.3152345,
          47.6739144
        ],
        [
          9.3167085,
          47.6731859
        ],
        [
          9.3237046,
          47.6724599
        ],
        [
          9.3279176,
          47.6705134
        ],
        [
          9.3325991,
          47.6666687
        ],
        [
          9.3367697,
          47.6664758
        ],
        [
          9.3491502,
          47.6609604
        ],
        [
          9.3532723,
          47.6604877
        ],
        [
          9.353594,
          47.6606367
        ],
        [
          9.3530768,
          47.6608588
        ],
        [
          9.3546291,
          47.6607879
        ],
        [
          9.3568867,
          47.660117
        ],
        [
          9.3587117,
          47.6615253
        ],
        [
          9.3617114,
          47.6618078
        ],
        [
          9.3653295,
          47.6634493
        ],
        [
          9.36627,
          47.6633334
        ],
        [
          9.3669087,
          47.6621939
        ],
        [
          9.3675237,
          47.6621201
        ],
        [
          9.3674778,
          47.6626823
        ],
        [
          9.3687119,
          47.6631966
        ],
        [
          9.3677315,
          47.6641435
        ],
        [
          9.3701012,
          47.6652544
        ],
        [
          9.3712708,
          47.6646979
        ],
        [
          9.3725807,
          47.6655082
        ],
        [
          9.3747008,
          47.6656957
        ],
        [
          9.3767193,
          47.6644755
        ],
        [
          9.378128,
          47.6642339
        ],
        [
          9.3793559,
          47.6649904
        ],
        [
          9.3807837,
          47.6649444
        ],
        [
          9.3825729,
          47.6657276
        ],
        [
          9.3867403,
          47.6653391
        ],
        [
          9.3872545,
          47.6645371
        ],
        [
          9.3883229,
          47.6667077
        ],
        [
          9.3923913,
          47.6675758
        ],
        [
          9.3926915,
          47.6681684
        ],
        [
          9.3942052,
          47.6674865
        ],
        [
          9.3989194,
          47.6685415
        ],
        [
          9.4013457,
          47.6678721
        ],
        [
          9.4043432,
          47.6684289
        ],
        [
          9.4071603,
          47.6683153
        ],
        [
          9.4087219,
          47.6674965
        ],
        [
          9.4088425,
          47.6670068
        ],
        [
          9.4097229,
          47.6671482
        ],
        [
          9.4096871,
          47.6667376
        ],
        [
          9.4142618,
          47.6673152
        ],
        [
          9.4208729,
          47.6656982
        ],
        [
          9.4257354,
          47.662236
        ],
        [
          9.4282777,
          47.6613082
        ],
        [
          9.4332412,
          47.6575305
        ],
        [
          9.4354472,
          47.6565779
        ],
        [
          9.4371766,
          47.6563021
        ],
        [
          9.4432288,
          47.6571144
        ],
        [
          9.4522929,
          47.6549692
        ],
        [
          9.4555087,
          47.6534504
        ],
        [
          9.4565001,
          47.6517101
        ],
        [
          9.4605764,
          47.6513882
        ],
        [
          9.4627599,
          47.6483595
        ],
        [
          9.4651306,
          47.6482398
        ],
        [
          9.4667323,
          47.6496088
        ],
        [
          9.4706364,
          47.6504587
        ],
        [
          9.472667,
          47.6503487
        ],
        [
          9.4708288,
          47.6504156
        ],
        [
          9.4703591,
          47.6510333
        ],
        [
          9.4717392,
          47.6513359
        ],
        [
          9.4738575,
          47.6511706
        ],
        [
          9.4736901,
          47.6507393
        ],
        [
          9.4722055,
          47.6505957
        ],
        [
          9.4755361,
          47.6509049
        ],
        [
          9.4784751,
          47.6490598
        ],
        [
          9.477076,
          47.6499272
        ],
        [
          9.4773908,
          47.6502078
        ],
        [
          9.4789067,
          47.6490888
        ],
        [
          9.4813731,
          47.6492566
        ],
        [
          9.4820607,
          47.6485815
        ],
        [
          9.4812543,
          47.6494242
        ],
        [
          9.4830096,
          47.6503491
        ],
        [
          9.4837414,
          47.6500137
        ],
        [
          9.4832283,
          47.6504686
        ],
        [
          9.485949,
          47.6519146
        ],
        [
          9.4870001,
          47.6510155
        ],
        [
          9.4827226,
          47.6486289
        ],
        [
          9.4878155,
          47.6511434
        ],
        [
          9.4910459,
          47.6505507
        ],
        [
          9.4918364,
          47.6509841
        ],
        [
          9.4940067,
          47.6501238
        ],
        [
          9.4948699,
          47.6492407
        ],
        [
          9.4953383,
          47.6497775
        ],
        [
          9.4958312,
          47.6487655
        ],
        [
          9.4968702,
          47.648225
        ],
        [
          9.496737,
          47.6478717
        ],
        [
          9.5002487,
          47.6468409
        ],
        [
          9.5030419,
          47.6447104
        ],
        [
          9.5047667,
          47.642076
        ],
        [
          9.5080943,
          47.6395772
        ],
        [
          9.5091086,
          47.6379683
        ],
        [
          9.5114887,
          47.636727
        ],
        [
          9.5124355,
          47.6353426
        ],
        [
          9.5150192,
          47.6348164
        ],
        [
          9.5156974,
          47.633917
        ],
        [
          9.5168638,
          47.6312451
        ],
        [
          9.5164846,
          47.6300741
        ],
        [
          9.5184892,
          47.6237089
        ],
        [
          9.517735,
          47.6223148
        ],
        [
          9.5180423,
          47.6214483
        ],
        [
          9.5201572,
          47.6202848
        ],
        [
          9.5215285,
          47.6179046
        ],
        [
          9.5234693,
          47.6161575
        ],
        [
          9.5263099,
          47.615809
        ],
        [
          9.5267062,
          47.615407
        ],
        [
          9.5263845,
          47.6131236
        ],
        [
          9.5279025,
          47.6095681
        ],
        [
          9.5277611,
          47.6068055
        ],
        [
          9.5297796,
          47.6030243
        ],
        [
          9.5331558,
          47.6016815
        ],
        [
          9.5341011,
          47.6002205
        ],
        [
          9.5365739,
          47.5980749
        ],
        [
          9.5358847,
          47.5970929
        ],
        [
          9.5364153,
          47.5967496
        ],
        [
          9.5374808,
          47.5972527
        ],
        [
          9.5389364,
          47.5965188
        ],
        [
          9.5391873,
          47.5942936
        ],
        [
          9.5402075,
          47.5952025
        ],
        [
          9.5427275,
          47.594793
        ],
        [
          9.5442893,
          47.5929354
        ],
        [
          9.5456619,
          47.5924832
        ],
        [
          9.5505347,
          47.587801
        ],
        [
          9.5522305,
          47.5872991
        ],
        [
          9.5540508,
          47.587556
        ],
        [
          9.5542674,
          47.5870612
        ],
        [
          9.5551573,
          47.5877792
        ],
        [
          9.5558332,
          47.5874023
        ],
        [
          9.5555172,
          47.5868398
        ],
        [
          9.5559637,
          47.5862091
        ],
        [
          9.5605812,
          47.5847695
        ],
        [
          9.5609887,
          47.5851964
        ],
        [
          9.5620028,
          47.5848722
        ],
        [
          9.5645624,
          47.5851212
        ],
        [
          9.5726038,
          47.5841379
        ],
        [
          9.5776776,
          47.586158
        ],
        [
          9.5830168,
          47.585863
        ],
        [
          9.5871228,
          47.5868795
        ],
        [
          9.5913647,
          47.5869296
        ],
        [
          9.5913852,
          47.5877911
        ],
        [
          9.5944353,
          47.5880003
        ],
        [
          9.5937072,
          47.5882797
        ],
        [
          9.5947935,
          47.5885412
        ],
        [
          9.5962847,
          47.588272
        ],
        [
          9.6004696,
          47.5861499
        ],
        [
          9.6023869,
          47.5840984
        ],
        [
          9.6044995,
          47.5806453
        ],
        [
          9.6043503,
          47.5796932
        ],
        [
          9.6074304,
          47.5761311
        ],
        [
          9.606866,
          47.5759931
        ],
        [
          9.6068086,
          47.5746416
        ],
        [
          9.6064497,
          47.5745635
        ],
        [
          9.6067267,
          47.5735367
        ],
        [
          9.6091868,
          47.5718819
        ],
        [
          9.61433,
          47.5697368
        ],
        [
          9.6185501,
          47.5687573
        ],
        [
          9.6192959,
          47.569002
        ],
        [
          9.6200942,
          47.5704679
        ],
        [
          9.6275258,
          47.5710223
        ],
        [
          9.630808,
          47.5694268
        ],
        [
          9.6309005,
          47.5688046
        ],
        [
          9.6301249,
          47.5680398
        ],
        [
          9.6284499,
          47.5671599
        ],
        [
          9.6292703,
          47.5662122
        ],
        [
          9.6305058,
          47.5662382
        ],
        [
          9.6305355,
          47.5670855
        ],
        [
          9.6311183,
          47.5673631
        ],
        [
          9.6375224,
          47.5662067
        ],
        [
          9.6384933,
          47.5668732
        ],
        [
          9.6393328,
          47.5667525
        ],
        [
          9.639214,
          47.5662326
        ],
        [
          9.6411166,
          47.5657758
        ],
        [
          9.6427873,
          47.5643666
        ],
        [
          9.6431336,
          47.56246
        ],
        [
          9.6440429,
          47.5617117
        ],
        [
          9.6439125,
          47.5612857
        ],
        [
          9.6535794,
          47.5566849
        ],
        [
          9.6533671,
          47.5570576
        ],
        [
          9.655395,
          47.5570398
        ],
        [
          9.6591484,
          47.5562674
        ],
        [
          9.6597119,
          47.556839
        ],
        [
          9.6622217,
          47.5568171
        ],
        [
          9.6642606,
          47.5575201
        ],
        [
          9.6654274,
          47.557194
        ],
        [
          9.6649865,
          47.5575426
        ],
        [
          9.6673808,
          47.5577972
        ],
        [
          9.670461,
          47.5574587
        ],
        [
          9.671581,
          47.5579313
        ],
        [
          9.6755127,
          47.5567872
        ],
        [
          9.6774308,
          47.5574172
        ],
        [
          9.6794136,
          47.5568464
        ],
        [
          9.6802006,
          47.5547481
        ],
        [
          9.6824934,
          47.5525466
        ],
        [
          9.6804247,
          47.5480432
        ],
        [
          9.6784153,
          47.5479573
        ],
        [
          9.6753057,
          47.5457667
        ],
        [
          9.6808766,
          47.5422007
        ],
        [
          9.6883683,
          47.5439647
        ],
        [
          9.6868006,
          47.5436907
        ],
        [
          9.6867108,
          47.5441185
        ],
        [
          9.6884,
          47.544626
        ],
        [
          9.6862961,
          47.5442992
        ],
        [
          9.6861793,
          47.5448905
        ],
        [
          9.6888189,
          47.5455512
        ],
        [
          9.6915045,
          47.5481551
        ],
        [
          9.6894656,
          47.5492371
        ],
        [
          9.6812614,
          47.5486216
        ],
        [
          9.6828604,
          47.5520452
        ],
        [
          9.6859584,
          47.5515289
        ],
        [
          9.6881611,
          47.5517445
        ],
        [
          9.6927511,
          47.5497368
        ],
        [
          9.6955675,
          47.5498828
        ],
        [
          9.6955014,
          47.5502806
        ],
        [
          9.7011048,
          47.5511363
        ],
        [
          9.7022079,
          47.5507062
        ],
        [
          9.70195,
          47.5499479
        ],
        [
          9.7041708,
          47.5494033
        ],
        [
          9.7044448,
          47.5488493
        ],
        [
          9.7045505,
          47.5499405
        ],
        [
          9.7053975,
          47.5501979
        ],
        [
          9.7127271,
          47.5504826
        ],
        [
          9.7162654,
          47.5480088
        ],
        [
          9.7201396,
          47.5466811
        ],
        [
          9.7226424,
          47.5443539
        ],
        [
          9.7229605,
          47.5445826
        ],
        [
          9.7226766,
          47.5442044
        ],
        [
          9.7235862,
          47.5434934
        ],
        [
          9.7231758,
          47.543238
        ],
        [
          9.72689,
          47.5390888
        ],
        [
          9.7277261,
          47.5370106
        ],
        [
          9.7292834,
          47.5358477
        ],
        [
          9.7283333,
          47.5346027
        ],
        [
          9.7310583,
          47.5348875
        ],
        [
          9.731679,
          47.5342875
        ],
        [
          9.7284992,
          47.533998
        ],
        [
          9.7274216,
          47.5346375
        ],
        [
          9.7280068,
          47.5335769
        ],
        [
          9.728994,
          47.53387
        ],
        [
          9.7285189,
          47.532775
        ],
        [
          9.728089,
          47.533165
        ],
        [
          9.7280506,
          47.5328533
        ],
        [
          9.7288923,
          47.5324018
        ],
        [
          9.7288699,
          47.5333928
        ],
        [
          9.7300245,
          47.5336471
        ],
        [
          9.7301912,
          47.5331846
        ],
        [
          9.7310792,
          47.5331968
        ],
        [
          9.7342636,
          47.5311344
        ],
        [
          9.7345112,
          47.5318061
        ],
        [
          9.736642,
          47.5317299
        ],
        [
          9.7376763,
          47.5308882
        ],
        [
          9.7374759,
          47.5298352
        ],
        [
          9.7400916,
          47.5288738
        ],
        [
          9.739705,
          47.5289131
        ],
        [
          9.7397199,
          47.5298733
        ],
        [
          9.7406062,
          47.5300016
        ],
        [
          9.7402796,
          47.5290341
        ],
        [
          9.7414508,
          47.5282249
        ],
        [
          9.7418175,
          47.5282646
        ],
        [
          9.7412861,
          47.5291413
        ],
        [
          9.7417325,
          47.5296337
        ],
        [
          9.7428376,
          47.5287068
        ],
        [
          9.7419761,
          47.5284392
        ],
        [
          9.7430262,
          47.5269644
        ],
        [
          9.7468488,
          47.5249975
        ],
        [
          9.7497315,
          47.5227026
        ],
        [
          9.7511548,
          47.5211813
        ],
        [
          9.7531391,
          47.5177518
        ],
        [
          9.753816,
          47.5158685
        ],
        [
          9.753702,
          47.5147117
        ],
        [
          9.7529122,
          47.512301
        ],
        [
          9.7505793,
          47.5084609
        ],
        [
          9.7493872,
          47.5077959
        ],
        [
          9.7485585,
          47.5081569
        ],
        [
          9.7465134,
          47.5078827
        ],
        [
          9.746341,
          47.5084704
        ],
        [
          9.7457813,
          47.5056401
        ],
        [
          9.7418864,
          47.5044157
        ],
        [
          9.7414635,
          47.5050893
        ],
        [
          9.7388551,
          47.5050246
        ],
        [
          9.733191,
          47.5060172
        ],
        [
          9.7328986,
          47.5067939
        ],
        [
          9.7279676,
          47.5074918
        ],
        [
          9.7245677,
          47.5066842
        ],
        [
          9.7218288,
          47.5070822
        ],
        [
          9.7207875,
          47.5068099
        ],
        [
          9.7209169,
          47.5065164
        ],
        [
          9.7190367,
          47.5064208
        ],
        [
          9.7183485,
          47.5065617
        ],
        [
          9.7177528,
          47.5074271
        ],
        [
          9.7164309,
          47.507252
        ],
        [
          9.7158616,
          47.506361
        ],
        [
          9.7152715,
          47.5062786
        ],
        [
          9.7149825,
          47.5067393
        ],
        [
          9.7126096,
          47.506691
        ],
        [
          9.7108221,
          47.5074021
        ],
        [
          9.7086646,
          47.5072556
        ],
        [
          9.7076445,
          47.5082956
        ],
        [
          9.7068812,
          47.5062485
        ],
        [
          9.705793,
          47.5064627
        ],
        [
          9.7060154,
          47.5070858
        ],
        [
          9.7068998,
          47.5072728
        ],
        [
          9.7064233,
          47.5078844
        ],
        [
          9.7026525,
          47.5058251
        ],
        [
          9.7000427,
          47.50576
        ],
        [
          9.699491,
          47.5063086
        ],
        [
          9.6993402,
          47.5065828
        ],
        [
          9.7010377,
          47.5076093
        ],
        [
          9.6991102,
          47.5068561
        ],
        [
          9.6978077,
          47.5054851
        ],
        [
          9.6971728,
          47.5057773
        ],
        [
          9.6961539,
          47.5053542
        ],
        [
          9.6951689,
          47.5069758
        ],
        [
          9.694051,
          47.5057895
        ],
        [
          9.6918878,
          47.5065661
        ],
        [
          9.6908062,
          47.5061655
        ],
        [
          9.6895095,
          47.5047599
        ],
        [
          9.6848875,
          47.5041401
        ],
        [
          9.6877231,
          47.5021664
        ],
        [
          9.6869112,
          47.5014756
        ],
        [
          9.6877376,
          47.501761
        ],
        [
          9.6880378,
          47.5015048
        ],
        [
          9.6876065,
          47.5010174
        ],
        [
          9.6898385,
          47.5002633
        ],
        [
          9.6885811,
          47.4978632
        ],
        [
          9.68939,
          47.497585
        ],
        [
          9.6874996,
          47.4979378
        ],
        [
          9.6874288,
          47.4975582
        ],
        [
          9.6892327,
          47.4972273
        ],
        [
          9.6890792,
          47.4967145
        ],
        [
          9.6878148,
          47.4966787
        ],
        [
          9.6874106,
          47.4972882
        ],
        [
          9.6874106,
          47.4962882
        ],
        [
          9.6886092,
          47.496134
        ],
        [
          9.6882028,
          47.4949658
        ],
        [
          9.6868572,
          47.4953166
        ],
        [
          9.686092,
          47.500671
        ],
        [
          9.6856611,
          47.5006918
        ],
        [
          9.6853387,
          47.499917
        ],
        [
          9.6855072,
          47.4973669
        ],
        [
          9.6849323,
          47.4973479
        ],
        [
          9.6855151,
          47.4973425
        ],
        [
          9.6856393,
          47.4969062
        ],
        [
          9.6850892,
          47.496768
        ],
        [
          9.6856459,
          47.496888
        ],
        [
          9.6866513,
          47.4944024
        ],
        [
          9.6864541,
          47.4931777
        ],
        [
          9.6869467,
          47.4940231
        ],
        [
          9.6880487,
          47.4941119
        ],
        [
          9.6878454,
          47.4927523
        ],
        [
          9.6863762,
          47.4928921
        ],
        [
          9.6852315,
          47.4921849
        ],
        [
          9.681019,
          47.491877
        ],
        [
          9.6794745,
          47.4924816
        ],
        [
          9.6786591,
          47.4935255
        ],
        [
          9.6786983,
          47.497335
        ],
        [
          9.6826521,
          47.4990004
        ],
        [
          9.684585,
          47.500556
        ],
        [
          9.6852623,
          47.501795
        ],
        [
          9.6846521,
          47.5019345
        ],
        [
          9.6843423,
          47.5009329
        ],
        [
          9.6825446,
          47.499457
        ],
        [
          9.6787472,
          47.4979172
        ],
        [
          9.6768065,
          47.4976964
        ],
        [
          9.6748324,
          47.498265
        ],
        [
          9.6742228,
          47.4989639
        ],
        [
          9.6724151,
          47.4988517
        ],
        [
          9.6725588,
          47.5008206
        ],
        [
          9.6721336,
          47.5010106
        ],
        [
          9.6712172,
          47.504867
        ],
        [
          9.6705322,
          47.5056481
        ],
        [
          9.66563,
          47.5100616
        ],
        [
          9.6606969,
          47.5123414
        ],
        [
          9.6607261,
          47.5128258
        ],
        [
          9.6616857,
          47.5125599
        ],
        [
          9.6615384,
          47.5134114
        ],
        [
          9.6588533,
          47.5141917
        ],
        [
          9.6563331,
          47.5166239
        ],
        [
          9.6560654,
          47.5158934
        ],
        [
          9.6552669,
          47.5162036
        ],
        [
          9.6547219,
          47.5177374
        ],
        [
          9.6545942,
          47.5163976
        ],
        [
          9.6516435,
          47.5177203
        ],
        [
          9.6530006,
          47.5181164
        ],
        [
          9.6525677,
          47.5191645
        ],
        [
          9.6513002,
          47.520253
        ],
        [
          9.6516703,
          47.5208036
        ],
        [
          9.6486577,
          47.52223
        ],
        [
          9.6475822,
          47.5242811
        ],
        [
          9.6460256,
          47.5259531
        ],
        [
          9.6432618,
          47.5247581
        ],
        [
          9.6448203,
          47.5227475
        ],
        [
          9.6473859,
          47.5175987
        ],
        [
          9.6487338,
          47.5162203
        ],
        [
          9.647706,
          47.5144318
        ],
        [
          9.6483497,
          47.5141057
        ],
        [
          9.6486319,
          47.5150759
        ],
        [
          9.6496779,
          47.5154766
        ],
        [
          9.6503301,
          47.5148447
        ],
        [
          9.6495795,
          47.5146012
        ],
        [
          9.6498799,
          47.5140052
        ],
        [
          9.6510221,
          47.5143829
        ],
        [
          9.6570763,
          47.5107617
        ],
        [
          9.6573608,
          47.5100742
        ],
        [
          9.6549163,
          47.5082412
        ],
        [
          9.6586945,
          47.5058261
        ],
        [
          9.6666298,
          47.5030175
        ],
        [
          9.6651199,
          47.501063
        ],
        [
          9.6661187,
          47.5008314
        ],
        [
          9.6652225,
          47.5005044
        ],
        [
          9.665724,
          47.4998523
        ],
        [
          9.6655844,
          47.4980463
        ],
        [
          9.6650285,
          47.4976994
        ],
        [
          9.6657713,
          47.496985
        ],
        [
          9.6663757,
          47.4973788
        ],
        [
          9.6661522,
          47.4967644
        ],
        [
          9.6676558,
          47.4966167
        ],
        [
          9.6682721,
          47.496077
        ],
        [
          9.6683123,
          47.4944993
        ],
        [
          9.6679893,
          47.4944535
        ],
        [
          9.6681323,
          47.4951133
        ],
        [
          9.667199,
          47.4951884
        ],
        [
          9.6664522,
          47.4959135
        ],
        [
          9.6647118,
          47.4950319
        ],
        [
          9.6632429,
          47.4952204
        ],
        [
          9.6621265,
          47.4946851
        ],
        [
          9.6635355,
          47.4934497
        ],
        [
          9.664092,
          47.4921778
        ],
        [
          9.6680315,
          47.4916071
        ],
        [
          9.6664422,
          47.491349
        ],
        [
          9.6626367,
          47.4922256
        ],
        [
          9.6619534,
          47.4912121
        ],
        [
          9.6625209,
          47.4920213
        ],
        [
          9.6641736,
          47.4916785
        ],
        [
          9.663645,
          47.4903684
        ],
        [
          9.6664475,
          47.4896457
        ],
        [
          9.6670338,
          47.4892042
        ],
        [
          9.6670778,
          47.488396
        ],
        [
          9.6667691,
          47.4881284
        ],
        [
          9.66663,
          47.4893351
        ],
        [
          9.6664221,
          47.4883018
        ],
        [
          9.6665126,
          47.4894211
        ],
        [
          9.6661665,
          47.489585
        ],
        [
          9.6659988,
          47.4885035
        ],
        [
          9.6660575,
          47.489641
        ],
        [
          9.6657003,
          47.4898014
        ],
        [
          9.6655742,
          47.4887757
        ],
        [
          9.6655314,
          47.489846
        ],
        [
          9.6651837,
          47.4899312
        ],
        [
          9.6652683,
          47.4889556
        ],
        [
          9.6650568,
          47.4899667
        ],
        [
          9.6646776,
          47.4900551
        ],
        [
          9.6647354,
          47.4891346
        ],
        [
          9.6645825,
          47.490047
        ],
        [
          9.6638676,
          47.4902378
        ],
        [
          9.6639584,
          47.488773
        ],
        [
          9.6643937,
          47.4884026
        ],
        [
          9.6639578,
          47.4882203
        ],
        [
          9.6676112,
          47.486407
        ],
        [
          9.6638848,
          47.4875015
        ],
        [
          9.6628733,
          47.4883885
        ],
        [
          9.6628718,
          47.4892772
        ],
        [
          9.6616484,
          47.488563
        ],
        [
          9.6616607,
          47.4893913
        ],
        [
          9.662617,
          47.4897033
        ],
        [
          9.6619391,
          47.4906662
        ],
        [
          9.6599673,
          47.4908806
        ],
        [
          9.659497,
          47.4904571
        ],
        [
          9.659296,
          47.490988
        ],
        [
          9.6591323,
          47.4905699
        ],
        [
          9.6576068,
          47.4911393
        ],
        [
          9.6588454,
          47.491093
        ],
        [
          9.6571525,
          47.4913353
        ],
        [
          9.6546219,
          47.4925149
        ],
        [
          9.6535944,
          47.4924776
        ],
        [
          9.6524488,
          47.4907329
        ],
        [
          9.6514337,
          47.4902351
        ],
        [
          9.6492473,
          47.4903588
        ],
        [
          9.6485295,
          47.4898884
        ],
        [
          9.6511754,
          47.4885607
        ],
        [
          9.650931,
          47.4881462
        ],
        [
          9.6516343,
          47.4874006
        ],
        [
          9.6538786,
          47.4872217
        ],
        [
          9.6542197,
          47.486761
        ],
        [
          9.6525567,
          47.48706
        ],
        [
          9.6534874,
          47.4865864
        ],
        [
          9.653026,
          47.4865149
        ],
        [
          9.6510709,
          47.4875818
        ],
        [
          9.6504003,
          47.4872265
        ],
        [
          9.6469985,
          47.4882562
        ],
        [
          9.6435927,
          47.4916082
        ],
        [
          9.6424131,
          47.4920839
        ],
        [
          9.6427249,
          47.4915534
        ],
        [
          9.6422784,
          47.4913114
        ],
        [
          9.6407441,
          47.4923663
        ],
        [
          9.6414206,
          47.4922098
        ],
        [
          9.6416189,
          47.4927109
        ],
        [
          9.6387896,
          47.4948917
        ],
        [
          9.6381521,
          47.496182
        ],
        [
          9.6379238,
          47.4990987
        ],
        [
          9.6389622,
          47.5003121
        ],
        [
          9.6410308,
          47.5004823
        ],
        [
          9.6416284,
          47.502025
        ],
        [
          9.6409566,
          47.5023261
        ],
        [
          9.6417578,
          47.5021543
        ],
        [
          9.6421119,
          47.5026071
        ],
        [
          9.6453872,
          47.5032411
        ],
        [
          9.6455124,
          47.5044287
        ],
        [
          9.6471585,
          47.5061194
        ],
        [
          9.6445622,
          47.5071121
        ],
        [
          9.6421179,
          47.5065036
        ],
        [
          9.6407892,
          47.5069335
        ],
        [
          9.6398015,
          47.5063583
        ],
        [
          9.6392282,
          47.5049559
        ],
        [
          9.6384313,
          47.5043335
        ],
        [
          9.6360545,
          47.5040586
        ],
        [
          9.6346633,
          47.5030997
        ],
        [
          9.633563,
          47.5029588
        ],
        [
          9.6328758,
          47.5011418
        ],
        [
          9.6308626,
          47.5007322
        ],
        [
          9.6301555,
          47.4997804
        ],
        [
          9.6287975,
          47.4998707
        ],
        [
          9.6275336,
          47.4985242
        ],
        [
          9.6273193,
          47.4967285
        ],
        [
          9.6240093,
          47.494519
        ],
        [
          9.6214722,
          47.4949389
        ],
        [
          9.6198384,
          47.4946914
        ],
        [
          9.6196982,
          47.4943027
        ],
        [
          9.6196928,
          47.4947253
        ],
        [
          9.6157172,
          47.4956299
        ],
        [
          9.6150014,
          47.4945583
        ],
        [
          9.6154516,
          47.4941686
        ],
        [
          9.6152363,
          47.4935602
        ],
        [
          9.6134141,
          47.4921501
        ],
        [
          9.6132386,
          47.4906233
        ],
        [
          9.6128799,
          47.4907613
        ],
        [
          9.6131829,
          47.4921966
        ],
        [
          9.6113604,
          47.491557
        ],
        [
          9.6101911,
          47.4918954
        ],
        [
          9.6100501,
          47.4909851
        ],
        [
          9.6087183,
          47.4906605
        ],
        [
          9.6078758,
          47.4891994
        ],
        [
          9.6093196,
          47.4881056
        ],
        [
          9.6090782,
          47.487899
        ],
        [
          9.6075198,
          47.4890898
        ],
        [
          9.6048081,
          47.4885098
        ],
        [
          9.6028179,
          47.4895157
        ],
        [
          9.6026301,
          47.4884464
        ],
        [
          9.6022063,
          47.4882706
        ],
        [
          9.6010181,
          47.4887672
        ],
        [
          9.6004173,
          47.4884772
        ],
        [
          9.5996207,
          47.4892276
        ],
        [
          9.598293,
          47.487861
        ],
        [
          9.5930868,
          47.4885533
        ],
        [
          9.5927355,
          47.4877431
        ],
        [
          9.5929474,
          47.4884609
        ],
        [
          9.5919791,
          47.4883014
        ],
        [
          9.5926603,
          47.4882035
        ],
        [
          9.5920032,
          47.4878084
        ],
        [
          9.5918718,
          47.4882833
        ],
        [
          9.5896482,
          47.4887799
        ],
        [
          9.5869902,
          47.4882525
        ],
        [
          9.5869574,
          47.4876721
        ],
        [
          9.5868877,
          47.488299
        ],
        [
          9.5861104,
          47.4888633
        ],
        [
          9.5866469,
          47.4901392
        ],
        [
          9.5856812,
          47.4889593
        ],
        [
          9.586129,
          47.4879151
        ],
        [
          9.5856947,
          47.4877921
        ],
        [
          9.5849776,
          47.4885419
        ],
        [
          9.5862794,
          47.4906722
        ],
        [
          9.5847049,
          47.4898564
        ],
        [
          9.5812261,
          47.4911813
        ],
        [
          9.580569,
          47.4918392
        ],
        [
          9.5796356,
          47.4912122
        ],
        [
          9.5805368,
          47.4919824
        ],
        [
          9.5791501,
          47.4920495
        ],
        [
          9.5752944,
          47.4938877
        ],
        [
          9.5726086,
          47.4943408
        ],
        [
          9.5709419,
          47.4953457
        ],
        [
          9.5708982,
          47.4960613
        ],
        [
          9.5686849,
          47.4987001
        ],
        [
          9.568557,
          47.5012943
        ],
        [
          9.5677434,
          47.5016375
        ],
        [
          9.564739,
          47.501024
        ],
        [
          9.5634107,
          47.5000496
        ],
        [
          9.5623652,
          47.5002213
        ],
        [
          9.5624679,
          47.5041672
        ],
        [
          9.561732,
          47.501806
        ],
        [
          9.5618398,
          47.5003401
        ],
        [
          9.5600137,
          47.4991531
        ],
        [
          9.5599663,
          47.5001568
        ],
        [
          9.5612102,
          47.5009271
        ],
        [
          9.5608778,
          47.5016487
        ],
        [
          9.5612828,
          47.5041861
        ],
        [
          9.5609431,
          47.5023824
        ],
        [
          9.5598633,
          47.5019512
        ],
        [
          9.560057,
          47.5010987
        ],
        [
          9.5582539,
          47.5006132
        ],
        [
          9.5593231,
          47.5020271
        ],
        [
          9.5576199,
          47.5006006
        ],
        [
          9.5556564,
          47.5013333
        ],
        [
          9.5550083,
          47.5009566
        ],
        [
          9.5547146,
          47.4997195
        ],
        [
          9.5550721,
          47.4994787
        ],
        [
          9.5537145,
          47.4983153
        ],
        [
          9.555206,
          47.4969906
        ],
        [
          9.5548077,
          47.4967025
        ],
        [
          9.5549416,
          47.4960503
        ],
        [
          9.5526671,
          47.494845
        ],
        [
          9.5527597,
          47.4942646
        ],
        [
          9.5520837,
          47.4940101
        ],
        [
          9.5515603,
          47.4943719
        ],
        [
          9.5498688,
          47.4933347
        ],
        [
          9.5499418,
          47.4924474
        ],
        [
          9.5493515,
          47.4926888
        ],
        [
          9.5479462,
          47.4915179
        ],
        [
          9.5481072,
          47.4911908
        ],
        [
          9.5463523,
          47.4913898
        ],
        [
          9.5469603,
          47.4905689
        ],
        [
          9.5477862,
          47.4908106
        ],
        [
          9.5480541,
          47.4904955
        ],
        [
          9.5475147,
          47.4901859
        ],
        [
          9.5482678,
          47.4899452
        ],
        [
          9.5480253,
          47.4896858
        ],
        [
          9.5461146,
          47.4910958
        ],
        [
          9.5455796,
          47.4910353
        ],
        [
          9.5459731,
          47.4909774
        ],
        [
          9.5451761,
          47.4892833
        ],
        [
          9.5459709,
          47.4895233
        ],
        [
          9.5440879,
          47.4880028
        ],
        [
          9.5445467,
          47.4873856
        ],
        [
          9.5438954,
          47.4858858
        ],
        [
          9.5441828,
          47.485706
        ],
        [
          9.5432125,
          47.4844368
        ],
        [
          9.5425756,
          47.4844579
        ],
        [
          9.5436619,
          47.4856712
        ],
        [
          9.5423208,
          47.484619
        ],
        [
          9.5423811,
          47.48421
        ],
        [
          9.5402367,
          47.4836242
        ],
        [
          9.5402341,
          47.4826339
        ],
        [
          9.5396287,
          47.4823362
        ],
        [
          9.5334854,
          47.4811762
        ],
        [
          9.5326613,
          47.4815219
        ],
        [
          9.5319806,
          47.4828319
        ],
        [
          9.5324648,
          47.4829832
        ],
        [
          9.5313854,
          47.4826721
        ],
        [
          9.5324168,
          47.4812607
        ],
        [
          9.530761,
          47.4803352
        ],
        [
          9.5297215,
          47.4812112
        ],
        [
          9.5273467,
          47.4801259
        ],
        [
          9.5254965,
          47.4807055
        ],
        [
          9.5175945,
          47.4796197
        ],
        [
          9.5173957,
          47.4800859
        ],
        [
          9.5113786,
          47.4793486
        ],
        [
          9.5058069,
          47.4793425
        ],
        [
          9.5019995,
          47.4786436
        ],
        [
          9.5020776,
          47.4783045
        ],
        [
          9.4985491,
          47.4780509
        ],
        [
          9.4944165,
          47.4790581
        ],
        [
          9.4946138,
          47.4794295
        ],
        [
          9.4861968,
          47.479938
        ],
        [
          9.4815616,
          47.4812444
        ],
        [
          9.479303,
          47.4827594
        ],
        [
          9.4784546,
          47.4836409
        ],
        [
          9.4789173,
          47.4838634
        ],
        [
          9.4787416,
          47.4843034
        ],
        [
          9.477035,
          47.4858204
        ],
        [
          9.4769225,
          47.4888149
        ],
        [
          9.4774557,
          47.4896477
        ],
        [
          9.4765943,
          47.4894818
        ],
        [
          9.4768585,
          47.4899593
        ],
        [
          9.4736171,
          47.4909145
        ],
        [
          9.4712792,
          47.492274
        ],
        [
          9.4698038,
          47.4939371
        ],
        [
          9.468869,
          47.494009
        ],
        [
          9.4687413,
          47.4945506
        ],
        [
          9.4693496,
          47.4946419
        ],
        [
          9.4672196,
          47.4952113
        ],
        [
          9.4671133,
          47.4957684
        ],
        [
          9.4652164,
          47.4966614
        ],
        [
          9.4647488,
          47.4965564
        ],
        [
          9.4651799,
          47.4964864
        ],
        [
          9.4647914,
          47.4958895
        ],
        [
          9.4630138,
          47.4962333
        ],
        [
          9.4630798,
          47.4966124
        ],
        [
          9.4646517,
          47.4968176
        ],
        [
          9.4623349,
          47.4970807
        ],
        [
          9.4620455,
          47.496907
        ],
        [
          9.4628857,
          47.4967115
        ],
        [
          9.4625753,
          47.4962834
        ],
        [
          9.4573038,
          47.4981914
        ],
        [
          9.4567343,
          47.4975278
        ],
        [
          9.4566612,
          47.4984507
        ],
        [
          9.4536504,
          47.4993407
        ],
        [
          9.4541867,
          47.4998292
        ],
        [
          9.4531811,
          47.4998049
        ],
        [
          9.4527825,
          47.4991064
        ],
        [
          9.4517736,
          47.4993348
        ],
        [
          9.4510011,
          47.499759
        ],
        [
          9.4513354,
          47.5001066
        ],
        [
          9.4534951,
          47.5001819
        ],
        [
          9.451234,
          47.5005009
        ],
        [
          9.4492227,
          47.5016248
        ],
        [
          9.448713,
          47.5010433
        ],
        [
          9.4481986,
          47.501304
        ],
        [
          9.4474975,
          47.5023458
        ],
        [
          9.4482597,
          47.5025309
        ],
        [
          9.4494103,
          47.5017173
        ],
        [
          9.4494103,
          47.5021025
        ],
        [
          9.4477174,
          47.5029613
        ],
        [
          9.4467489,
          47.5027466
        ],
        [
          9.4474565,
          47.5034583
        ],
        [
          9.4467821,
          47.5038374
        ],
        [
          9.4467776,
          47.5052425
        ],
        [
          9.4458399,
          47.5057578
        ],
        [
          9.443067,
          47.5054396
        ],
        [
          9.4420078,
          47.5048456
        ],
        [
          9.4385275,
          47.5049036
        ],
        [
          9.4370402,
          47.5056388
        ],
        [
          9.4357074,
          47.5066424
        ],
        [
          9.4350262,
          47.5082015
        ],
        [
          9.4347778,
          47.5113261
        ],
        [
          9.4369774,
          47.5129142
        ],
        [
          9.4381003,
          47.5122948
        ],
        [
          9.4389551,
          47.5124456
        ],
        [
          9.4381151,
          47.5123253
        ],
        [
          9.4369322,
          47.5129761
        ],
        [
          9.4378833,
          47.5137397
        ],
        [
          9.4401679,
          47.5124871
        ],
        [
          9.4405147,
          47.5127799
        ],
        [
          9.4386223,
          47.5140047
        ],
        [
          9.4394853,
          47.5148557
        ],
        [
          9.4414645,
          47.5136604
        ],
        [
          9.4408109,
          47.5126074
        ],
        [
          9.441574,
          47.5134091
        ],
        [
          9.4394732,
          47.5149018
        ],
        [
          9.4405295,
          47.5156541
        ],
        [
          9.4377787,
          47.5186192
        ],
        [
          9.4335559,
          47.5208771
        ],
        [
          9.4321676,
          47.5211176
        ],
        [
          9.4298936,
          47.5204788
        ],
        [
          9.4279272,
          47.5207439
        ],
        [
          9.425143,
          47.5218688
        ],
        [
          9.4247822,
          47.5225832
        ],
        [
          9.4221744,
          47.5234678
        ],
        [
          9.4216606,
          47.5243579
        ],
        [
          9.4218077,
          47.5250706
        ],
        [
          9.416311,
          47.5277888
        ],
        [
          9.4168388,
          47.5282724
        ],
        [
          9.4149419,
          47.5289745
        ],
        [
          9.4142601,
          47.5297502
        ],
        [
          9.413213,
          47.5298167
        ],
        [
          9.4123853,
          47.5307777
        ],
        [
          9.409549,
          47.5319581
        ],
        [
          9.4081591,
          47.5333957
        ],
        [
          9.4084256,
          47.5339583
        ],
        [
          9.4068518,
          47.5344849
        ],
        [
          9.406644,
          47.535188
        ],
        [
          9.4056983,
          47.5348506
        ],
        [
          9.4052006,
          47.5355026
        ],
        [
          9.4056536,
          47.5356782
        ],
        [
          9.405333,
          47.5362509
        ],
        [
          9.4034589,
          47.5366877
        ],
        [
          9.403179,
          47.5372417
        ],
        [
          9.4015934,
          47.5372466
        ],
        [
          9.401145,
          47.5378585
        ],
        [
          9.3984225,
          47.5388395
        ],
        [
          9.3905773,
          47.5433198
        ],
        [
          9.3860624,
          47.5474891
        ],
        [
          9.3858509,
          47.5480691
        ],
        [
          9.3868061,
          47.5492151
        ],
        [
          9.386685,
          47.5504367
        ],
        [
          9.3841621,
          47.5490197
        ],
        [
          9.3843704,
          47.5484053
        ],
        [
          9.3838422,
          47.548847
        ],
        [
          9.381638,
          47.5477478
        ],
        [
          9.3824431,
          47.5480872
        ],
        [
          9.3825129,
          47.5486336
        ],
        [
          9.3865846,
          47.5505437
        ],
        [
          9.3855785,
          47.5500445
        ],
        [
          9.3849895,
          47.5503531
        ],
        [
          9.3838498,
          47.5514982
        ],
        [
          9.3820749,
          47.5521356
        ],
        [
          9.3801674,
          47.5543227
        ],
        [
          9.3806807,
          47.5549386
        ],
        [
          9.3806948,
          47.5563322
        ],
        [
          9.3811644,
          47.5563558
        ],
        [
          9.3813828,
          47.5592374
        ],
        [
          9.3820261,
          47.5594608
        ],
        [
          9.3817146,
          47.5598364
        ],
        [
          9.3823504,
          47.560352
        ],
        [
          9.3824959,
          47.5614089
        ],
        [
          9.3835634,
          47.5614351
        ],
        [
          9.3824484,
          47.5614414
        ],
        [
          9.3824293,
          47.562035
        ],
        [
          9.3842327,
          47.5619078
        ],
        [
          9.3824544,
          47.562197
        ],
        [
          9.3823724,
          47.5644784
        ],
        [
          9.3832656,
          47.5644962
        ],
        [
          9.3839725,
          47.5637391
        ],
        [
          9.3841931,
          47.5623694
        ],
        [
          9.3847441,
          47.5618936
        ],
        [
          9.3843579,
          47.5634536
        ],
        [
          9.3830904,
          47.5654525
        ],
        [
          9.3836242,
          47.5662385
        ],
        [
          9.3856354,
          47.567003
        ],
        [
          9.3852525,
          47.5675405
        ],
        [
          9.3852539,
          47.5699686
        ],
        [
          9.3842779,
          47.5706743
        ],
        [
          9.3820526,
          47.5707999
        ],
        [
          9.3817302,
          47.5720494
        ],
        [
          9.3786495,
          47.5727023
        ],
        [
          9.3750785,
          47.5743735
        ],
        [
          9.3709853,
          47.575119
        ],
        [
          9.3697185,
          47.5757227
        ],
        [
          9.3698057,
          47.5760647
        ],
        [
          9.3692647,
          47.5758692
        ],
        [
          9.359027,
          47.5804268
        ],
        [
          9.3484327,
          47.5839496
        ],
        [
          9.3451564,
          47.5859072
        ],
        [
          9.345616,
          47.5870033
        ],
        [
          9.3449606,
          47.5857804
        ],
        [
          9.3436964,
          47.5857896
        ],
        [
          9.3431308,
          47.5862111
        ],
        [
          9.3433848,
          47.5864676
        ],
        [
          9.3422272,
          47.5863579
        ],
        [
          9.3331067,
          47.5904881
        ],
        [
          9.3315987,
          47.5915641
        ],
        [
          9.3265564,
          47.5932721
        ],
        [
          9.3239278,
          47.5947447
        ],
        [
          9.3229032,
          47.5957002
        ],
        [
          9.3230478,
          47.596136
        ],
        [
          9.3223134,
          47.5957825
        ],
        [
          9.3228175,
          47.5962639
        ],
        [
          9.3217707,
          47.5963075
        ],
        [
          9.3207716,
          47.59736
        ],
        [
          9.3193855,
          47.5973862
        ],
        [
          9.3159521,
          47.5998231
        ],
        [
          9.3076693,
          47.6043771
        ],
        [
          9.3076064,
          47.60532
        ],
        [
          9.3065378,
          47.6056972
        ],
        [
          9.3052805,
          47.6075202
        ],
        [
          9.3029163,
          47.6090651
        ],
        [
          9.3017097,
          47.6090908
        ],
        [
          9.2992458,
          47.6109147
        ],
        [
          9.2971369,
          47.6116602
        ],
        [
          9.2965046,
          47.6126116
        ],
        [
          9.2969392,
          47.611874
        ],
        [
          9.2965986,
          47.611493
        ],
        [
          9.2957364,
          47.6118806
        ],
        [
          9.2960995,
          47.6128425
        ],
        [
          9.2951164,
          47.6119774
        ],
        [
          9.294616,
          47.6122888
        ],
        [
          9.295472,
          47.6129876
        ],
        [
          9.2942391,
          47.6124741
        ],
        [
          9.2930226,
          47.6134292
        ],
        [
          9.2890857,
          47.6144517
        ],
        [
          9.285848,
          47.6165218
        ],
        [
          9.2821808,
          47.6171984
        ],
        [
          9.2791944,
          47.6190149
        ],
        [
          9.2707019,
          47.6218497
        ],
        [
          9.267758,
          47.6240135
        ],
        [
          9.2675581,
          47.6237801
        ],
        [
          9.2689262,
          47.6231439
        ],
        [
          9.2683144,
          47.6226656
        ],
        [
          9.2670088,
          47.6230876
        ],
        [
          9.2673205,
          47.6239593
        ],
        [
          9.2665068,
          47.6231076
        ],
        [
          9.2654778,
          47.6237782
        ],
        [
          9.2582736,
          47.6258132
        ],
        [
          9.2556022,
          47.6274157
        ],
        [
          9.2526165,
          47.6281637
        ],
        [
          9.2491242,
          47.6305998
        ],
        [
          9.2443916,
          47.6323264
        ],
        [
          9.2425434,
          47.6323821
        ],
        [
          9.2412557,
          47.6329452
        ],
        [
          9.2376822,
          47.6325559
        ],
        [
          9.2354836,
          47.6329281
        ],
        [
          9.2333873,
          47.6338692
        ],
        [
          9.2330467,
          47.6342867
        ],
        [
          9.2334168,
          47.6349419
        ],
        [
          9.2315902,
          47.6358682
        ],
        [
          9.2298253,
          47.6346645
        ],
        [
          9.2262822,
          47.6353197
        ],
        [
          9.2230783,
          47.6368243
        ],
        [
          9.2224506,
          47.6378653
        ],
        [
          9.2204873,
          47.6380996
        ],
        [
          9.2196906,
          47.6394223
        ],
        [
          9.2154516,
          47.6410253
        ],
        [
          9.2136336,
          47.6425655
        ],
        [
          9.2134733,
          47.6434017
        ],
        [
          9.2117651,
          47.645098
        ],
        [
          9.2097434,
          47.6450374
        ],
        [
          9.2076644,
          47.6440017
        ],
        [
          9.2060982,
          47.6442156
        ],
        [
          9.2044074,
          47.6453629
        ],
        [
          9.199264,
          47.647503
        ],
        [
          9.1968091,
          47.647557
        ],
        [
          9.194989,
          47.6488514
        ],
        [
          9.189388,
          47.6497417
        ],
        [
          9.1818039,
          47.6559542
        ],
        [
          9.1811391,
          47.6573395
        ],
        [
          9.1819955,
          47.6605024
        ],
        [
          9.1796927,
          47.660724
        ],
        [
          9.1803101,
          47.6612176
        ],
        [
          9.1796697,
          47.6629716
        ],
        [
          9.1778805,
          47.6634291
        ],
        [
          9.1777901,
          47.6646249
        ],
        [
          9.1783851,
          47.665694
        ],
        [
          9.1697297,
          47.6689463
        ],
        [
          9.1633835,
          47.6695101
        ],
        [
          9.1608247,
          47.6690789
        ],
        [
          9.1595263,
          47.6687274
        ],
        [
          9.1587693,
          47.666969
        ],
        [
          9.1560186,
          47.6657091
        ],
        [
          9.1537446,
          47.6651585
        ],
        [
          9.1487189,
          47.6664008
        ],
        [
          9.1416871,
          47.6633619
        ],
        [
          9.1393731,
          47.6630548
        ],
        [
          9.1331205,
          47.6651694
        ],
        [
          9.1314508,
          47.6649432
        ],
        [
          9.1309547,
          47.6654188
        ],
        [
          9.1258878,
          47.6664253
        ],
        [
          9.1220813,
          47.6655035
        ],
        [
          9.118914,
          47.6657274
        ],
        [
          9.1186437,
          47.6651931
        ],
        [
          9.1176171,
          47.6651465
        ],
        [
          9.1168491,
          47.6656501
        ],
        [
          9.1108237,
          47.665569
        ],
        [
          9.1100815,
          47.6659789
        ],
        [
          9.1041683,
          47.6653515
        ],
        [
          9.0999438,
          47.6666645
        ],
        [
          9.0977111,
          47.6662895
        ],
        [
          9.0962617,
          47.6666154
        ],
        [
          9.0936612,
          47.6677587
        ],
        [
          9.0920324,
          47.6692848
        ],
        [
          9.0911435,
          47.6714247
        ],
        [
          9.0892603,
          47.6734433
        ],
        [
          9.0852863,
          47.6740444
        ],
        [
          9.0855263,
          47.6753999
        ],
        [
          9.0848497,
          47.6743977
        ],
        [
          9.0828164,
          47.6745181
        ],
        [
          9.0816561,
          47.6739034
        ],
        [
          9.0802462,
          47.6717541
        ],
        [
          9.076923,
          47.6705688
        ],
        [
          9.073405,
          47.6715518
        ],
        [
          9.0686606,
          47.6746011
        ],
        [
          9.0627752,
          47.6738363
        ],
        [
          9.0572676,
          47.6744678
        ],
        [
          9.0539781,
          47.6738512
        ],
        [
          9.0485109,
          47.674616
        ],
        [
          9.0461237,
          47.6729051
        ],
        [
          9.0442618,
          47.6727153
        ],
        [
          9.0416289,
          47.6731298
        ],
        [
          9.0389811,
          47.6745795
        ],
        [
          9.0369829,
          47.6750779
        ],
        [
          9.0343971,
          47.6737623
        ],
        [
          9.0260099,
          47.6727522
        ],
        [
          9.0232472,
          47.6735577
        ],
        [
          9.0210837,
          47.6751657
        ],
        [
          9.0176735,
          47.6750102
        ],
        [
          9.0177718,
          47.6754592
        ],
        [
          9.0155109,
          47.6747083
        ],
        [
          9.0147976,
          47.6733394
        ],
        [
          9.0128038,
          47.6724426
        ],
        [
          9.0032137,
          47.6711959
        ],
        [
          8.9993528,
          47.6713015
        ],
        [
          8.9890249,
          47.6682872
        ],
        [
          8.985903,
          47.6694114
        ],
        [
          8.9841535,
          47.6694559
        ],
        [
          8.9818706,
          47.6684498
        ],
        [
          8.9814111,
          47.6686583
        ],
        [
          8.9816662,
          47.668387
        ],
        [
          8.9801122,
          47.6668212
        ],
        [
          8.980364,
          47.6657314
        ],
        [
          8.9799795,
          47.6652217
        ],
        [
          8.9782565,
          47.664315
        ],
        [
          8.9747616,
          47.6650238
        ],
        [
          8.9729233,
          47.6646891
        ],
        [
          8.9710495,
          47.6616897
        ],
        [
          8.9717964,
          47.6600945
        ],
        [
          8.9627329,
          47.6563793
        ],
        [
          8.9613357,
          47.6562859
        ],
        [
          8.9579721,
          47.6577004
        ],
        [
          8.9558547,
          47.6567011
        ],
        [
          8.9554553,
          47.6558177
        ],
        [
          8.9527677,
          47.6543545
        ],
        [
          8.9511716,
          47.6540669
        ],
        [
          8.9494336,
          47.6549756
        ],
        [
          8.9475303,
          47.6549904
        ],
        [
          8.9439951,
          47.6525177
        ],
        [
          8.9395039,
          47.6528169
        ],
        [
          8.9369833,
          47.6517183
        ],
        [
          8.9314136,
          47.652437
        ],
        [
          8.9293594,
          47.6500911
        ],
        [
          8.9272683,
          47.6493242
        ],
        [
          8.923028,
          47.6466848
        ],
        [
          8.9212459,
          47.6464116
        ],
        [
          8.9179337,
          47.6475793
        ],
        [
          8.9178152,
          47.6482965
        ],
        [
          8.9166441,
          47.6487086
        ],
        [
          8.9167057,
          47.6482718
        ],
        [
          8.9154791,
          47.6474923
        ],
        [
          8.9137977,
          47.6476476
        ],
        [
          8.9102428,
          47.6463902
        ],
        [
          8.9063821,
          47.6435951
        ],
        [
          8.8977942,
          47.6434147
        ],
        [
          8.8951384,
          47.6442271
        ],
        [
          8.8918585,
          47.6441465
        ],
        [
          8.8857038,
          47.6482991
        ],
        [
          8.8836799,
          47.650622
        ],
        [
          8.8829464,
          47.6523246
        ],
        [
          8.8763458,
          47.653971
        ],
        [
          8.8749694,
          47.653404
        ],
        [
          8.8739716,
          47.6519413
        ],
        [
          8.8704304,
          47.6517449
        ],
        [
          8.8694032,
          47.6523864
        ],
        [
          8.869531,
          47.6535488
        ],
        [
          8.8689335,
          47.6540144
        ],
        [
          8.86648,
          47.65354
        ],
        [
          8.8628095,
          47.6549278
        ],
        [
          8.8587048,
          47.6577346
        ],
        [
          8.8592866,
          47.6586307
        ],
        [
          8.8666068,
          47.6582369
        ],
        [
          8.8695436,
          47.6563296
        ],
        [
          8.872128,
          47.6559737
        ],
        [
          8.8789736,
          47.65659
        ],
        [
          8.879574,
          47.6554868
        ],
        [
          8.8828268,
          47.6558453
        ],
        [
          8.8877254,
          47.6544971
        ],
        [
          8.8893999,
          47.6544748
        ],
        [
          8.8925672,
          47.6526219
        ],
        [
          8.8949958,
          47.652061
        ],
        [
          8.8979247,
          47.6527703
        ],
        [
          8.9019434,
          47.6547783
        ],
        [
          8.909171,
          47.6556175
        ],
        [
          8.9110925,
          47.6551304
        ],
        [
          8.9124767,
          47.655404
        ],
        [
          8.9149593,
          47.6572618
        ],
        [
          8.9174392,
          47.6576817
        ],
        [
          8.91985,
          47.6588622
        ],
        [
          8.9250392,
          47.6602695
        ],
        [
          8.9276473,
          47.6602926
        ],
        [
          8.9292782,
          47.6591023
        ],
        [
          8.9307254,
          47.6587902
        ],
        [
          8.9357414,
          47.6594745
        ],
        [
          8.9380546,
          47.6590616
        ],
        [
          8.9384521,
          47.660811
        ],
        [
          8.9394858,
          47.6618938
        ],
        [
          8.9474391,
          47.6653268
        ],
        [
          8.950205,
          47.6674936
        ],
        [
          8.9527596,
          47.6682454
        ],
        [
          8.9569697,
          47.6704673
        ],
        [
          8.9622055,
          47.6713515
        ],
        [
          8.9659384,
          47.6710998
        ],
        [
          8.9697325,
          47.6721512
        ],
        [
          8.9711552,
          47.6719583
        ],
        [
          8.9731754,
          47.6760897
        ],
        [
          8.9743448,
          47.6768915
        ],
        [
          8.9776722,
          47.6783423
        ],
        [
          8.9799234,
          47.6784408
        ],
        [
          8.9838926,
          47.6798642
        ],
        [
          8.9861806,
          47.6815361
        ],
        [
          8.991309,
          47.6822547
        ],
        [
          8.9919714,
          47.683548
        ],
        [
          8.9958886,
          47.6852231
        ],
        [
          8.99914,
          47.6873737
        ],
        [
          8.9991319,
          47.6879497
        ],
        [
          9.00189,
          47.691341
        ],
        [
          9.0044108,
          47.6929417
        ],
        [
          9.0063634,
          47.6961578
        ],
        [
          9.005672,
          47.6974713
        ],
        [
          9.0024799,
          47.7005208
        ],
        [
          8.9935899,
          47.7067048
        ],
        [
          8.9877982,
          47.7075795
        ],
        [
          8.9735562,
          47.7111454
        ],
        [
          8.9680175,
          47.7146589
        ],
        [
          8.9552864,
          47.7198339
        ],
        [
          8.9544128,
          47.720624
        ],
        [
          8.9500817,
          47.7211559
        ],
        [
          8.9426912,
          47.7238737
        ],
        [
          8.9403454,
          47.7269833
        ],
        [
          8.9408847,
          47.727438
        ],
        [
          8.9402517,
          47.7272722
        ],
        [
          8.9396866,
          47.7279182
        ],
        [
          8.9402466,
          47.7307338
        ],
        [
          8.9412096,
          47.7326995
        ],
        [
          8.9429845,
          47.7340093
        ],
        [
          8.9497317,
          47.7362634
        ],
        [
          8.9524673,
          47.7361207
        ],
        [
          8.9538707,
          47.7366864
        ],
        [
          8.9558973,
          47.7365567
        ],
        [
          8.9599403,
          47.7372199
        ],
        [
          8.9623582,
          47.7360068
        ],
        [
          8.9646146,
          47.7365677
        ],
        [
          8.9681824,
          47.7354651
        ],
        [
          8.9687722,
          47.7351243
        ],
        [
          8.9689192,
          47.734078
        ],
        [
          8.9701976,
          47.7338549
        ],
        [
          8.974442,
          47.735344
        ],
        [
          8.9835822,
          47.7323825
        ],
        [
          8.9883017,
          47.7299386
        ],
        [
          8.9903597,
          47.7296543
        ],
        [
          8.9938169,
          47.7272384
        ],
        [
          8.9991454,
          47.7267722
        ],
        [
          8.9992699,
          47.7261021
        ],
        [
          8.9983968,
          47.726095
        ],
        [
          8.9990952,
          47.7254189
        ],
        [
          9.0025756,
          47.7267221
        ],
        [
          9.0056761,
          47.7263663
        ],
        [
          9.006869,
          47.7251142
        ],
        [
          9.0053984,
          47.7240981
        ],
        [
          9.0067657,
          47.723638
        ],
        [
          9.0086947,
          47.7240033
        ],
        [
          9.010111,
          47.7233384
        ],
        [
          9.0097244,
          47.7224846
        ],
        [
          9.0090057,
          47.7222821
        ],
        [
          9.0095878,
          47.7219113
        ],
        [
          9.0088103,
          47.7214325
        ],
        [
          9.0090458,
          47.7211346
        ],
        [
          9.0145481,
          47.7197038
        ],
        [
          9.0155961,
          47.7208004
        ],
        [
          9.0157722,
          47.7217886
        ],
        [
          9.0144512,
          47.7234601
        ],
        [
          9.0132228,
          47.7237795
        ],
        [
          9.012062,
          47.7251122
        ],
        [
          9.0102428,
          47.725896
        ],
        [
          9.0089743,
          47.7271119
        ],
        [
          9.0022357,
          47.7301947
        ],
        [
          9.0003144,
          47.7338771
        ],
        [
          8.9918743,
          47.7343267
        ],
        [
          8.9897124,
          47.7348715
        ],
        [
          8.9867476,
          47.736044
        ],
        [
          8.9858709,
          47.7370634
        ],
        [
          8.985687,
          47.7382067
        ],
        [
          8.9833086,
          47.7395092
        ],
        [
          8.9831029,
          47.7404161
        ],
        [
          8.9836158,
          47.7415733
        ],
        [
          8.985468,
          47.7427749
        ],
        [
          8.9887891,
          47.7434846
        ],
        [
          8.9920242,
          47.7429365
        ],
        [
          8.9945622,
          47.7431987
        ],
        [
          8.9972142,
          47.7421128
        ],
        [
          9.0015945,
          47.7380139
        ],
        [
          9.0028964,
          47.737682
        ],
        [
          9.0048392,
          47.7362972
        ],
        [
          9.0063147,
          47.7356626
        ],
        [
          9.0090054,
          47.7355302
        ],
        [
          9.0164574,
          47.7313609
        ],
        [
          9.0188897,
          47.7312203
        ],
        [
          9.0195078,
          47.7308344
        ],
        [
          9.0194888,
          47.7300853
        ],
        [
          9.0229659,
          47.7286035
        ],
        [
          9.0263872,
          47.7281888
        ],
        [
          9.0282917,
          47.7274205
        ],
        [
          9.0325696,
          47.727297
        ],
        [
          9.0357566,
          47.7264186
        ],
        [
          9.0368423,
          47.7256032
        ],
        [
          9.0371618,
          47.7238793
        ],
        [
          9.0668431,
          47.6986981
        ],
        [
          9.0660936,
          47.6988475
        ],
        [
          9.060685,
          47.703383
        ],
        [
          9.057444,
          47.704121
        ],
        [
          9.0563576,
          47.7022466
        ],
        [
          9.0535282,
          47.7022892
        ],
        [
          9.0509991,
          47.7037673
        ],
        [
          9.0481761,
          47.7071768
        ],
        [
          9.0462457,
          47.7071256
        ],
        [
          9.040876,
          47.7081488
        ],
        [
          9.0427067,
          47.705382
        ],
        [
          9.0448092,
          47.7038197
        ],
        [
          9.0445086,
          47.703381
        ],
        [
          9.0432537,
          47.7032684
        ],
        [
          9.0440771,
          47.7025143
        ],
        [
          9.0437669,
          47.7018352
        ],
        [
          9.040868,
          47.7012746
        ],
        [
          9.0441951,
          47.6981994
        ],
        [
          9.0437131,
          47.6960565
        ],
        [
          9.042787,
          47.6946594
        ],
        [
          9.0438356,
          47.6933896
        ],
        [
          9.0529923,
          47.6908721
        ],
        [
          9.0541632,
          47.6896598
        ],
        [
          9.0544367,
          47.6902721
        ],
        [
          9.0554852,
          47.6901595
        ],
        [
          9.0581029,
          47.6891385
        ],
        [
          9.058769,
          47.6895061
        ],
        [
          9.0619242,
          47.688734
        ],
        [
          9.0657738,
          47.6870661
        ],
        [
          9.0689194,
          47.6862971
        ],
        [
          9.0713861,
          47.6849721
        ],
        [
          9.0754826,
          47.6850502
        ],
        [
          9.0803058,
          47.684208
        ],
        [
          9.0817023,
          47.6832562
        ],
        [
          9.0851445,
          47.6843432
        ],
        [
          9.0857324,
          47.6850462
        ],
        [
          9.0876115,
          47.6851012
        ],
        [
          9.0918682,
          47.6863276
        ],
        [
          9.0911402,
          47.6874294
        ],
        [
          9.0871553,
          47.6878176
        ],
        [
          9.08303,
          47.6901242
        ],
        [
          9.0820111,
          47.6902414
        ],
        [
          9.0773153,
          47.6945459
        ],
        [
          9.0752095,
          47.6955101
        ],
        [
          9.0723674,
          47.6978856
        ],
        [
          9.0684336,
          47.6987678
        ],
        [
          9.0669214,
          47.6985749
        ],
        [
          9.0381122,
          47.7234143
        ]
      ]
    ]
  }
}
