{
  "type": "Feature",
  "properties": {
    "lake": "zugersee",
    "osm_relation": 540344,
    "simplify": 0.0003
  },
  "geometry": {
    "type": "Polygon",
    "coordinates": [
      [
        [
          8.5081639,
          47.1059901
        ],
        [
          8.5092095,
          47.1031594
        ],
        [
          8.5120052,
          47.100851
        ],
        [
          8.5128315,
          47.0994109
        ],
        [
          8.5145261,
          47.0985071
        ],
        [
          8.5156517,
          47.0962914
        ],
        [
          8.5168683,
          47.0954094
        ],
        [
          8.5181323,
          47.0954954
        ],
        [
          8.519031,
          47.094609
        ],
        [
          8.5190902,
          47.0936044
        ],
        [
          8.5207405,
          47.0925233
        ],
        [
          8.5210947,
          47.0906171
        ],
        [
          8.5220622,
          47.0897621
        ],
        [
          8.5235678,
          47.0893249
        ],
        [
          8.5238405,
          47.088377
        ],
        [
          8.5228684,
          47.0862646
        ],
        [
          8.5232311,
          47.0845921
        ],
        [
          8.522275,
          47.0841145
        ],
        [
          8.5231353,
          47.0823867
        ],
        [
          8.5230715,
          47.0814737
        ],
        [
          8.528123,
          47.0734415
        ],
        [
          8.5279088,
          47.0704433
        ],
        [
          8.5270752,
          47.0691833
        ],
        [
          8.5251834,
          47.068711
        ],
        [
          8.5252957,
          47.0678332
        ],
        [
          8.5246746,
          47.0666377
        ],
        [
          8.5225483,
          47.065042
        ],
        [
          8.5211754,
          47.0627591
        ],
        [
          8.5186802,
          47.0616306
        ],
        [
          8.5143372,
          47.0615384
        ],
        [
          8.5123594,
          47.0640963
        ],
        [
          8.5101886,
          47.0658184
        ],
        [
          8.5094524,
          47.0679386
        ],
        [
          8.5087216,
          47.068547
        ],
        [
          8.5059716,
          47.0688161
        ],
        [
          8.5051288,
          47.0699404
        ],
        [
          8.5022746,
          47.0705789
        ],
        [
          8.5000033,
          47.0721784
        ],
        [
          8.4980654,
          47.0724314
        ],
        [
          8.4915156,
          47.0757196
        ],
        [
          8.4898472,
          47.0768215
        ],
        [
          8.4886921,
          47.0783769
        ],
        [
          8.4851328,
          47.0795003
        ],
        [
          8.4835159,
          47.0808635
        ],
        [
          8.4833324,
          47.0817714
        ],
        [
          8.4785332,
          47.0844643
        ],
        [
          8.4771929,
          47.0858268
        ],
        [
          8.4712281,
          47.0872992
        ],
        [
          8.4688238,
          47.0891773
        ],
        [
          8.4666917,
          47.0921208
        ],
        [
          8.4653505,
          47.0931263
        ],
        [
          8.4650361,
          47.094599
        ],
        [
          8.4640049,
          47.0959044
        ],
        [
          8.464435,
          47.0974716
        ],
        [
          8.4728895,
          47.1016485
        ],
        [
          8.4745202,
          47.1033148
        ],
        [
          8.4757795,
          47.1038043
        ],
        [
          8.4755587,
          47.105276
        ],
        [
          8.4762836,
          47.106149
        ],
        [
          8.481126,
          47.1073454
        ],
        [
          8.483365,
          47.1085726
        ],
        [
          8.4866005,
          47.1095434
        ],
        [
          8.4872208,
          47.1104917
        ],
        [
          8.4874416,
          47.1121782
        ],
        [
          8.4880725,
          47.1126697
        ],
        [
          8.4869084,
          47.1147036
        ],
        [
          8.4832273,
          47.1154561
        ],
        [
          8.4812766,
          47.114547
        ],
        [
          8.4786236,
          47.1143455
        ],
        [
          8.4727673,
          47.114812
        ],
        [
          8.4722808,
          47.1156326
        ],
        [
          8.4685295,
          47.1170626
        ],
        [
          8.4676565,
          47.1185921
        ],
        [
          8.4655181,
          47.1198564
        ],
        [
          8.4644604,
          47.1216917
        ],
        [
          8.4650926,
          47.1236823
        ],
        [
          8.4640523,
          47.1265377
        ],
        [
          8.464314,
          47.1282039
        ],
        [
          8.4638745,
          47.1301033
        ],
        [
          8.4645882,
          47.1311371
        ],
        [
          8.4678446,
          47.1334203
        ],
        [
          8.4683333,
          47.1350179
        ],
        [
          8.4717518,
          47.137678
        ],
        [
          8.4729303,
          47.1396369
        ],
        [
          8.4723424,
          47.1411178
        ],
        [
          8.4704275,
          47.1411938
        ],
        [
          8.4658209,
          47.1384418
        ],
        [
          8.4638271,
          47.1395074
        ],
        [
          8.4600461,
          47.1402702
        ],
        [
          8.4597041,
          47.1408802
        ],
        [
          8.4582336,
          47.1414366
        ],
        [
          8.4585183,
          47.1421618
        ],
        [
          8.4580119,
          47.1438435
        ],
        [
          8.4587559,
          47.1461792
        ],
        [
          8.4576901,
          47.1467377
        ],
        [
          8.4576159,
          47.1478378
        ],
        [
          8.4589665,
          47.1482523
        ],
        [
          8.4597019,
          47.1504341
        ],
        [
          8.4627832,
          47.1512368
        ],
        [
          8.4617366,
          47.1517526
        ],
        [
          8.4615652,
          47.1548003
        ],
        [
          8.4639036,
          47.1562891
        ],
        [
          8.4596839,
          47.1579907
        ],
        [
          8.4595939,
          47.1590501
        ],
        [
          8.4607478,
          47.1592409
        ],
        [
          8.4613088,
          47.1599217
        ],
        [
          8.4596957,
          47.1616376
        ],
        [
          8.4595273,
          47.1631456
        ],
        [
          8.4582279,
          47.1647603
        ],
        [
          8.4576518,
          47.1663805
        ],
        [
          8.4541234,
          47.1685871
        ],
        [
          8.4529076,
          47.1720125
        ],
        [
          8.4557184,
          47.1755508
        ],
        [
          8.4582437,
          47.1766861
        ],
        [
          8.4589263,
          47.1764118
        ],
        [
          8.4587663,
          47.1768571
        ],
        [
          8.4615056,
          47.1779959
        ],
        [
          8.462078,
          47.1788579
        ],
        [
          8.4615072,
          47.1797797
        ],
        [
          8.4634639,
          47.1785726
        ],
        [
          8.4670395,
          47.1773341
        ],
        [
          8.4677852,
          47.1778391
        ],
        [
          8.467936,
          47.1774538
        ],
        [
          8.4678465,
          47.1784705
        ],
        [
          8.4686944,
          47.1794787
        ],
        [
          8.4685435,
          47.1800255
        ],
        [
          8.4731238,
          47.1815879
        ],
        [
          8.4758724,
          47.1812751
        ],
        [
          8.4759057,
          47.1828624
        ],
        [
          8.4763354,
          47.1819998
        ],
        [
          8.4776535,
          47.18234
        ],
        [
          8.478429,
          47.1819545
        ],
        [
          8.478507,
          47.1812568
        ],
        [
          8.4775906,
          47.180322
        ],
        [
          8.4780081,
          47.1777447
        ],
        [
          8.4781896,
          47.1783559
        ],
        [
          8.481234,
          47.1778858
        ],
        [
          8.4813649,
          47.1767689
        ],
        [
          8.4807744,
          47.1763654
        ],
        [
          8.4810408,
          47.1759324
        ],
        [
          8.481825,
          47.1760115
        ],
        [
          8.4819436,
          47.1767702
        ],
        [
          8.4831598,
          47.1773799
        ],
        [
          8.4872877,
          47.1780561
        ],
        [
          8.4925372,
          47.1775114
        ],
        [
          8.4920872,
          47.1771513
        ],
        [
          8.4915123,
          47.1774912
        ],
        [
          8.4921243,
          47.1767779
        ],
        [
          8.4957458,
          47.1767211
        ],
        [
          8.496312,
          47.1763293
        ],
        [
          8.4957531,
          47.1759909
        ],
        [
          8.4960482,
          47.175685
        ],
        [
          8.4973216,
          47.1761616
        ],
        [
          8.4976532,
          47.1749407
        ],
        [
          8.5014279,
          47.1751239
        ],
        [
          8.5042627,
          47.1728069
        ],
        [
          8.5052772,
          47.1727188
        ],
        [
          8.5050742,
          47.1724099
        ],
        [
          8.5072108,
          47.1712854
        ],
        [
          8.5072997,
          47.1716913
        ],
        [
          8.5076088,
          47.1712397
        ],
        [
          8.508283,
          47.1713704
        ],
        [
          8.5081689,
          47.1718206
        ],
        [
          8.5090834,
          47.1717958
        ],
        [
          8.5135538,
          47.170231
        ],
        [
          8.5139849,
          47.1696634
        ],
        [
          8.5137373,
          47.1690273
        ],
        [
          8.5142643,
          47.1675293
        ],
        [
          8.5135443,
          47.1674019
        ],
        [
          8.5141624,
          47.1662998
        ],
        [
          8.5130874,
          47.1646642
        ],
        [
          8.5123054,
          47.1593801
        ],
        [
          8.5113466,
          47.1574281
        ],
        [
          8.5097012,
          47.1561928
        ],
        [
          8.5109128,
          47.1551531
        ],
        [
          8.510913,
          47.1541419
        ],
        [
          8.5086741,
          47.1521155
        ],
        [
          8.5083763,
          47.1502768
        ],
        [
          8.5069151,
          47.1500903
        ],
        [
          8.5071974,
          47.1494445
        ],
        [
          8.5063693,
          47.1476268
        ],
        [
          8.5049351,
          47.1471762
        ],
        [
          8.5057323,
          47.1461044
        ],
        [
          8.5055729,
          47.1428946
        ],
        [
          8.504272,
          47.1393231
        ],
        [
          8.5059708,
          47.1372361
        ],
        [
          8.5060485,
          47.1362725
        ],
        [
          8.5020483,
          47.1313436
        ],
        [
          8.4996464,
          47.1301892
        ],
        [
          8.4982776,
          47.1281382
        ],
        [
          8.4979328,
          47.1258726
        ],
        [
          8.4947635,
          47.1235988
        ],
        [
          8.4972623,
          47.1177561
        ],
        [
          8.4996137,
          47.1165624
        ],
        [
          8.499755,
          47.1151518
        ],
        [
          8.5023692,
          47.1111365
        ],
        [
          8.5031668,
          47.1085351
        ],
        [
          8.5038689,
          47.1078111
        ],
        [
          8.5054643,
          47.1075026
        ],
        [
          8.505935,
          47.1065011
        ],
        [
          8.5081639,
          47.1059901
        ]
      ]
    ]
  }
}
