{
  "type": "Feature",
  "properties": {
    "lake": "thunersee",
    "osm_relation": 1117321,
    "simplify": 0.0003
  },
  "geometry": {
    "type": "Polygon",
    "coordinates": [
      [
        [
          7.8262689,
          46.6632496
        ],
        [
          7.8234819,
          46.6615113
        ],
        [
          7.8216166,
          46.6613082
        ],
        [
          7.8202395,
          46.6602421
        ],
        [
          7.8158264,
          46.6597252
        ],
        [
          7.8090404,
          46.6625231
        ],
        [
          7.8077679,
          46.6634999
        ],
        [
          7.8074969,
          46.664304
        ],
        [
          7.8062202,
          46.6646632
        ],
        [
          7.8029773,
          46.6643776
        ],
        [
          7.7997806,
          46.6628821
        ],
        [
          7.7981684,
          46.6629745
        ],
        [
          7.7962547,
          46.6614977
        ],
        [
          7.7954175,
          46.6615797
        ],
        [
          7.7951626,
          46.6611554
        ],
        [
          7.7904819,
          46.6596462
        ],
        [
          7.7874105,
          46.6577896
        ],
        [
          7.7850729,
          46.6582643
        ],
        [
          7.7840193,
          46.6578135
        ],
        [
          7.779837,
          46.657796
        ],
        [
          7.776258,
          46.6569685
        ],
        [
          7.7746996,
          46.655804
        ],
        [
          7.7728877,
          46.6552114
        ],
        [
          7.7667322,
          46.6560912
        ],
        [
          7.7601085,
          46.654375
        ],
        [
          7.7560922,
          46.6557777
        ],
        [
          7.7515976,
          46.6566849
        ],
        [
          7.7484229,
          46.6587089
        ],
        [
          7.7480698,
          46.6593591
        ],
        [
          7.7457666,
          46.6596927
        ],
        [
          7.7441775,
          46.6613782
        ],
        [
          7.7414112,
          46.6625292
        ],
        [
          7.7332015,
          46.6643752
        ],
        [
          7.7289417,
          46.6642047
        ],
        [
          7.7257636,
          46.6655827
        ],
        [
          7.7247443,
          46.6674212
        ],
        [
          7.7237063,
          46.6679657
        ],
        [
          7.7175025,
          46.668505
        ],
        [
          7.7158985,
          46.6697098
        ],
        [
          7.7102723,
          46.6710938
        ],
        [
          7.7090259,
          46.6718363
        ],
        [
          7.7061051,
          46.6724875
        ],
        [
          7.705044,
          46.6734026
        ],
        [
          7.7037254,
          46.6735559
        ],
        [
          7.7029605,
          46.6744265
        ],
        [
          7.7030084,
          46.6753634
        ],
        [
          7.7036034,
          46.6759798
        ],
        [
          7.7041552,
          46.6790794
        ],
        [
          7.7049249,
          46.680472
        ],
        [
          7.7036347,
          46.682681
        ],
        [
          7.7025188,
          46.6828444
        ],
        [
          7.6969748,
          46.6856315
        ],
        [
          7.6908201,
          46.6863847
        ],
        [
          7.6858959,
          46.6876527
        ],
        [
          7.6859353,
          46.6883974
        ],
        [
          7.6873249,
          46.6886926
        ],
        [
          7.6899211,
          46.6883523
        ],
        [
          7.6896902,
          46.6890032
        ],
        [
          7.6891832,
          46.6889204
        ],
        [
          7.6881668,
          46.689808
        ],
        [
          7.6890124,
          46.6914946
        ],
        [
          7.6888328,
          46.6919547
        ],
        [
          7.6869186,
          46.6928168
        ],
        [
          7.6808935,
          46.6943046
        ],
        [
          7.6708982,
          46.6947843
        ],
        [
          7.6686488,
          46.695378
        ],
        [
          7.6661684,
          46.6968583
        ],
        [
          7.6660057,
          46.6965667
        ],
        [
          7.6637628,
          46.697038
        ],
        [
          7.6618453,
          46.6988953
        ],
        [
          7.6620075,
          46.7001948
        ],
        [
          7.6609196,
          46.7009692
        ],
        [
          7.6609427,
          46.7018219
        ],
        [
          7.6597683,
          46.7025695
        ],
        [
          7.6594964,
          46.7033908
        ],
        [
          7.6496573,
          46.7085395
        ],
        [
          7.6470518,
          46.709434
        ],
        [
          7.6472369,
          46.7097507
        ],
        [
          7.6465938,
          46.7095145
        ],
        [
          7.6437972,
          46.7110806
        ],
        [
          7.6443011,
          46.713585
        ],
        [
          7.6438263,
          46.7137581
        ],
        [
          7.6444456,
          46.7139306
        ],
        [
          7.6439951,
          46.7151548
        ],
        [
          7.6419383,
          46.7151063
        ],
        [
          7.6440382,
          46.7156441
        ],
        [
          7.6410838,
          46.7161998
        ],
        [
          7.643891,
          46.7159695
        ],
        [
          7.6447,
          46.7168487
        ],
        [
          7.6442529,
          46.7169107
        ],
        [
          7.6442494,
          46.7178284
        ],
        [
          7.6429486,
          46.7187387
        ],
        [
          7.6427581,
          46.7193709
        ],
        [
          7.6417716,
          46.719656
        ],
        [
          7.6415923,
          46.7189142
        ],
        [
          7.6412089,
          46.7195851
        ],
        [
          7.6409448,
          46.7189199
        ],
        [
          7.6405169,
          46.7190218
        ],
        [
          7.6406643,
          46.7194376
        ],
        [
          7.6401894,
          46.7188514
        ],
        [
          7.6405436,
          46.720054
        ],
        [
          7.6390689,
          46.7174074
        ],
        [
          7.6364346,
          46.7168318
        ],
        [
          7.6358673,
          46.717305
        ],
        [
          7.6369854,
          46.7190415
        ],
        [
          7.6391702,
          46.7191726
        ],
        [
          7.6394244,
          46.7200963
        ],
        [
          7.6357999,
          46.7205273
        ],
        [
          7.6350621,
          46.7199524
        ],
        [
          7.6334534,
          46.7197937
        ],
        [
          7.6333978,
          46.7202033
        ],
        [
          7.6315217,
          46.7190458
        ],
        [
          7.632957,
          46.7199907
        ],
        [
          7.6320258,
          46.7203561
        ],
        [
          7.6291178,
          46.7180451
        ],
        [
          7.6303898,
          46.7171263
        ],
        [
          7.6290887,
          46.7179408
        ],
        [
          7.6318108,
          46.7204109
        ],
        [
          7.6302599,
          46.7210828
        ],
        [
          7.6293992,
          46.7206884
        ],
        [
          7.6288166,
          46.7220315
        ],
        [
          7.6284055,
          46.7219197
        ],
        [
          7.6291537,
          46.7223067
        ],
        [
          7.6278292,
          46.7242784
        ],
        [
          7.6290031,
          46.7254692
        ],
        [
          7.6296931,
          46.7255148
        ],
        [
          7.628953,
          46.7267425
        ],
        [
          7.6306892,
          46.7279871
        ],
        [
          7.6293215,
          46.7277867
        ],
        [
          7.6293671,
          46.7284325
        ],
        [
          7.6300548,
          46.7281382
        ],
        [
          7.6304957,
          46.7284923
        ],
        [
          7.629229,
          46.7286362
        ],
        [
          7.6292854,
          46.7295927
        ],
        [
          7.6287134,
          46.7297072
        ],
        [
          7.629076,
          46.7297778
        ],
        [
          7.6287621,
          46.7301248
        ],
        [
          7.629137,
          46.7306617
        ],
        [
          7.6282513,
          46.7308586
        ],
        [
          7.6290448,
          46.7314764
        ],
        [
          7.6303308,
          46.7314522
        ],
        [
          7.630038,
          46.7321756
        ],
        [
          7.6307114,
          46.733008
        ],
        [
          7.6304769,
          46.7334275
        ],
        [
          7.6314081,
          46.733676
        ],
        [
          7.6297812,
          46.7336891
        ],
        [
          7.6299742,
          46.7341122
        ],
        [
          7.6305331,
          46.7338236
        ],
        [
          7.6325854,
          46.7342898
        ],
        [
          7.6301145,
          46.7343186
        ],
        [
          7.6321993,
          46.7344736
        ],
        [
          7.6303065,
          46.7348557
        ],
        [
          7.6324174,
          46.7355745
        ],
        [
          7.6312245,
          46.7362025
        ],
        [
          7.6306695,
          46.7359844
        ],
        [
          7.6302767,
          46.73649
        ],
        [
          7.6318997,
          46.7364683
        ],
        [
          7.6318905,
          46.7377194
        ],
        [
          7.632659,
          46.7382401
        ],
        [
          7.6337269,
          46.7402943
        ],
        [
          7.6312965,
          46.7406618
        ],
        [
          7.6304572,
          46.7400355
        ],
        [
          7.6285894,
          46.7398911
        ],
        [
          7.6286642,
          46.7408538
        ],
        [
          7.6315162,
          46.7408724
        ],
        [
          7.6318029,
          46.7410992
        ],
        [
          7.6314785,
          46.741451
        ],
        [
          7.6334482,
          46.7416704
        ],
        [
          7.6308471,
          46.741664
        ],
        [
          7.6289718,
          46.7422349
        ],
        [
          7.6315695,
          46.742059
        ],
        [
          7.6343148,
          46.7445889
        ],
        [
          7.6354019,
          46.7450827
        ],
        [
          7.6364622,
          46.7448443
        ],
        [
          7.6385462,
          46.7461891
        ],
        [
          7.6356442,
          46.7482959
        ],
        [
          7.6344089,
          46.7483582
        ],
        [
          7.6348602,
          46.7487561
        ],
        [
          7.6355908,
          46.7485682
        ],
        [
          7.6350998,
          46.7498534
        ],
        [
          7.630872,
          46.7545293
        ],
        [
          7.6318999,
          46.7542907
        ],
        [
          7.6344655,
          46.7516897
        ],
        [
          7.6325439,
          46.7561474
        ],
        [
          7.6328399,
          46.7568866
        ],
        [
          7.6339141,
          46.7554188
        ],
        [
          7.6357728,
          46.7544728
        ],
        [
          7.6365639,
          46.7530217
        ],
        [
          7.6369701,
          46.7517073
        ],
        [
          7.6365293,
          46.7488533
        ],
        [
          7.6385413,
          46.7477636
        ],
        [
          7.640569,
          46.7450204
        ],
        [
          7.6427433,
          46.7438726
        ],
        [
          7.6426005,
          46.7435532
        ],
        [
          7.6430549,
          46.7438068
        ],
        [
          7.6449665,
          46.7428487
        ],
        [
          7.6456851,
          46.7419269
        ],
        [
          7.6470986,
          46.7418109
        ],
        [
          7.6474227,
          46.7422497
        ],
        [
          7.6494055,
          46.7425012
        ],
        [
          7.6492691,
          46.7421736
        ],
        [
          7.6510567,
          46.7416842
        ],
        [
          7.6529731,
          46.7397381
        ],
        [
          7.6537601,
          46.7373275
        ],
        [
          7.6559538,
          46.7368446
        ],
        [
          7.6552518,
          46.7364816
        ],
        [
          7.654258,
          46.7368627
        ],
        [
          7.6562643,
          46.7365813
        ],
        [
          7.6573299,
          46.735101
        ],
        [
          7.6611385,
          46.7334586
        ],
        [
          7.6629307,
          46.731581
        ],
        [
          7.6676171,
          46.7308251
        ],
        [
          7.6672613,
          46.7302995
        ],
        [
          7.6679783,
          46.7303872
        ],
        [
          7.6684122,
          46.7293702
        ],
        [
          7.6708927,
          46.7273453
        ],
        [
          7.6737853,
          46.7272075
        ],
        [
          7.6744795,
          46.7279584
        ],
        [
          7.6766931,
          46.7275302
        ],
        [
          7.6793834,
          46.7254338
        ],
        [
          7.6821346,
          46.7241839
        ],
        [
          7.684618,
          46.7216993
        ],
        [
          7.68508,
          46.7204008
        ],
        [
          7.6885707,
          46.716385
        ],
        [
          7.6914393,
          46.7161874
        ],
        [
          7.6946555,
          46.7142787
        ],
        [
          7.6968861,
          46.7143704
        ],
        [
          7.6994176,
          46.7133341
        ],
        [
          7.7018114,
          46.7115694
        ],
        [
          7.7042279,
          46.7125591
        ],
        [
          7.7101572,
          46.7109773
        ],
        [
          7.7126904,
          46.7107956
        ],
        [
          7.7204622,
          46.7082205
        ],
        [
          7.7247746,
          46.7074447
        ],
        [
          7.7294135,
          46.7043259
        ],
        [
          7.7318169,
          46.7020633
        ],
        [
          7.7357947,
          46.7002101
        ],
        [
          7.7372165,
          46.6984058
        ],
        [
          7.7369301,
          46.6969079
        ],
        [
          7.7381662,
          46.6947938
        ],
        [
          7.7399674,
          46.6943239
        ],
        [
          7.7417135,
          46.6945471
        ],
        [
          7.7429499,
          46.6939609
        ],
        [
          7.7435644,
          46.6915436
        ],
        [
          7.7429937,
          46.6905697
        ],
        [
          7.7445121,
          46.6877265
        ],
        [
          7.7468927,
          46.6858278
        ],
        [
          7.7467783,
          46.6848919
        ],
        [
          7.746191,
          46.684659
        ],
        [
          7.7472545,
          46.6829918
        ],
        [
          7.7525261,
          46.6807717
        ],
        [
          7.757178,
          46.6802985
        ],
        [
          7.7589197,
          46.6812414
        ],
        [
          7.7634162,
          46.6821823
        ],
        [
          7.7705104,
          46.6822553
        ],
        [
          7.7766178,
          46.6816873
        ],
        [
          7.7807305,
          46.6823449
        ],
        [
          7.7842647,
          46.6838301
        ],
        [
          7.7862399,
          46.6838041
        ],
        [
          7.7920881,
          46.6858217
        ],
        [
          7.7945016,
          46.6840638
        ],
        [
          7.7971449,
          46.6838589
        ],
        [
          7.7989726,
          46.6848782
        ],
        [
          7.8003458,
          46.6849346
        ],
        [
          7.802129,
          46.6838604
        ],
        [
          7.8053705,
          46.6833967
        ],
        [
          7.8068798,
          46.6824337
        ],
        [
          7.8114327,
          46.6822977
        ],
        [
          7.811264,
          46.68175
        ],
        [
          7.8124079,
          46.6810003
        ],
        [
          7.8127452,
          46.6812058
        ],
        [
          7.8126061,
          46.680837
        ],
        [
          7.8141852,
          46.6807163
        ],
        [
          7.813615,
          46.6805304
        ],
        [
          7.8137053,
          46.6801686
        ],
        [
          7.814244,
          46.6803378
        ],
        [
          7.8139009,
          46.6799348
        ],
        [
          7.8130305,
          46.6801073
        ],
        [
          7.8129149,
          46.679606
        ],
        [
          7.8133318,
          46.6794117
        ],
        [
          7.8128621,
          46.679236
        ],
        [
          7.8132824,
          46.6789366
        ],
        [
          7.813025,
          46.6785656
        ],
        [
          7.8153758,
          46.6789058
        ],
        [
          7.8155896,
          46.6793681
        ],
        [
          7.8155798,
          46.6789869
        ],
        [
          7.8165399,
          46.6791134
        ],
        [
          7.8151175,
          46.6786991
        ],
        [
          7.8159491,
          46.6782265
        ],
        [
          7.8163362,
          46.6788026
        ],
        [
          7.8167264,
          46.6786321
        ],
        [
          7.8168648,
          46.677538
        ],
        [
          7.8174147,
          46.6774031
        ],
        [
          7.8187262,
          46.6753187
        ],
        [
          7.8207364,
          46.6748679
        ],
        [
          7.8222458,
          46.6731968
        ],
        [
          7.8240204,
          46.6728166
        ],
        [
          7.8252535,
          46.672002
        ],
        [
          7.8267976,
          46.6719241
        ],
        [
          7.8280583,
          46.6711392
        ],
        [
          7.8291744,
          46.6718861
        ],
        [
          7.8293283,
          46.6714984
        ],
        [
          7.8321203,
          46.6721062
        ],
        [
          7.8312264,
          46.6719123
        ],
        [
          7.8311814,
          46.6714861
        ],
        [
          7.8286483,
          46.6712312
        ],
        [
          7.8285779,
          46.6707101
        ],
        [
          7.8297716,
          46.6699752
        ],
        [
          7.8299258,
          46.6691605
        ],
        [
          7.8273776,
          46.6675293
        ],
        [
          7.8280012,
          46.6673321
        ],
        [
          7.827541,
          46.6670866
        ],
        [
          7.8310267,
          46.6683953
        ],
        [
          7.8287269,
          46.6673362
        ],
        [
          7.8297547,
          46.6677008
        ],
        [
          7.8299763,
          46.6671748
        ],
        [
          7.8267816,
          46.6659321
        ],
        [
          7.8275541,
          46.6647825
        ],
        [
          7.8262689,
          46.6632496
        ]
      ]
    ]
  }
}
